School,Street Address,Street Zip,Latitude,Longitude
YouthBuild Charter School of California,"611 Wilshire Blvd., Ste. 303",90017-4806,34.050103,-118.260519
YouthBuild Charter School of California Central,"155 West Washington Blvd., Ste. 517",90015-3582,34.031953,-118.266279
Academy of Arts and Sciences: Los Angeles (K-8),17500 Burbank Blvd.,91361-1718,34.172041,-118.514728
"Albert Einstein Academy for Letters, Arts & Sciences - Odyssey",8844 Burton Way,90211-1644,34.071847,-118.385246
"Albert Einstein Academy for Letters, Arts & Sciences - Odyssey",8844 Burton Way,90211-1644,34.071847,-118.385246
SIATech Academy South,255 S. Mednik Ave.,90022-1607,34.033636,-118.162279
Valley Prep 6-8,11251 Glenoaks Blvd.,91331-1621,34.274365,-118.413171
Valley Prep 9-12,14701 Friar St.,91411-2207,34.186082,-118.453497
Valley Prep K-5,11261 Glenoaks Blvd.,91331,34.274999,-118.413104
Bell Tower Trilingual School,3116 West Main St.,91801-1667,34.094189,-118.158667
Brightwood Elementary,1701 Brightwood St.,91754-5100,34.045452,-118.152682
Emery Park Elementary,2821 West Commonwealth Ave.,91803-1099,34.08782,-118.154352
Fremont Elementary,2001 South Elm St.,91803-2905,34.071205,-118.150518
Monterey Highlands Elementary,400 Casuda Canyon Dr.,91754-2204,34.056576,-118.156539
Los Angeles County Online High,"2600 Foothill Blvd., #301",91214-3588,34.221013,-118.235397
Beverly Hills Academy,489 S.Robertson Blvd 206,90211,34.057389,-118.383987
Beverly Hills High,241 Moreno Dr.,90212-3639,34.06208,-118.410577
Beverly Vista Middle,200 South Elm Dr.,90212-4011,34.064979,-118.394806
El Rodeo Elementary,605 North Whittier Dr.,90210-3112,34.067156,-118.414735
Global Citizen Leadership,5901 W Century Blvd,90045-5405,33.946096,-118.386591
Good Shepherd Catholic School,148 South Linden Dr.,90212-2209,34.065345,-118.407692
Harkham Hillel Hebrew Academy,9120 West Olympic Blvd.,90212-3508,34.059083,-118.389992
Hawthorne Elementary,624 North Rexford Dr.,90210-3312,34.077495,-118.403406
Hebrew Day School,142 S. Rexford,90212-3307,34.065594,-118.393539
Horace Mann Elementary,8701 Charleville Blvd.,90211-2805,34.065039,-118.381509
los angeles school of gymnastics,9135 West Olympic Blvd.,90212-3539,34.059649,-118.390999
Moreno High (Continuation),624 N. Rexford Dr.,90210-3312,34.079286,-118.40417
Subject Virtual School,"345 N. Maple Dr., #130",90210-3869,34.074613,-118.393946
ABC Academy,214 E Providencia Ave,91502-1432,34.177411,-118.303511
Bret Harte Elementary,3200 West Jeffries Ave.,91505-1945,34.180969,-118.345971
Brighton Hall,755 N. Whitnall Hwy,91505-2951,34.163888,-118.345624
Burbank Adult,3811 Allan Ave.,91505-1809,34.177693,-118.353039
Burbank High,902 North Third St.,91502-1018,34.188238,-118.315977
Burbank Unified Independent Learning Academy (BUILA),1915 Monterey Ave.,91506-1107,34.186971,-118.33235
Burbank USD Community Day,223 East Santa Anita Ave.,91502-1447,34.178221,-118.304521
Burroughs High,1920 Clark Ave.,91506-1918,34.17046,-118.327144
Dolores Huerta Middle,420 South Mariposa St.,91506-2812,34.165755,-118.317065
Elite Scholars,332 E Valencia Ave,91502-1549,34.177014,-118.298636
George Washington Elementary,2322 North Lincoln St.,91504-2625,34.19819,-118.335614
Horace Mann,3401 Scott Rd.,91504-1736,34.209963,-118.333093
International School of Los Angeles-BB,1105 West Riverside Dr.,91506-3214,34.159779,-118.313148
Joaquin Miller Elementary,720 East Providencia Ave.,91501-2409,34.183316,-118.297403
John Muir Middle,1111 North Kenneth Rd.,91504-4011,34.194992,-118.311246
Joyful Zen Academy LLC,3425 W Olive Ave Unit 259,91505-4771,34.153799,-118.337685
Learning Trajectory,"1405 N San Fernando Blvd, Ste. 302",91504-4284,34.190216,-118.321949
Little Angels Academy Burbank Inc.,721 S. San Fernando Blvd.,91502-1445,34.175852,-118.302404
Luther Burbank Middle,3700 West Jeffries Ave.,91505-1849,34.181076,-118.351476
Magnolia Park,1915 Monterey Ave.,91506-1107,34.186605,-118.332025
Monterey High (Continuation),1915 Monterey Ave.,91506-1107,34.186362,-118.331727
New Generation,3821 W. Victory Blvd.,91505-1402,34.185131,-118.353347
Off Campus Learning Center,3811 Allan Ave.,91505-1809,34.1776,-118.355706
Options for Youth-Burbank Charter,1610 West Burbank Blvd.,91506-1311,34.18182,-118.328937
Providence High School,511 S. Buena Vista St.,91505-4809,34.154408,-118.32683
Providencia Elementary,1919 North Ontario St.,91505-1231,34.188721,-118.34473
R. L. Stevenson Elementary,3333 Oak St.,91505-3514,34.158876,-118.338366
Ralph Emerson Elementary,720 East Cypress Ave.,91501-1812,34.191597,-118.305971
Saint Finbar School,2120 W. Olive Ave.,91506-2624,34.163536,-118.326698
Saint Francis Xavier School,3601 Scott Rd.,91504-1702,34.210865,-118.336271
Scholars Preparatory School,1001 South Glenoaks Blvd.,91502-1585,34.176187,-118.297545
St. Robert Bellarmine Elementary,154 North 5th St.,91501-2107,34.184766,-118.305572
Theodore Roosevelt Elementary,850 North Cordova St.,91505-2923,34.165036,-118.344366
Thomas Edison Elementary,2110 West Chestnut St.,91506-1520,34.178561,-118.333328
Thomas Jefferson Elementary,1900 North Sixth St.,91504-2932,34.198369,-118.321293
Walt Disney Elementary,1220 West Orange Grove Ave.,91506-2016,34.173741,-118.320425
William McKinley Elementary,349 West Valencia Ave.,91506-3309,34.166786,-118.309753
Centinela Valley Adult,4951 Marine Ave.,90260,33.895165,-118.365993
Centinela Valley Independent Study,4951 Marine Ave.,90260-4204,33.895165,-118.365993
Family First Charter,12500 Ramona Ave.,90250-4330,33.919062,-118.356559
Hawthorne High,4859 West El Segundo Blvd.,90250-4204,33.916456,-118.362903
Lawndale High,14901 South Inglewood Ave.,90260-1251,33.896373,-118.361369
Leuzinger High,4118 West Rosecrans Ave.,90260-1601,33.90137,-118.34687
New Opportunities Charter,110 South La Brea Ave.,90301-1768,33.962811,-118.352776
R. K. Lloyde High,4951 Marine Ave.,90260-1251,33.895165,-118.365993
South Bay Academy Community Day,4409 Redondo Beach Blvd.,90260-3717,33.874157,-118.352829
Vistamar School,737 Hawaii St.,90245-4816,33.904665,-118.380576
The Learning Tree,11574 Iowa Ave Unit 106,90025-7108,34.042451,-118.451558
Anderson Elementary,2210 East 130th St.,90222-2110,33.914341,-118.23221
Animo Compton Charter,13305 South San Pedro St.,90061-2254,33.911229,-118.270067
Barack Obama Charter,13305 South San Pedro St.,90061-2254,33.91079,-118.270333
Bunche Middle,12338 Mona Blvd.,90220-1320,33.920727,-118.228291
Bursch Elementary,2505 West 156th St.,90220-2640,33.891251,-118.255734
Caldwell Street Elementary,2300 West Caldwell St.,90220-4116,33.883151,-118.250703
Carver Elementary,1425 East 120th St.,90059-2418,33.923794,-118.250038
Centennial High,2606 North Central Ave.,90222-1640,33.915421,-118.254288
Cesar Chavez Continuation High,15301 San Jose Ave.,90221-3131,33.893596,-118.181862
"Clinton, William Jefferson",6500 Compton Blvd.,90221-3181,33.89534,-118.18284
Compton Academy of Technology and Innovation High,1200 East Alondra Blvd.,90221-4306,33.888212,-118.209702
Compton Adult,1104 East 148th St.,90222,33.898131,-118.254814
Compton Community Day High,2300 West Caldwell St.,90220-4116,33.88322,-118.249644
Compton Community Day Middle,2300 West Caldwell St.,90220-4116,33.88322,-118.249644
Compton Early College High,2601 North Wilmington Ave.,90222-2004,33.915392,-118.240676
Compton High,1200 East Alondra Blvd.,90221-3702,33.8874,-118.210629
Compton Middle Opportunity,"2300 West Caldwell St., Bldg. A",90220-4116,33.88304,-118.249473
Compton Performing Arts Academy,700 N. Bullis Rd,90094-2209,33.900703,-118.206332
Compton STEP,417 West Alondra Blvd.,90220-4638,33.888995,-118.228586
Compton Virtual Academy,2300 West Caldwell St.,90220-4116,33.882911,-118.249247
Davis Middle,621 West Poplar St.,90220-1927,33.900077,-118.234543
Dickison Elementary,905 North Aranbe St.,90220-2023,33.902043,-118.232334
Eko Multi-Purpose Center,403 South Santa Fe Ave.,90224-3243,33.89324,-118.216201
Emerson Elementary,1011 East Caldwell St.,90221-4340,33.884559,-118.211947
Enterprise Middle,2600 West Compton Blvd.,90220-1324,33.895316,-118.25852
Epiphany Academy,302 North Long Beach Blvd.,90221-2869,33.8977,-118.207728
Foster Elementary,1620 North Pannes St.,90221-1734,33.905999,-118.20296
Frances Willard Elementary,310 East El Segundo Blvd.,90222-2315,33.916191,-118.22288
Harriet Tubman High,12501 North Wilmington,90220,33.919243,-118.239629
Ingenium Clarion Charter Middle,13305 South San Pedro St.,90061-2254,33.911229,-118.270067
Ingenium Wings Independent Study - Compton,400 South Santa Fe Ave.,90221-3244,33.893146,-118.215427
ISANA Achernar Academy,310 East El Segundo Blvd.,90222-2315,33.915886,-118.222584
Jefferson Elementary,2508 East 133rd St.,90222-2723,33.911459,-118.225205
Kelly Elementary,2320 East Alondra Blvd.,90221-4202,33.888687,-118.198061
KIPP Compton Community,1650 West 134th St.,90222-1624,33.910595,-118.251419
Laurel Street Elementary,1321 West Laurel St.,90220-2801,33.892823,-118.245323
Lifeline Education Charter,225 South Santa Fe Ave.,90221-3240,33.894634,-118.216078
Lincoln Elementary,1667 East 118th St.,90059-2515,33.92599,-118.244414
Longfellow Elementary,1101 South Dwight St.,90220-4496,33.88579,-118.240943
Los Angeles Adventist Academy,846 East El Segundo Blvd.,90059-3310,33.916331,-118.259769
Los Angeles Computer Science Academy,2201 E 118Th St.,90059-2613,33.926231,-118.233423
Mandela Children's Learning Village,531 W Tichenor St.,90220-4663,33.886038,-118.232812
Manuel Dominguez High,15301 South San Jose Ave.,90221-3131,33.89383,-118.18237
Martin Luther King Elementary,2270 East 122nd St.,90222-1304,33.921168,-118.232234
Mayo Elementary,915 North Mayo Ave.,90221-2112,33.902366,-118.213026
McKinley Elementary,14431 Stanford Ave.,90220-1128,33.900643,-118.26164
OPTIMAL CHRISTIAN ACADEMY,1300 E. Palmer St.,90221-2810,33.898078,-118.209373
Our Lady of Victory Catholic School,601 East Palmer St.,90221-2615,33.898637,-118.216889
Ralph Bunche Elementary,16223 South Haskins Ln.,90746-1021,33.88383,-118.260933
Red Star,5005 Venice Blvd,90019-5309,34.046077,-118.346772
Robert F. Kennedy Elementary,1305 South Oleander St.,90220-4646,33.884149,-118.227997
Ronald E. McNair Elementary,1450 West El Segundo Ave.,90222-1145,33.916186,-118.247509
Roosevelt Elementary,700 North Bradfield Ave.,90221-2307,33.900281,-118.204028
Roosevelt Middle,1200 East Alondra Blvd.,90221-4306,33.888509,-118.209904
Rosecrans Elementary,1301 North Acacia Ave.,90227-4001,33.904663,-118.22835
St. Albert the Great Elementary School,804 East Compton Blvd.,90220-1106,33.894528,-118.261792
Thurgood Marshall,15301 San Jose Ave.,90221-3131,33.89361,-118.181885
Tibby Elementary,1400 West Poplar St.,90220-1537,33.899873,-118.246677
Today's Fresh Start-Compton,4476 Crenshaw Blvd.,90043-1208,34.002873,-118.330295
Vanguard Learning Center,13305 South San Pedro St.,90061-2254,33.910884,-118.269698
Walton Middle,900 West Greenleaf Ave.,90220-5101,33.880636,-118.23851
Washington Elementary,1421 North Wilmington Ave.,90222-3406,33.906029,-118.238733
Whaley Middle,14401 South Gibson Ave.,90221-2514,33.902752,-118.189547
Willowbrook Middle,2601 North Wilmington Ave.,90222-2004,33.915621,-118.239244
Wonderland Angels Early Learning Center,15208 South Avalon Blvd,90220-2517,33.893927,-118.264944
Compton Unified ROP,700 North Bullis Rd.,90221-2209,33.89036,-118.206172
Culver City Adult,4909 Overland Ave.,90230,34.008011,-118.397503
Culver City High,4401 Elenda St.,90230-4101,34.007671,-118.402076
Culver City Independent Study,5303 Berryman Ave.,90230,33.992816,-118.400225
Culver City Middle,4601 Elenda St.,90230-4103,34.007036,-118.401019
Culver City Unified School District iAcademy,"4601 Elenda St., CP Annex",90230,34.021122,-118.396467
Culver Park High,4601 Elenda St.,90230-4103,34.006644,-118.40103
ECF Kayne Eras Center,5350 Machado Rd.,90230-0230,33.99784,-118.396726
Echo Horizon School,3430 McManus Ave.,90232-7407,34.028707,-118.378304
El Marino Elementary,11450 Port Rd.,90230-5346,33.992306,-118.401901
El Rincon Elementary,11177 Overland Ave.,90230-5454,33.994838,-118.390451
Farragut Elementary,10820 Farragut Dr.,90230-4107,34.007624,-118.400098
La Ballona Elementary,10915 Washington Blvd.,90232-4045,34.013188,-118.4095
Linwood E. Howe Elementary,4100 Irving Pl.,90232-2812,34.02174,-118.39268
Park Century Elementary,3939 Landmark St.,90232-2315,34.026432,-118.387712
Ready Global Academy (Online School),3817 Albright Ave.,90066-4001,34.010193,-118.420623
Summit View–Westside,12101 W. Washington Blvd,90066-5501,33.997856,-118.424434
The Willows Community School,8509 Higuera St.,90232-2521,34.022648,-118.380611
Turning Point School,8780 National Blvd.,90232-2348,34.026979,-118.384777
Old River Elementary,11995 Old River School Rd.,90242-2155,33.938442,-118.155349
St. Pius X St. Matthias Academy,7851 Gardendale St.,90242-4121,33.919907,-118.15934
Stauffer (Mary R.) Middle,11985 Old River School Rd.,90242-2155,33.938547,-118.155273
Arena High (Continuation),630 Arena St.,90245-3036,33.923914,-118.412306
Center Street Elementary,700 Center St.,90245-3207,33.925041,-118.404789
El Segundo High,640 Main St.,90245-3057,33.924213,-118.415885
El Segundo Middle,332 Center St.,90245-4047,33.920105,-118.404774
Fusion Academy - Manhattan Beach,"2101 Rosecrans Ave., Ste. 1225",90245-4786,33.90267,-118.387912
Richmond Street Elementary,615 Richmond St.,90245-2283,33.923861,-118.417243
ABC School,"116 N Artsakh Ave , Ste. 100",91206-4771,34.146783,-118.253828
Abraham Lincoln Elementary,4310 New York Ave.,91214-2567,34.228069,-118.252981
Anderson W. Clark Magnet High,4747 New York Ave.,91214-1841,34.236926,-118.253058
Armenian Fairytale,329 N Verdugo Rd,91206-3944,34.150576,-118.237042
Armenian Sisters' Academy of Los Angeles,2361 Florencita Ave.,91020-1817,34.208053,-118.230052
"Artek Child Education Center, Inc.",546 West BRd.way,91204,34.146494,-118.266248
Balboa Elementary,1844 Bel Aire Dr.,91201-1173,34.180304,-118.285533
Benjamin Franklin Elementary,1610 Lake St.,91201-2610,34.162398,-118.296429
Cerritos Elementary,120 East Cerritos Ave.,91205-3107,34.125506,-118.25446
Chamlian Armenian School,4444 Lowell Ave.,91214-2366,34.238761,-118.266077
Cloud Preschool,4444 Cloud Ave.,91214-3440,34.227043,-118.246412
College View,1700 East Mountain St.,91207-1246,34.164915,-118.230062
Columbus Elementary,425 West Milford St.,91203-1708,34.152678,-118.262181
Crescenta Valley High,2900 Community Ave.,91214-3471,34.223671,-118.242201
Daily (Allan F.) High (Continuation),220 North Kenwood,91206-4209,34.1485,-118.2513
Dunsmore Elementary,4717 Dunsmore Ave.,91214-1814,34.239368,-118.257417
EDEN ACADEMY,334 N Pacific Ave,91203-2129,34.151047,-118.264392
Eleanor J. Toll Middle,700 Glenwood Rd.,91202-1524,34.165202,-118.270035
Elliott Institute,2506 Foothill Blvd,91214-3506,34.219658,-118.233223
First Steps,6245 Honolulu Ave,91214-2347,34.232769,-118.268123
Glendale Adventist Academy,700 Kimlin Dr,91206-1641,34.156987,-118.226713
Glendale High,1440 East Broadway,91205-1503,34.146175,-118.23259
Glenoaks Elementary,2015 East Glenoaks Blvd.,91206-2911,34.151509,-118.222366
Grand Educational Centre,725 E BRd.way,91205,34.142508,-118.255075
Grand Stage Dance Inc,725 E BRd.way,91205,34.142508,-118.255075
Herbert Hoover High,651 Glenwood Rd.,91202-1552,34.165339,-118.270454
Holy Family Elementary,400 South Louise St.,91205-1624,34.141499,-118.252378
Horace Mann Elementary,501 East Acacia Ave.,91205-2823,34.134956,-118.24988
Incarnation Elementary,123 West Glenoaks Blvd.,91202-2908,34.159846,-118.255525
Jewel City Community Day,440 West Lomita,91204-1512,34.139883,-118.261514
John C. Fremont Elementary,3320 Las Palmas Ave.,91208-1525,34.199576,-118.232446
John Marshall Elementary,1201 East Broadway,91205-1407,34.146261,-118.239543
John Muir Elementary,912 South Chevy Chase Dr.,91205-2540,34.133801,-118.24315
JT Academy of Secondary Education,3155 Glendale Blvd Ste 1097,90039-1805,34.117396,-118.26205
Kids Jungle Child Care,1234 S. Glendale Ave.,91205-2818,34.131356,-118.251892
La Crescenta Elementary,4343 La Crescenta Ave.,91214-3806,34.220534,-118.240006
La Crescenta Montessori school,3811 foothill,91214-1619,34.238355,-118.262324
Mark Keppel Elementary,730 Glenwood Rd.,91202-1524,34.165701,-118.272595
Monte Vista Elementary,2620 Orange Ave.,91214-2199,34.230815,-118.236245
Montrose Christian Montessori School,2545 Honolulu Ave,91020-1805,34.208614,-118.234854
Mountain Avenue Elementary,2307 Mountain Ave.,91214-3135,34.224123,-118.228127
Pacific Avenue - Early Bird Preschool,440 West Lomita Ave.,91204-1512,34.139932,-118.262224
R. D. White Elementary,744 East Doran St.,91206-2422,34.15457,-118.246119
Robbin's Nest Preschool and Kindergarten,2912 Honolulu Ave.,91214-3909,34.212793,-118.242426
Rosemont Middle,4725 Rosemont Ave.,91214-3146,34.226227,-118.235178
Salem Lutheran School,1211 N. Brand Blvd.,91202-1959,34.16436,-118.255563
St. James -Holy Redeemer School,4635 Dunsmore Ave.,91214-1812,34.238082,-118.257411
Theodore Roosevelt Middle,222 East Acacia Ave.,91206-2805,34.134711,-118.253528
Thomas Edison Elementary,435 South Pacific Ave.,91204-1441,34.140568,-118.264487
Thomas Jefferson Elementary,1540 Fifth St.,91201-1925,34.170299,-118.285841
Valley View Elementary,4900 Maryland Ave.,91214-1245,34.238338,-118.250736
Verdugo Academy,1700 East Mountain St.,91207-1246,34.164082,-118.228083
Verdugo Woodlands Elementary,1751 North Verdugo Rd.,91208-2999,34.173062,-118.226516
Woodrow Wilson Middle,1221 Monterey Rd.,91206-2521,34.155211,-118.238332
Zangakner,602 E Glenoaks Blvd,91207-1712,34.158081,-118.248848
Academy for Recording Arts,14115 Chadron Ave.,90250-8208,33.902866,-118.32868
Al-huda Islamic School,12227 Hawthorne Way,90250-3811,33.921326,-118.35388
Bud Carson Middle,13838 South Yukon Ave.,90250-7716,33.906465,-118.33516
Eucalyptus,12044 South Eucalyptus Ave.,90250-3602,33.923259,-118.359052
Hawthorne Math and Science Academy,4467 West Broadway,90250-3819,33.920043,-118.354063
Hawthorne Middle,4366 West 129th St.,90250-5211,33.91528,-118.350701
Jefferson,4091 West 139th St.,90250-7303,33.905321,-118.346386
Kornblum,3620 West El Segundo Blvd.,90250-4819,33.916385,-118.335988
Prairie Vista Middle,13600 South Prairie Ave.,90250-7306,33.908385,-118.343796
Ramona,4617 West 136th St.,90250-5735,33.909002,-118.357486
Rising Stars Academy Elementary,13703 Prairie Ave,90250-7307,33.907328,-118.344117
St. Joseph Elementary,11886 Acacia Ave.,90250-3003,33.925736,-118.351315
Trinity Lutheran School,4783 West 130th St.,90250-5148,33.914344,-118.361197
Washington,4339 West 129th St.,90250-5210,33.915405,-118.350203
York,11838 South York Ave.,90250-3125,33.926644,-118.344879
Zela Davis,13435 South Yukon Ave.,90250-6228,33.909935,-118.335233
Hermosa Valley Elementary,1645 Valley Dr.,90254-2921,33.866394,-118.395992
Hermosa View Elementary,1800 Prospect Ave.,90254-3350,33.869023,-118.390542
Hermosa Vista,417 25Th St.,90254-2620,33.872624,-118.402573
Opportunities for Learning - Hermosa Beach,13613 Hawthorne Ave.,90250,33.90848,-118.352492
"Options for Youth-Hermosa Beach, Inc.",6628 Van Nuys Blvd.,91405,34.191519,-118.448248
Our Lady of Guadalupe Elementary,340 Massey St.,90254-4927,33.858807,-118.385816
A Bright Beginning,2440 West Manchester,90305-2518,33.959674,-118.320646
A Bright Beginning CDC,712 E  Manchester Blvd,90301-1912,33.959502,-118.345953
Animo Inglewood Charter High,3425 West Manchester Blvd.,90305-2101,33.960029,-118.331386
Bennett/Kew Leadership Academy of Excellence,11710 South Cherry Ave.,90303-2933,33.92782,-118.332907
Beulah Payne STEAM Academy,215 West 94th St.,90301-3701,33.950924,-118.357406
Centinela,1123 Marlborough Ave.,90302-1697,33.977631,-118.346335
Children of Promise Preparatory Academy,3130 West 111th Pl.,90303-2315,33.933822,-118.32749
City Honors International Preparatory High,120 West Regent St.,90301-1225,33.963561,-118.356184
CORE 4 Learning Launchpad,701 Walnut St. Unit A,90301-0326,33.955311,-118.356828
Crozier (George W.) Junior High,1210 West Regent St.,90301-1705,33.964264,-118.367607
Dolores T Richardson School,8420 South Crenshaw Blvd,90305-1914,33.962312,-118.327328
Frank D. Parent,5354 West 64th St.,90302-1042,33.98272,-118.374599
Freeman (Daniel) Elementary,2602 West 79th St.,90305-1032,33.9672,-118.322185
Grace Hopper STEM Academy,601 Grace Ave.,90301-1306,33.96839,-118.347038
Highland Elementary,430 Venice Way,90302-2099,33.972731,-118.362768
Hudnall (Claude) Elementary,331 West Olive St.,90301-2213,33.961095,-118.360747
ICEF Inglewood Elementary Charter Academy,434 South Grevillea Ave.,90301-2300,33.958058,-118.354921
ICEF Inglewood Middle Charter Academy,304 East Spruce Ave.,90301-2711,33.958349,-118.34984
Inglewood Academy,401 South Inglewood Ave.,90301,33.958761,-118.361752
Inglewood Adult,441 W. Hillcrest Blvd.,90301,33.956741,-118.363134
Inglewood Continuation High,441 West Hillcrest Blvd.,90301-2521,33.956734,-118.363124
Inglewood High,231 South Grevillea Ave.,90301-2323,33.961275,-118.355076
Iovine and Young Center Inglewood,120 West Regent St.,90301-1225,33.96359,-118.356251
Kelso (William H.),809 East Kelso St.,90301-2809,33.956819,-118.345298
Kids' Castle Child Care Center,745 N. La Brea Ave.,90302-2203,33.973018,-118.357928
La Tijera Academy of Excellence Charter,1415 North La Tijera Blvd.,90302-1022,33.980914,-118.368537
Monroe (Albert F.) Magnet Middle School,10711 10th Ave.,90303-2015,33.93929,-118.327356
Morningside High,10500 South Yukon Ave.,90303-2003,33.940768,-118.33511
Oak Street,633 South Oak St.,90301-2547,33.955671,-118.366098
"Slauson Learning Center, No. 2",260 North Locust St.,90301-1204,33.966631,-118.349936
St. John Chrysostom,530 East Florence Ave.,90301-1402,33.969166,-118.347704
St. Mary's Academy,701 Grace Ave.,90301-1359,33.969064,-118.345421
Today's Fresh Start Charter School Inglewood,3405 West Imperial Hwy.,90303-2219,33.930961,-118.332091
Warren Lane TK-6 Elementary,2602 West 79th St.,90305-1032,33.967113,-118.323171
Wilder's Preparatory Academy Charter,830 North La Brea Ave.,90302-2206,33.974312,-118.357656
Wilder's Preparatory Academy Charter Middle,830 North La Brea Ave.,90302-2206,33.974312,-118.357656
Woodworth-Monroe Academy,10711 10th Ave.,90303-2015,33.938839,-118.327841
Worthington TK-6 Elementary,11101 South Yukon Ave.,90303-2728,33.934459,-118.335124
Crestview Preparatory School,140 Foothill Blvd.,91011-3727,34.194056,-118.179352
Flintridge Preparatory School,4543 Crown Ave.,91011-3637,34.198715,-118.183997
Flintridge Sacred Heart Academy,440 St. Katherine Dr.,91011-4113,34.179805,-118.18596
Foothill Progressive Montessori Schools,4526 Indianola Way,91011-3350,34.20114,-118.190294
Foothills (Special Education),4490 Cornishon Ave.,91011,34.205641,-118.203638
Hillside School and Learning Center,4331 Oak Grove Dr.,91011-3707,34.187841,-118.179276
Hogg's Hollow Kindergarten,"4490 Cornishon Ave.,",91011-3219,34.204429,-118.20306
La Canada Elementary,4540 Encinas Dr.,91011-2217,34.208698,-118.206082
La Canada High,4463 Oak Grove Dr.,91011-3738,34.18809,-118.179003
"Learning Castle, Inc. (aka La Canada Preparatory)",4490 Cornishon Ave.,91011,34.205159,-118.20324
Palm Crest Elementary,5025 Palm Dr.,91011-1518,34.223168,-118.217547
Paradise Canyon Elementary,471 Knight Way,91011-2725,34.208228,-118.187614
St. Bede the Venerable Elementary,4524 Crown Ave.,91011-3636,34.198068,-118.183377
St. Francis High School,200 Foothill Blvd.,91011-3700,34.19611,-118.182501
The Best Start Preparatory Academy,922 1/2 Sanborn Ave.,90027-3018,34.088645,-118.282732
Alice C. Stelle Middle,22450 Mulholland Hwy.,91302-5180,34.143277,-118.61471
Bay Laurel Elementary,24740 Paseo Primario,91302-3071,34.139218,-118.65174
Calabasas High,22855 West Mulholland Hwy.,91302-2047,34.138162,-118.623432
Chaparral Elementary,22601 Liberty Bell Rd.,91302-5701,34.141624,-118.619055
Round Meadow Elementary,5151 Round Meadow Rd.,91302-1161,34.153634,-118.665927
Viewpoint School,23620 Mulholland Hwy.,91302-2060,34.134934,-118.645026
Billy Mitchell Elementary,14429 Condon Ave.,90260-1308,33.900745,-118.359481
Carson School,3530 West 147th St.,90250-8518,33.898264,-118.333703
Environmental Charter High - Lawndale,16315 Grevillea Ave.,90260-2858,33.882553,-118.35488
F. D. Roosevelt Elementary,3533 West Marine Blvd.,90260-2400,33.895038,-118.334519
Jane Addams Middle,4535 West 153rd Pl.,90260-1957,33.891884,-118.35643
Kit Carson Elementary,3530 West 147th St.,90250,33.898255,-118.333651
Lucille J. Smith Elementary,4521 West 147th St.,90260-1324,33.898564,-118.355603
Mark Twain Elementary,3728 West 154th St.,90260-2464,33.890947,-118.33841
Will Rogers Middle,4110 West 154th St.,90260-1740,33.891026,-118.346256
William Anderson Elementary,4130 West 154th St.,90260-1740,33.890969,-118.346935
William Green Elementary,4520 West 168th St.,90260-3246,33.878436,-118.355387
Animo Leadership High,11044 South Freeman Ave.,90301-2902,33.934769,-118.347708
Buford Elementary,4919 West 109th St.,90304-2135,33.936705,-118.363881
Century Academy for Excellence,2400 West 85th St.,90305-1816,33.960794,-118.31956
Century Community Charter,901 South Maple St.,90301-3823,33.95222,-118.353789
Dolores Huerta Elementary,4125 West 105th St.,90304-2019,33.940973,-118.349596
Felton Elementary,10417 Felton Ave.,90304-1709,33.941622,-118.365802
Jefferson Elementary,10322 Condon Ave.,90304-1436,33.941015,-118.359078
"Lennox Mathematics, Science and Technology Academy",11036 Hawthorne Blvd.,90304-2316,33.93528,-118.352503
Lennox Middle,11033 Buford Ave.,90304-2126,33.935419,-118.363524
Lennox Virtual Academy,10319 Firmona Ave.,90304-1419,33.942838,-118.357749
Moffett Elementary,11050 Larch Ave.,90304-1419,33.935059,-118.350288
Addams Elementary,5320 Pine Ave.,90805-5930,33.852775,-118.191664
Alvarado Elementary,1900 East 21st St.,90755-5858,33.794544,-118.16822
Barton Elementary,1100 East Del Amo Blvd.,90807-1010,33.846748,-118.179589
Beach K-12 Independent Study,2153 W. Hill St.,90810-3400,33.797632,-118.218374
Birney Elementary,710 West Spring St.,90806-1413,33.811592,-118.200351
Bobbie Smith Elementary,565 East Hill St.,90806-4457,33.79718,-118.185764
Burbank Elementary,501 Junipero Ave.,90814-1031,33.772536,-118.164133
Burroughs Elementary,1260 East 33rd St.,90755-5229,33.817052,-118.175635
Cabrillo High,2001 Santa Fe Ave.,90810-4068,33.793514,-118.215599
California Academy of Mathematics and Science,"1000 East Victoria St., Bldg. SAC3 rm3117",90747-0001,33.867102,-118.25869
Chavez Elementary,730 West Third St.,90802-2745,33.770504,-118.182951
Clear Passage Educational Center,1471 Martin Luther King Jr. Ave.,90813-2162,33.784522,-118.180948
Colegio New City,1637 Long Beach Blvd.,90813,33.788153,-118.18948
Constellation Community Charter Middle,620 Olive Ave.,90802-1546,33.774752,-118.182331
Dooley Elementary,5075 Long Beach Blvd.,90805-6345,33.848192,-118.194417
Edison Elementary,625 Maine Ave.,90802-1143,33.773647,-118.20067
Education Readiness Today,610 Orange Ave Apt 5,90802-1772,33.774444,-118.176013
Educational Partnership High,1794 Cedar Ave.,90813-1770,33.788846,-118.194994
First Baptist Church School,1000 Pine Ave,90813-3119,33.780015,-118.192031
Franklin Classical Middle,540 Cerritos Ave.,90802-1623,33.773409,-118.177906
Garfield Elementary,2240 Baltic Ave.,90810-3597,33.797873,-118.213196
Gethsemane Baptist Christian,6095 Orange Ave.,90805-3059,33.864631,-118.177612
Grant Elementary,1225 East 64th St.,90805-2534,33.871036,-118.176765
Greater United Faith Apostolic Church/United Faith Community School,6934 North Long Beach,90805-1136,33.880005,-118.204187
Hamilton Middle,1060 East 70th St.,90805-1008,33.881788,-118.179458
Harte Elementary,1671 East Phillips St.,90805-4811,33.858779,-118.172427
Holy Innocents Elementary,2500 Pacific Ave.,90806-3034,33.803195,-118.193295
Hudson,2335 Webster Ave.,90810-3254,33.799581,-118.219834
Hughes Middle,3846 California Ave.,90807-3510,33.827469,-118.180596
HUNTINGTON ACADEMY,1423 Walnut Ave,90813-2425,33.784849,-118.172265
Intellectual Virtues Academy of Long Beach,3601 Linden Ave.,90807-4001,33.823065,-118.187264
Jenny Oropeza Elementary,700 Locust Ave.,90813-4317,33.775356,-118.191035
Jessie Nelson Academy,1951 Cherry Ave.,90755-5823,33.792988,-118.168847
Jordan High,6500 Atlantic Ave.,90805-2304,33.872497,-118.185921
King Elementary,145 East Artesia Blvd.,90805-2003,33.874417,-118.201736
Lafayette Elementary,2445 Chestnut Ave.,90806-2997,33.80158,-118.195943
Legezy Academy,630 E Via Almendro,90805-6514,33.84951,-118.183207
LEN Educational Services,344 West 8Th St.,90813-4210,33.776368,-118.196191
Lincoln Elementary,1175 East 11th St.,90813-3659,33.780845,-118.176961
Lindbergh STEM Academy,1022 East Market St.,90805-6034,33.854306,-118.180238
Lindsey Academy,5075 Daisy Ave.,90805-6307,33.848346,-118.198739
Longfellow Elementary,3800 Olive Ave.,90807-3577,33.826987,-118.18261
Los Cerritos Elementary,515 West San Antonio Dr.,90807-3117,33.827929,-118.19903
Madison Elementary,2801 Bomberry St.,90712-3724,33.838528,-118.158582
Mann Elementary,257 Coronado Ave.,90803-5842,33.76653,-118.153575
McKinley Elementary,6822 Paramount Blvd.,90805-1937,33.878748,-118.159859
Montessori On Elm,930 Elm Ave.,90813-4426,33.77858,-118.187283
Muir K-8,3038 Delta Ave.,90810-2843,33.812547,-118.211017
New City,1637 Long Beach Blvd.,90813-1929,33.788129,-118.189907
New Hope Academy of Change,1133 Rhea St.,90806-5125,33.792741,-118.178294
Oaktree Preschool and Kindergarten,1710 Redondo Ave.,90804-1924,33.788289,-118.152064
Oakwood Academy,3850 Long Beach Blvd,90807-3312,33.828555,-118.188923
Olivia Nieto Herrera Elementary,1620 Temple Ave.,90804-1638,33.787326,-118.158862
Pacific Baptist School,3332 Magnolia Ave,90806-1234,33.817957,-118.197736
Polytechnic High,1600 Atlantic Ave.,90813-2017,33.787163,-118.184962
Powell Academy for Success,150 Victoria St.,90805-2147,33.864818,-118.203585
QTD International,1308 E Silva St,90807-1150,33.847345,-118.175002
Renaissance High School for the Arts,235 East 8th St.,90813-4311,33.776825,-118.190412
Richard D. Browning High,2120 Obispo Ave.,90804,33.795479,-118.154577
Robinson Academy,1400 E. 20th St.,90806-5757,33.793083,-118.173796
Roosevelt Elementary,1574 Linden Ave.,90813-2032,33.786281,-118.186603
Saint Anthony High School,620 Olive Ave.,90802-1546,33.774457,-118.182226
Signal Hill Elementary,2285 Walnut Ave.,90755-3619,33.798607,-118.172064
Spectrum Center Schools- Long Beach Jordan Plus HS,171 West Bort St.,90805-2111,33.87051,-118.204749
St. Anthony Parish,855 East 5th St.,90802-2602,33.773039,-118.181029
St. Athanasius Elementary,5377 Linden Ave.,90805-6062,33.853772,-118.186229
St. Barnabas Elementary,3980 Marron Ave.,90807-3664,33.831042,-118.176942
St. Lucy School,2320 Cota Ave.,90810-3230,33.799435,-118.216177
Stephens Middle,1830 West Columbia St.,90810-2913,33.809075,-118.216917
Stevenson Elementary,515 Lime Ave.,90802-2642,33.773258,-118.183744
Success Work College Preparatory Academy,3355 Atlantic Ave.,90807-4511,33.818151,-118.18524
The Muse Academy,1135 Gaviota Ave,90813-3813,33.781553,-118.171305
Washington Middle,1400 E. 20th St.,90806-5757,33.793366,-118.17415
Webster Elementary,1755 West 32nd Way,90810-2459,33.816208,-118.216015
Westerly School of Long Beach,2950 E. 29Th St.,90806-2315,33.807318,-118.156027
Whittier Elementary,1761 Walnut Ave.,90813-2430,33.789148,-118.172051
Willard Elementary,1055 Freeman Ave.,90804-3804,33.779962,-118.155727
Alma Fuerte Public,524 Palisade St.,91103-2056,34.170299,-118.161227
Animo City of Champions Charter High,9330 South Eighth Ave.,90305-2914,33.951586,-118.325055
Aspire Antonio Maria Lugo Academy,6100 Carmelita Ave.,90255-4138,33.984203,-118.196598
Aspire Ollin University Preparatory Academy,2540 East 58th St.,90255-2659,33.990154,-118.226537
Bridges Preparatory Academy,400 South Santa Fe Ave.,90221-3244,33.893146,-118.215427
Celerity Sirius Charter,310 East El Segundo Blvd.,90222-2315,33.915978,-118.222636
Central Juvenile Hall,1605 Eastlake Ave.,90033,34.063497,-118.20587
Da Vinci RISE High,201 North Douglas St.,90245-4637,33.917773,-118.383986
East Los Angeles County Community,1260 South Monterey Pass Rd.,91754-3617,34.048695,-118.160835
Environmental Charter High - Gardena,2818 Manhattan Beach Blvd.,90249-4534,33.887035,-118.325328
Environmental Charter Middle - Gardena,812 West 165th Pl.,90247-5105,33.880446,-118.289578
Environmental Charter Middle - Inglewood,3600 West Imperial Hwy.,90303-2714,33.930642,-118.335892
Intellectual Virtues Academy,1637 Long Beach Blvd.,90813-4001,33.787916,-118.189829
Jardin de la Infancia,"1400 S Broadway Los Angeles, CA 90015",90015-2209,34.035321,-118.262415
"Kirby, Dorothy Camp",1500 South McDonnell Ave.,90040,34.011983,-118.170193
L.A. County High School for the Arts,5151 State University Dr.,90032-4221,34.062369,-118.171605
Lashon Academy,7477 Kester Ave.,91405-1722,34.206356,-118.457491
Lashon Academy City,3109 Sixth Ave.,90018-2920,34.02663,-118.324179
Los Padrinos Juvenile Hall,7285 East Quill Dr.,90242,33.933578,-118.163154
Magnolia Science Academy,18238 Sherman Way,91335-4550,34.201083,-118.530541
Magnolia Science Academy 2,17125 Victory Blvd.,91406-5455,34.18669,-118.505421
Magnolia Science Academy 3,1254 East Helmick St.,90746-3164,33.851607,-118.249577
Magnolia Science Academy 5,18238 Sherman Way,91335-6121,34.200724,-118.530231
"Nidorf SYTF, Barry J.",16350 Filbert St.,91342,34.314485,-118.484129
North Valley Military Institute College Preparatory Academy,12105 Allegheny St.,91352,34.234622,-118.396563
Odyssey Charter,725 West Altadena Dr.,91001-4103,34.199346,-118.162116
Opportunities Unlimited Charter High,5100 South Broadway Ave.,90037,33.996155,-118.277941
Optimist Charter,6957 North Figueroa St.,90042-1245,34.128523,-118.187757
Pacific Lodge Residential Education Center,4900 Serrania Ave.,91364,34.157824,-118.588138
Phoenix Academy Residential Education Center,11600 Eldrige Ave.,91342-6522,34.280288,-118.382751
Renaissance County Community,14600 Cerise Ave.,90250-8526,33.898285,-118.332893
Russell Westbrook Why Not? Middle,1700 West 46th St.,90062-2347,34.001137,-118.309155
Soledad Enrichment Action Charter High,222 North Virgil Ave.,90004-3622,34.075643,-118.286826
Soleil Academy Charter,3900 Agnes Ave.,90262-4415,33.917011,-118.201802
The SEED School of Los Angeles County,8400 South Vermont Ave.,90044-3424,33.96217,-118.291218
Tri Community PAU,12721 South Willowbrook Ave.,90222-1529,33.916938,-118.232127
Valiente College Preparatory Charter,8691 California Ave.,90280-3003,33.954987,-118.20667
Via Nueva Academy,3633 Slauson Ave.,90270-5655,33.988597,-118.199675
We the People High,1635 Long Beach Blvd.,90813-2304,33.787729,-118.189813
Westbrook Academy,2340 Firestone Blvd.,90280-2654,33.956381,-118.229758
Westchester Secondary Charter,7001 South St. Andrews Pl.,90047-1833,33.976593,-118.312259
Wisdom Academy for Young Scientists,706 East Manchester Ave.,90001-3633,33.95994,-118.26269
ABC Little School,14926 Burbank Blvd,91411-3609,34.171748,-118.458429
"ABC Little School Van Nuys, LLC",6447 Woodman Ave.,91401-1603,34.188035,-118.431665
"ABC Little School, Studio City",11728 Moorpark St.,91604-2111,34.149974,-118.3887
Abraham Joshua Heschel Day School,17701 Devonshire St.,91325-1213,34.258605,-118.52034
Abraham Lincoln Senior High,3501 North Broadway,90031-2856,34.073873,-118.203866
Abram Friedman Occupational,1646 South Olive St.,90015-3507,34.034589,-118.265289
Academia Moderna,2410 Broadway,90255-6342,33.967144,-118.229658
Academies of Education and Empowerment at Carson High,22328 South Main St.,90745-4525,33.823923,-118.275857
Academy for Advancement of Children With Autism,22280 Devonshire St.,91311-2736,34.256923,-118.612098
Academy for Enriched Sciences,17551 Miranda St.,91316-1250,34.17514,-118.515304
Academy of Media Arts,2009 West Martin Luther King Blvd.,90062-1434,34.011254,-118.315466
Academy of Media Arts,345 S. Figueroa St,90072-1002,34.054276,-118.255787
Academy of Medical & Health Sciences at Roosevelt High,456 South Mathews St.,90033-4326,34.039171,-118.211197
Academy of Medical Arts at Carson High,22328 South Main St.,90745-4525,33.823923,-118.275857
Academy of Science and Engineering,5753 Rodeo Rd.,90016-5013,34.02233,-118.371288
Accelerated,4000 South Main St.,90037-1022,34.010434,-118.273931
Accelerated Charter Elementary,3914 South Main St.,90037-1253,34.011574,-118.273642
Achievers Academy Preschool,9025 LANGDON AVE.,91343-3918,34.234402,-118.470474
Acton Academy Venice Beach,"2210 Lincoln Blvd., Ste. 13",90291-3971,33.995245,-118.454304
Adult Education Virtual Academy,333 South Beaudry Ave.,90017,34.056143,-118.257322
AGBU Manoogian-Demirdjian,6844 Oakdale Ave,91306-3913,34.194771,-118.566317
Aggeler Community Day,21050 Plummer St.,91311-4903,34.242728,-118.592704
Al Falaq Meraj Academy,11070 Old Santa Susana Pass Rd,91311-1207,34.271442,-118.606468
Al Hadi School,5150 Gage Ave,90201-1529,33.976183,-118.173065
Alain Leroy Locke 3 College Preparatory Academy,325 East 111th St.,90061-3003,33.934867,-118.268939
Alain Leroy Locke College Preparatory Academy,325 East 111th St.,90061-3003,33.934867,-118.268939
Albert Einstein Continuation,15938 Tupper St.,91343-3149,34.239189,-118.479347
Albion Street Elementary,322 South Avenue 18,90031-2507,34.069357,-118.220913
Aldama Elementary,632 North Avenue 50,90042-3205,34.110127,-118.206005
Alexander Fleming Middle,25425 Walnut St.,90717-2610,33.79321,-118.312098
Alexander Hamilton Senior High,2955 Robertson Blvd.,90034-3116,34.033458,-118.389692
Alexandria Avenue Elementary,4211 Oakwood Ave.,90004-3214,34.077638,-118.299734
Alfonso B. Perez Special Education Center,4540 Michigan Ave.,90022-1130,34.038721,-118.168271
Alfred B. Nobel Charter Middle,9950 Tampa Ave.,91324-1142,34.250954,-118.553508
All About Kids,7123 Baird Ave,91335-4129,34.199988,-118.537642
Allesandro Elementary,2210 Riverside Dr.,90039-4009,34.101203,-118.250906
Alliance Alice M. Baxter College-Ready High,461 West 9th St.,90731-3211,33.735787,-118.287155
Alliance Christine O'Donovan Middle Academy,5355 South Fourth Ave.,90043,33.993504,-118.321494
Alliance Cindy and Bill Simon Technology Academy High,10720 Wilmington Ave.,90059-1236,33.938494,-118.238742
Alliance College-Ready Academy High No. 7,2941 West 70th St.,90043,33.976373,-118.32583
Alliance College-Ready Middle Academy 12,131 East 50th St.,90011-3937,33.997698,-118.27327
Alliance College-Ready Middle Academy 4,9719 South Main St.,90003-4135,33.947773,-118.274229
Alliance College-Ready Middle Academy 5,211 South Avenue 20,90031-2508,34.072418,-118.220026
Alliance College-Ready Middle Academy 7,2941 West 70th St.,90043-4420,33.976373,-118.32583
Alliance College-Ready Middle Academy 8,113 South Rowan Ave.,90063-2434,34.035463,-118.187318
Alliance Collins Family College-Ready High,2071 Saturn Ave.,90255-3635,33.976919,-118.234136
Alliance Dr. Olga Mohan High,644 West 17th St.,90015-3400,34.03659,-118.271251
Alliance Gertz-Ressler Richard Merkin 6-12 Complex,2023 South Union Ave.,90007-1326,34.036313,-118.282561
Alliance Jack H. Skirball Middle,603 East 115th St.,90059-2322,33.930161,-118.263612
Alliance Judy Ivie Burton Technology Academy High,10101 South Broadway,90003-4534,33.944203,-118.278494
Alliance Kory Hunter Middle,5886 Compton Ave.,90001-1345,33.987113,-118.247384
Alliance Leichtman-Levine Family Foundation Environmental Science High,2930 Fletcher Dr.,90065-1407,34.113837,-118.246925
Alliance Marc & Eva Stern Math and Science,5151 State University Dr.,90032-4226,34.062039,-118.173659
Alliance Margaret M. Bloomfield Technology Academy High,7907 Santa Fe Ave.,90255-6630,33.967152,-118.230615
Alliance Marine - Innovation and Technology 6-12 Complex,11933 Allegheny St.,91352-1834,34.237261,-118.393274
Alliance Morgan McKinzie High,110 South Townsend Ave.,90063-2437,34.035647,-118.187753
Alliance Ouchi-O'Donovan 6-12 Complex,5356 South Fifth Ave.,90043-2622,33.993484,-118.322462
Alliance Patti And Peter Neuwirth Leadership Academy,4610 South Main St.,90037-2736,34.001568,-118.273838
Alliance Piera Barbaglia Shaheen Health Services Academy,8515 Kansas Ave.,90044-3496,33.96083,-118.294032
Alliance Renee and Meyer Luskin Academy High,2941 West 70th St.,90043-4420,33.97709,-118.325758
Alliance Richard Merkin Middle,2023 Union Ave.,90007-1326,34.036313,-118.282561
Alliance Susan and Eric Smidt Technology High,211 South Avenue 20,90031-2508,34.072368,-118.22022
Alliance Ted K. Tajima High,1552 W. Rockwood St.,90026-5520,34.063479,-118.261535
Alliance Tennenbaum Family Technology High,2050 North San Fernando Rd.,90065-1267,34.10226,-118.237398
Alliance Virgil Roberts Leadership Academy,2941 West 70th St.,90043-4420,33.97709,-118.325758
Alta California Elementary,14859 Rayen St.,91402-1508,34.231879,-118.456559
Alta Loma Elementary,1745 Vineyard Ave.,90019-5753,34.042526,-118.33886
Amanecer Primary Center,832 South Eastman Ave.,90023-1929,34.024653,-118.186166
Ambassador School-Global Education,3201 West Eighth St.,90005-2171,34.057779,-118.297662
Ambassador-Global Leadership,701 South Catalina St.,90005-1943,34.059692,-118.295474
Ambler Avenue Elementary,319 East Sherman Dr.,90746-1158,33.8775,-118.271457
Amelia Earhart Continuation,5355 Colfax Ave.,91601-3045,34.16784,-118.387821
American Unified School of Technology,"17530 Ventura Blvd., Ste 208",91316-3880,34.161352,-118.515203
Amestoy Elementary,1048 West 149th St.,90247-3008,33.896398,-118.293376
Anahuacalmecac International Preparatory High School of North America,4736 Huntington Dr. South,90032-1942,34.085252,-118.181239
Anahuacalmecac International University Preparatory of North America,4736 Huntington Dr. South,90032-1942,34.085085,-118.181545
Anatola Avenue Elementary,7364 Anatola Ave.,91406-2350,34.203639,-118.514587
Andasol Avenue Elementary,10126 Encino Ave.,91325-1404,34.254435,-118.515388
Andres and Maria Cardenas Elementary,6900 Calhoun Ave.,91405-3209,34.196067,-118.442175
Andrew Carnegie Middle,21820 Bonita St.,90745-3404,33.82958,-118.259254
Angel's Gate (Continuation),3607 South Gaffey St.,90731-6969,33.707853,-118.292858
Angeles Mesa Elementary,2611 West 52nd St.,90043-1917,33.995081,-118.321566
Angeles Workshop School,2221 S Barry Ave.,90064-1424,34.034118,-118.446684
Animo College Preparatory Academy,2265 East 103rd St.,90002-3132,33.944503,-118.23114
Animo Ellen Ochoa Charter Middle,4360 Dozier St.,90022-1840,34.041104,-118.171769
Animo Florence-Firestone Charter Middle,8255 Beach St.,90001-4014,33.962984,-118.242612
Animo Jackie Robinson High,3500 South Hill St.,90007-4333,34.018395,-118.275616
Animo James B. Taylor Charter Middle,810 East 111th Pl.,90059-1520,33.934818,-118.259887
Animo Jefferson Charter Middle,1655 East 27th St.,90011-2202,34.01271,-118.243982
Animo Justice Charter High,"1655 East 27th St., 1st Fl.",90011-2202,34.012544,-118.244512
Animo Legacy Charter Middle,12226 South Western Ave.,90047-5240,33.920533,-118.306787
Animo Locke ACE Academy,325 East 111th St.,90061,33.934867,-118.268939
Animo Locke Charter High School #3,325 East 111th St.,90015-1714,33.934867,-118.268939
Animo Locke II College Preparatory Academy,325 East 111th St.,90061-3003,33.934867,-118.268939
Animo Locke Technology High,810 East 111th Pl.,90059-1520,33.935281,-118.260269
Animo Mae Jemison Charter Middle,12700 S. Avalon Blvd.,90061-2730,33.917533,-118.2639
Animo Pat Brown,8205 Beach St.,90001-4014,33.963912,-118.242644
Animo Phillis Wheatley Charter Middle,12226 South Western Ave.,90047-5240,33.92109,-118.307869
Animo Ralph Bunche Charter High,1655 East 27th St.,90011-2202,34.01271,-118.243982
Animo South Los Angeles Charter,11130 Western Ave.,90047-4845,33.933015,-118.308295
Animo Venice Charter High,820 Broadway St.,90291-3408,33.997083,-118.463576
Animo Watts College Preparatory Academy,12628 Avalon Blvd.,90061-2728,33.917952,-118.265241
Animo Westside Charter Middle,5456 McConnell Ave.,90066-2056,33.977473,-118.418629
Ann Street Elementary,126 East Bloom St.,90012-1902,34.064925,-118.230493
Annalee Avenue Elementary,19410 South Annalee Ave.,90746-2687,33.854844,-118.252927
Annandale Elementary,6125 Poppy Peak Dr.,90042-1331,34.128343,-118.187007
APEX Academy,"1309 North Wilton Pl., 3rd Fl.",90028-8526,34.052234,-118.243685
Apperson Street Elementary,10233 Woodward Ave.,91040-3343,34.254928,-118.307092
Apple Academy Charter Public,4920 South Western Ave.,90062-2326,33.998521,-118.308675
Aragon Avenue Elementary,1118 Aragon Ave.,90065-1704,34.094929,-118.224694
Ararat Charter,6555 Sylmar Ave.,91401-6202,34.190002,-118.446593
Argo Navis School,5456 Mcconnell Ave,90066-2056,33.97753,-118.418551
Arleta High,14200 Van Nuys Blvd.,91331-5103,34.250962,-118.442736
Arlington Heights Elementary,1717 Seventh Ave.,90019-6098,34.041436,-118.324906
Arminta Street Elementary,11530 Strathern St.,91605-1619,34.215664,-118.382652
Arroyo Seco Museum Science,4805 Sycamore Terr.,90042-4482,34.10185,-118.203273
ARTLAB at Sonia Sotomayor Learning Academics,2050 San Fernando Rd.,90065-1267,34.290459,-118.449491
Arts In Action Community Charter,5115 Via Corona St.,90022-2006,34.032249,-118.155064
Arts in Action Community Middle,745 South Kern Ave.,90022-2672,34.023242,-118.165638
Ascension Elementary Catholic,500 West 111th Pl.,90044-4298,33.933869,-118.282614
Ascot Avenue Elementary,1447 East 45th St.,90011-3813,34.002924,-118.248238
Aspire Centennial College Preparatory Academy,2079 Saturn Ave.,90255-3635,33.97744,-118.23388
Aspire Firestone Academy Charter,8929 Kauffman Ave.,90280-3422,33.951564,-118.189112
Aspire Gateway Academy Charter,8929 Kauffman Ave.,90280-3422,33.951564,-118.189112
Aspire Huntington Park Charter,6005 Stafford Ave.,90255-3006,33.987036,-118.221454
Aspire Inskeep Academy Charter,123 West 59th St.,90003-1103,33.986959,-118.274821
Aspire Juanita Tate Academy Charter,123 West 59th St.,90003-1103,33.986959,-118.274821
Aspire Junior Collegiate Academy,6724 South Alameda St.,90255-4139,33.977946,-118.234999
Aspire Pacific Academy,2565 58th St.,90255-4126,33.990184,-118.225939
Aspire Slauson Academy Charter,123 West 59th St.,90003-1103,33.986959,-118.274821
Aspire Titan Academy,6720 South Alameda St.,90255-3617,33.978062,-118.2343
Astra Nova School,"1439 N. Highland Ave., #1126",90028-7622,34.100645,-118.340168
Atwater Avenue Elementary,3271 Silver Lake Blvd.,90039-2253,34.114364,-118.253838
Audubon Middle,4120 11th Ave.,90008-3712,34.009559,-118.329502
Augustus F. Hawkins High B Community Health Advocates,825 West 60th St.,90044-5512,33.985536,-118.288006
Augustus F. Hawkins High C Responsible Indigenous Social Entrepreneurship,825 West 60th St.,90044-5512,33.985536,-118.288006
Augustus Hawkins High,825 West 60th St.,90044-5512,33.985536,-118.288006
Aurora Elementary,1050 East 52nd Pl.,90011-4616,33.995045,-118.257109
Avalon Gardens Elementary,13940 South San Pedro St.,90061-2624,33.905563,-118.269576
"Bais Chana Heritage School, Inc DBA Ohel Chana",7659 Beverly Blvd.,90036-2727,34.076149,-118.356709
Bais Chaya Mushka School of Los Angeles,9051 W. Pico Blvd.,90035-1324,34.055497,-118.389336
Bais Yaakov School for Girls,7353 Beverly Blvd.,90036-2502,34.076292,-118.350129
Balboa Gifted/High Ability Magnet Elementary,17020 Labrador St.,91325-1906,34.249085,-118.503107
Baldwin Hills Elementary,5421 Rodeo Rd.,90016-5122,34.021609,-118.364923
Bandini Street Elementary,425 North Bandini St.,90731-1804,33.746513,-118.298907
Banning Academies of Creative and Innovative Sciences (BACIS),1527 Lakme Ave.,90744-1526,33.794174,-118.261071
Barack Obama Global Preparation Academy,1700 West 46th St.,90062-1901,34.001848,-118.309598
Barton Hill Elementary,423 North Pacific Ave.,90731-2019,33.746456,-118.287935
Bassett Street Elementary,15756 Bassett St.,91406-5007,34.195663,-118.476115
Beachy Avenue Elementary,9757 Beachy Ave.,91331-5306,34.247749,-118.437981
Beckford Charter for Enriched Studies,19130 Tulsa St.,91326-2645,34.268005,-118.549788
Beethoven Street Elementary,3711 Beethoven St.,90066-3517,34.002296,-118.443206
"Bell Hooks, Academy of Faithful Scholars",603 W. 5Th St,90071,34.050488,-118.254059
Bell Senior High,4328 Bell Ave.,90201-2528,33.974658,-118.19031
Bellevue Primary,610 North Micheltorena St.,90026-3623,34.079383,-118.280904
Bellingham Elementary,6728 Bellingham Ave.,91606-1408,34.192773,-118.398632
Belmont Community Adult,1575 West Second St.,90026-5701,34.061133,-118.264883
Belmont Senior High,1575 West 2nd St.,90026-5701,34.061222,-118.263016
Belvedere Elementary,3724 East First St.,90063-2390,34.035969,-118.186396
Belvedere Middle,312 North Record Ave.,90063-1824,34.039688,-118.182266
Benjamin Banneker Career and Transition Center,14024 South San Pedro St.,90061-2659,33.904893,-118.269562
Benjamin Franklin Community,820 North Avenue 54,90042-2428,34.115704,-118.198814
Benjamin Franklin Senior High,820 North Avenue 54,90042-2428,34.115417,-118.199061
Berendo Middle,1157 South Berendo St.,90006-3301,34.049884,-118.293764
Berenece Carlson Home Hospital,10952 Whipple St.,91602-3235,34.148005,-118.36884
Berkeley Hall School,16000 Mulholland Dr.,90049-1123,34.128346,-118.482895
Bert Corona Charter,9400 Remick Ave.,91331-4223,34.239736,-118.414816
Bert Corona Charter High,12513 Gain St.,91331-1628,34.271267,-118.404512
Bertrand Avenue Elementary,7021 Bertrand Ave.,91335-4711,34.197903,-118.524424
Beth Hillel Day,12326 Riverside Dr.,91607-3608,34.156992,-118.40152
Bethel Baptist Christian School,1361 E. Carson St.,90745-1631,33.832132,-118.248864
Betty Plasencia Elementary,1321 Cortez St.,90026-5622,34.066346,-118.256637
Beverly Hills RC School,6550 Fountain Ave,90028-7823,34.093945,-118.332237
Birdielee V. Bright Elementary,1771 West 36th St.,90018-3812,34.022876,-118.311015
Birmingham Community Charter High,17000 Haynes St.,91406-5420,34.188953,-118.5049
Bishop Alemany High,11111 North Alemany Dr.,91345-1105,34.276349,-118.461605
Bishop Conaty–Our Lady of Loretto High School,2900 W Pico Blvd,90006-3802,34.046624,-118.303317
Bishop Mora Salesian High School,960 South Soto St.,90023-1323,34.032824,-118.216394
Blythe Street Elementary,18730 Blythe St.,91335-1801,34.214657,-118.54111
Bnos Esther,116 North La Brea Ave.,90036-2912,34.074106,-118.343708
Bonita Street Elementary,21929 Bonita St.,90745-3406,33.828488,-118.259379
Boyle Heights Continuation,544 South Mathews St.,90033-4348,34.037855,-118.212038
Boyle Heights Hilda Solis High,319 North Humphreys Ave.,90022-1422,34.038931,-118.171523
Boys Academic Leadership Academy,1511 West 110th St.,90047-4912,33.936028,-118.303121
Braddock Drive Elementary,4711 Inglewood Blvd.,90230-5823,33.993103,-118.415234
Brainard Elementary,11407 Brainard Ave.,91342-6805,34.277295,-118.36357
Brawerman Elementary East,3663 Wilshire Blvd.,90010-2703,34.062045,-118.305009
Brawerman Elementary School West of Wilshire Blvd Temple,11661 W. Olympic Blvd.,90064-1419,34.03524,-118.447889
Breed Street Elementary,2226 East Third St.,90033-3906,34.04245,-118.21345
Brentwood School,100 South Barrington Pl.,90049-3306,34.067168,-118.468795
Brentwood Science,740 Gretna Green Way,90049-4927,34.050684,-118.475073
Bret Harte Preparatory Middle,9301 South Hoover St.,90044-4722,33.9519,-118.287018
Bridge Academy,453 S Spring St.,90013-2013,34.047787,-118.249526
Bridge Street Elementary,605 North Boyle Ave.,90033-1603,34.052452,-118.21679
Bridgeport,13130 Burbank Blvd.,91401-6037,34.171154,-118.419256
Bridgeport Vocational West School,4160 Grand View Blvd,90066-5214,33.997947,-118.425347
Bridgeport West School,4160 Grandview Blvd.,90066-5214,33.997654,-118.425089
Bridges Academy,3921 Laurel Canyon Blvd,91604-3710,34.141477,-118.394857
Bright Scholars Christian Academy,7526 S Western Ave,90047-2429,33.971111,-118.308795
Briskin Elementary School of Temple Israel of Hollywood,7300 Hollywood Blvd.,90046-2904,34.10111,-118.349634
Broad Avenue Elementary,24815 Broad Ave.,90744-1036,33.800924,-118.26231
Broadacres Avenue Elementary Visual & Performing Arts Magnet,19424 South Broadacres Ave.,90746-2710,33.854533,-118.240239
Broadway Elementary,1015 Lincoln Blvd.,90291-3506,33.998189,-118.461477
Brockton Avenue Elementary,1309 Armacost Ave.,90025-1459,34.044771,-118.462773
Brooklyn Avenue,4620 Cesar Chavez Ave.,90022-1148,34.040573,-118.166538
Bryson Avenue Elementary,4470 Missouri Ave.,90280-5057,33.944974,-118.192748
Buchanan Street Elementary,5024 Buchanan St.,90042-2340,34.119547,-118.206837
"Buckley School, The",3900 Stansbury Ave.,91423-4699,34.139647,-118.443704
Buckner Educational Christian Academy,2330 W Florence Ave,90043-5145,33.974311,-118.319757
Budlong Avenue Elementary,5940 South Budlong Ave.,90044-2815,33.986854,-118.295773
Burbank Boulevard Elementary,12215 Albers St.,91607-2011,34.17042,-118.398304
Burton Street Elementary,8111 Calhoun Ave.,91402-5305,34.218775,-118.441487
Bushnell Way Elementary,5507 Bushnell Way,90042-4822,34.102276,-118.188911
C. and E. Merdinian Armenian Evangelical School,13330 Riverside Dr,91423-2521,34.157273,-118.423681
C. Morley Sellery Special Education Center,15805 South Budlong Ave.,90247-4303,33.887751,-118.295941
Cabrillo Avenue Elementary,732 South Cabrillo Ave.,90731-3025,33.737563,-118.294472
Cahuenga Elementary,220 South Hobart Blvd.,90004-5208,34.070698,-118.305422
Cal Burke High,14630 Lanark St.,91402-4917,34.217928,-118.452655
Calabash Charter Academy,23055 Eugene St.,91364-3723,34.157826,-118.629517
Calahan Street Elementary,18722 Knapp St.,91324-3027,34.238116,-118.540942
California Collegiate Charter,5101 South Western Ave.,90062-2333,33.996591,-118.309428
California Creative Learning Academy,2709 Media Center Dr.,90065-1700,34.110706,-118.245258
California Creative Learning Academy MS,2709 Media Center Dr.,90065-1700,34.110706,-118.245258
California University FCE,2701 Beverly Blvd,90057-1007,34.070094,-118.277672
Calliope Academy,1495 Colorado Blvd.,90041-2366,34.139614,-118.197449
Calvary Christian School,701 Palisades Dr.,90272-2839,34.048382,-118.553282
Calvert Charter for Enriched Studies,19850 Delano St.,91367-3816,34.182288,-118.564257
Camellia Avenue Elementary,7451 Camellia Ave.,91605-3312,34.204254,-118.382389
Camino Nuevo Charter Academy,697 South Burlington Ave.,90057-3743,34.055523,-118.273582
Camino Nuevo Charter Academy #2,3400 West 3rd St.,90020-1605,34.068548,-118.28892
Camino Nuevo Charter Academy #4,1018 Mohawk St.,90026-3131,34.076816,-118.26529
Camino Nuevo Charter High,1215 West Miramar St.,90026-6115,34.057982,-118.257936
Camino Nuevo Elementary #3,1723 Cordova St.,90007-1114,34.039098,-118.294401
Camino Nuevo High #2,3500 West Temple St.,90004-3620,34.076443,-118.285508
Campbell Hall (Episcopal),4533 Laurel Canyon Blvd.,91607-4122,34.153547,-118.398326
Canfield Avenue Elementary,9233 Airdrome St.,90035-3201,34.049821,-118.390464
Canoga Park Elementary,7438 Topanga Canyon Blvd.,91303-1210,34.205657,-118.605887
Canoga Park Middle,22250 Elkwood St.,91304-5501,34.212762,-118.611513
Canoga Park Senior High,6850 Topanga Canyon Blvd.,91303-2354,34.195573,-118.605796
Cantara Street Elementary,17950 Cantara St.,91335-1408,34.219189,-118.524573
Canterbury Avenue Elementary,13670 Montague St.,91331-6129,34.232913,-118.429194
Canyon Charter Elementary,421 Entrada Dr.,90402-1303,34.031257,-118.512292
Canyon Oaks School,1414 N. Catalina St.,90027-5908,34.096814,-118.294889
Capistrano Avenue Elementary,8118 Capistrano Ave.,91304-3730,34.217203,-118.616982
Carlos Santana Arts Academy,9301 Columbus Ave.,91343-2229,34.239214,-118.464799
Caroldale Learning Community,22424 Caroldale Ave.,90745-3654,33.822451,-118.283828
Carousel,7899 La Tijera Blvd,90045-3145,33.965228,-118.385935
Carpenter Community Charter,3909 Carpenter Ave.,91604-3732,34.141481,-118.391701
Carson Christian School,17705 Central Ave.,90746-1664,33.874448,-118.248641
Carson Senior High,22328 South Main St.,90745-4525,33.823776,-118.275752
Carson Street Elementary,161 East Carson St.,90745-2772,33.831677,-118.275517
Carson-Gore Academy of Environmental Studies,3200 West Washington Blvd.,90018-1248,34.039902,-118.319146
Carthay Elementary Of Environmental Studies Magnet,6351 West Olympic Blvd.,90048-5411,34.058836,-118.369098
Casa Montessori,17633 Lassen St.,91325-1408,34.250661,-118.5195
Castelar Street Elementary,840 Yale St.,90012-2328,34.063851,-118.240392
Castle Elementary School,1435 West 120th St.,90047-5302,33.924373,-118.301666
Castle Heights Elementary,9755 Cattaraugus Ave.,90034-2352,34.037194,-118.397597
Castlebay Lane Charter,19010 Castlebay Ln.,91326-1005,34.293419,-118.54749
"CATCH Prep Charter High, Inc.",4120 11th Ave.,90008-3712,34.009559,-118.329502
Cathedral Chapel Elementary,755 South Cochran Ave.,90036-3812,34.060997,-118.348114
Cathedral High School,1253 Bishops Rd.,90012-1453,34.069854,-118.234286
Catskill Avenue Elementary,23536 Catskill Ave.,90745-5412,33.812038,-118.271231
CCDC of Little Angels,3808 W 54Th St.,90043,33.992747,-118.340213
CDS Elementary,10001 Jumilla Ave.,91311,34.251825,-118.563377
CDS Secondary,727 South Wilson St.,90021-1625,34.033946,-118.234409
Celerity Dyad Charter,4501 South Wadsworth,90011-3637,34.0026,-118.2593
Celerity Troika Charter,1495 Colorado Blvd.,90041-2340,34.139305,-118.197547
Center for Advanced Learning,4016 South Central Ave.,90011-2708,34.010657,-118.256505
Centinela Christian Child Development Center,6000 West Blvd,90043-3802,33.985177,-118.334917
Central City Value,221 North Westmoreland Ave.,90004-4815,34.074782,-118.287905
Central High,716 East 14th St.,90021-2114,34.031856,-118.253871
Century Park Elementary,10935 South Spinning Ave.,90303-2599,33.936042,-118.318908
Cesar Chavez Elementary,5243 Oakland St.,90032-2335,34.088619,-118.167841
Cesar E. Chavez Learning Academies-Academy of Scientific Exploration (ASE),1001 Arroyo Ave.,91340-1817,34.288462,-118.420736
Cesar E. Chavez Learning Academies-Arts/Theatre/Entertain Mag,1001 Arroyo Ave.,91340-1817,34.288462,-118.420736
Cesar E. Chavez Learning Academies-Social Justice Humanitas Academy,1001 Arroyo Ave.,91340-1817,34.288462,-118.420736
Cesar E. Chavez Learning Academies-Technology Preparatory Academy,1001 Arroyo Ave.,91340-1817,34.288462,-118.420736
Chabad GAON Academy,8850 West Pico Blvd,90035-3302,34.05475,-118.384986
"Chabad Israeli Center, Inc",1520 South Robertson Blvd.,90035-4232,34.051459,-118.383833
Chabad of Chatsworth Jewish Academy,20735 Devonshire St.,91311,34.25756,-118.585703
Chaminade College Preparatory,7500 Chaminade Ave.,91304-5384,34.205978,-118.636942
Chaminade College Preparatory,19800 Devonshire St,91311-3500,34.256382,-118.564746
Champion of Life Academy,"269 S. Western Ave, Ste. 307",90004-4103,34.069208,-118.309289
CHAMPS - Charter HS of Arts-Multimedia & Performing,6842 Van Nuys Blvd.,91405-3984,34.195128,-118.447526
Chandler Elementary,14030 Weddington St.,91401-5753,34.165736,-118.439001
Chapman Elementary,1947 Marine Ave.,90249-3803,33.894721,-118.312592
Charles Drew Middle,8511 Compton Ave.,90001-3921,33.961102,-118.247722
Charles H. Kim Elementary,225 South Oxford Ave.,90004-5104,34.0706,-118.307967
Charles Leroy Lowman Special Education and Career Transition Center,12827 Saticoy St.,91605-3506,34.206452,-118.413283
Charles Maclay Middle,12540 Pierce Ave.,91331-1701,34.272428,-118.406074
Charles W. Barrett Elementary,419 West 98th St.,90003-3916,33.947434,-118.280573
Charles White Elementary,2401 Wilshire Blvd.,90057-3304,34.059841,-118.279983
Charnock Road Elementary,11133 Charnock Rd.,90034-6506,34.017253,-118.419665
Chase Community Center,401 W. Compton Blvd,90220-3008,33.896228,-118.228964
Chase Street Elementary,14041 Chase St.,91402-3222,34.225639,-118.439832
Chatsworth Charter High,10027 Lurline Ave.,91311-3153,34.252319,-118.584257
Chatsworth Park ES Urban Planning/Community Development Magnet,22005 Devonshire St.,91311-2841,34.257273,-118.606374
Cheder Menachem,1606 South La Cienega Blvd.,90035-4510,34.048419,-118.375972
Cheder of Los Angeles,801 North La Brea Ave.,90038-3340,34.085491,-118.344379
Cheerful Helpers Child and Family Study Center,1986 W. Jefferson,90018-3416,34.025334,-118.314631
Cheremoya Avenue Elementary,6017 Franklin Ave.,90028-5517,34.105315,-118.320726
Chester W. Nimitz Middle,6021 Carmelita Ave.,90255-3320,33.986084,-118.196985
Cheviot Hills Continuation,9200 Cattaraugus Ave.,90034-1906,34.03563,-118.392396
Child's World School,6100 Lindley Ave.,91316-7115,34.180822,-118.526777
Child's World School,5414 Capistrano Ave.,91367-4420,34.168686,-118.61644
Children Community Academy Inc.,4737 W Slauson Ave.,90056-1205,33.988678,-118.360051
Children's Community School,14702 Sylvan St.,91411-2220,34.184214,-118.453349
CHIME Charter Middle,19722 Collier St.,91364-3618,34.165765,-118.562884
CHIME Institute's Schwarzenegger Community,19722 Collier St.,91364-3618,34.165765,-118.562884
Christ Lutheran Church and School,28850 South Western Ave.,90275-0803,33.757281,-118.310841
Christ the King Elementary,617 North Arden Blvd.,90004-1201,34.082123,-118.326439
Christopher Dena Elementary,1314 Dacotah St.,90023-2707,34.022225,-118.211391
Cienega Elementary,2611 South Orange Dr.,90016-3515,34.03233,-118.353502
Cimarron Avenue Elementary,11559 Cimarron Ave.,90250-1914,33.928909,-118.315121
Citizens of the World Charter School East Valley,12020 Burbank Blvd.,91607-1811,34.171429,-118.395407
Citizens of the World Charter School Hollywood,1316 North Bronson Ave.,90028-8497,34.047217,-118.325792
Citizens of the World Charter School Mar Vista,11561 Gateway Blvd.,90064-3009,34.031575,-118.442458
Citizens of the World Charter School Silver Lake,110 North Coronado St.,90026-5206,34.069417,-118.275321
Citizens of the World Charter School West Valley,7911 Winnetka Ave.,91306-2317,34.214863,-118.572093
City High,4650 Olympic Blvd.,90019-1831,34.055405,-118.332985
City Language Immersion Charter,4001 Venice Blvd.,90019-6009,34.043882,-118.324852
City of Angels,221 South Eastman Ave.,90063-2423,34.03386,-118.185827
City Terrace Elementary,4350 City Terrace Dr.,90063-1049,34.057545,-118.172166
Civitas School of Leadership,1200 West Colton St.,90026,34.061984,-118.254566
CLAS Affirmation,4400 Coliseum St.,90016,34.018209,-118.344222
Clemente Charter,5701 Fishburn Ave.,90270-2819,33.989428,-118.191357
Cleophas Oliver Learning Academy,1902 West Florence,90047-2126,33.974292,-118.311477
Clifford Street Elementary Math & Technology Magnet,2150 Duane St.,90039-3919,34.089275,-118.257778
Clover Avenue Elementary,11020 Clover Ave.,90034-3010,34.027163,-118.426023
Coastal Academy,2043 Lomita Blvd.,90717-1701,33.800791,-118.315441
Coeur D'Alene Avenue Elementary,810 Coeur D'Alene Ave.,90291-4927,33.989891,-118.453538
Cohasset Street Elementary,15810 Saticoy St.,91406-3128,34.207948,-118.478091
Coldwater Canyon Elementary,6850 Coldwater Canyon Ave.,91605-5103,34.194892,-118.413722
Colfax Charter Elementary,4935 Colfax Ave.,91601-4773,34.16013,-118.388309
Coliseum Street Elementary,4400 Coliseum St.,90016-5734,34.018209,-118.344222
Collegiate Charter High School of Los Angeles,725 South Indiana St.,90023-1840,34.026,-118.19331
Columbus Avenue Elementary,6700 Columbus Ave.,91405-4513,34.192154,-118.463938
Commonwealth Avenue Elementary,215 South Commonwealth Ave.,90004-6103,34.075346,-118.285583
Communication and Technology at Diego Rivera Learning Complex,6100 South Central Ave.,90001-1133,33.984122,-118.256116
Community Harvest Charter,5300 Sepulveda Blvd.,91411-3440,34.166842,-118.465915
Community Magnet Charter Elementary,11301 Bellagio Rd.,90049-1705,34.08183,-118.462242
Community Preparatory Academy,7019 South Van Ness Ave.,90044-1659,33.975705,-118.318385
Compton Avenue Elementary,1515 East 104th St.,90002-3559,33.941522,-118.247502
Computer Science Virtual Academy,5010 11th Ave.,90043-4816,33.996963,-118.328936
Concordia Christian,16603 San Fernando Mission Blvd.,91344-4223,34.272511,-118.494
Contreras Learning Center-Academic Leadership Community,322 Lucas Ave.,90017-1406,34.058064,-118.261708
Contreras Learning Center-Los Angeles School of Global Studies,322 Lucas Ave.,90017-1406,34.058064,-118.261708
Contreras Learning Center-School of Social Justice,322 South Lucas Ave.,90017-1406,34.058179,-118.26087
Corona Avenue Elementary,3825 Bell Ave.,90201-2308,33.975622,-118.198055
Corpus Christi Elementary,890 Toyopa Dr.,90272-3729,34.044452,-118.524218
"Country School, The",5243 Laurel Canyon Blvd.,91607-2709,34.165948,-118.396684
Cowan Avenue Elementary,7615 Cowan Ave.,90045-1206,33.973315,-118.40488
Creative Center for Children,10547 Santa Monica Blvd.,90025-4907,34.054989,-118.428174
Creative Hands Active Learning,2609 West Martin Luther King Bl Jr,90008-2744,34.01104,-118.321957
Creative Hands Kinder and 1st grade academy,2320 W Martin Luther King Jr Blvd,90008-2725,34.010509,-118.319004
Creative Hands Learning Academy Inc,2320 W Martin Luther King Jr Blvd,90008-2725,34.010509,-118.319004
Creative Learning Academy,1718 W. Martin Luther King Bl.,90062-1502,34.010631,-118.309619
Creative Learning STEAM Academy,1722 West Martin Luther King Blvd,90062-1502,34.010663,-118.310053
"Crenshaw Science, Technology, Engineering, Math and Medicine Magnet",5010 11th Ave.,90043-4816,33.997541,-118.329297
Crescendo Charter,4900 South Western Ave.,90062-2326,33.998734,-118.308921
Crescendo Charter Academy,13000 South Van Ness Ave.,90249-1726,33.914375,-118.317807
Crescendo Charter Conservatory,2506 West Imperial Hwy.,90250,33.930785,-118.320871
Crescendo Charter Preparatory South,8477 South Normandie Ave.,90044-2246,33.961217,-118.300248
Crescendo Charter Preparatory West,16110 South La Salle Ave.,90247,33.88457,-118.305824
Crescent Heights Boulevard Elementary,1661 South Crescent Heights,90035-4529,34.04726,-118.37397
Crespi Carmelite High School,5031 Alonzo Ave.,91316-3611,34.161751,-118.520424
Crestwood Street STEAM Magnet,1946 West Crestwood St.,90275-1302,33.74976,-118.312457
Crete Academy,6103 Crenshaw Blvd.,90043-3946,33.984498,-118.331263
Cristo Viene Christian Scool,3607 Whittier Blvd,90023-1701,34.025695,-118.195703
Crown Preparatory Academy,2055 West 24th St.,90018-1925,34.035675,-118.311581
CTL Academy Global,23918 Sandhurst Ln,90710,33.807408,-118.293141
Curtis School,15871 Mulholland Dr.,90049-1118,34.12917,-118.47917
Dahlia Heights Elementary,5063 Floristan Ave.,90041-2350,34.138855,-118.198877
Dan M. Issacs Avalon High,1425 North Avalon Blvd.,90744-1506,33.791888,-118.263437
Daniel Pearl Journalism & Communications Magnet,6649 Balboa Blvd.,91406-5529,34.191306,-118.501882
Daniel Webster Middle,11330 West Graham Pl.,90064-3725,34.029816,-118.435583
"Danny J. Bakewell, Sr., Primary Center",8621 South Baring Cross St.,90044-4801,33.95939,-118.289346
Danube Avenue Elementary,11220 Danube Ave.,91344-4319,34.27435,-118.474843
Darby Avenue Elementary,10818 Darby Ave.,91326-3112,34.266413,-118.533523
Dayton Heights Elementary,607 North Westmoreland Ave.,90004-2299,34.081919,-118.288077
De La Salle,16535 Chatsworth St.,91344-6705,34.264969,-118.492515
de Toledo High School,22622 Vanowen St.,91307-2646,34.193268,-118.620326
Dearborn Elementary Charter Academy,9240 Wish Ave.,91325-2533,34.238678,-118.508346
Debbie Allen Dance Academy,1850 S. Manhattan Pl.,90019-6405,34.04017,-118.309908
Del Amo Elementary,21228 Water St.,90745-1849,33.835096,-118.240384
Delevan Drive Elementary,4168 West Avenue 42,90065-4631,34.127161,-118.227217
Delphi Academy of Los Angeles,11341 Brainard Ave.,91342-6854,34.275566,-118.36436
Denker Avenue Elementary,1620 West 162nd St.,90247-3734,33.883721,-118.30534
Design High,1501 Wilshire Blvd.,90017-2205,34.054692,-118.268627
Destinations Academy,"20951 Burbank Blvd., Ste. D",91367-6696,34.17385,-118.589928
Diane S. Leichman Career Preparatory and Transition Center,19034 Gault St.,91335-3910,34.199229,-118.547854
Diego Rivera Learning Complex Green Design STEAM Academy,6100 South Central Ave.,90001-1133,33.984122,-118.256116
Discovery Charter Preparatory #2,13570 Eldridge Ave.,91342-2343,34.31908,-118.425173
Discovery School,18719 Topham St.,91335-6805,34.181207,-118.541065
Dixie Canyon Community Charter,4220 Dixie Canyon Ave.,91423-3904,34.147085,-118.424808
DNA Prep Academy,21523 Rinaldi St.,91311-1480,34.272601,-118.599858
Dolores Huerta Elementary,260 East 31st St.,90011-1910,34.019825,-118.268578
Dolores Mission School,170 South Gless St.,90033-3308,34.045379,-118.223129
Dolores Street Elementary,22526 Dolores St.,90745-3810,33.821694,-118.272283
Dominguez Elementary,21250 Santa Fe Ave.,90810-1446,33.835378,-118.215557
Doris L. Morrow Academy,4731 Don Porfirio Pl,90008-4106,34.00268,-118.355758
Dorothy V. Johnson Community Day,10601 South Grandee Ave.,90002-3676,33.939063,-118.243815
Dorris Place Elementary,2225 Dorris Pl.,90031-1161,34.090685,-118.237919
Downtown Business High,1200 West Colton St.,90026-5816,34.061378,-118.254946
Downtown Value,950 West Washington Blvd.,90015-3312,34.037592,-118.279224
Dr. James Edward Jones Primary Center,1017 West 47th St.,90037-2913,34.000679,-118.292085
Dr. Julian Nava Learning Academies-School of Arts and Culture,1420 East Adams Blvd.,90011-1820,34.015715,-118.248773
Dr. Julian Nava Learning Academy,1420 East Adams Blvd.,90011-1820,34.015715,-118.248773
"Dr. Lawrence H. Moore Math, Science, Technology Academy",1321 East 61st St.,90001-1218,33.984342,-118.251464
Dr. Maya Angelou Community High,300 East 53rd St.,90011-4522,33.99422,-118.270103
Dr. Owen Lloyd Knox Elementary,8919 South Main St.,90003-3718,33.954753,-118.273874
Dr. Richard A. Vladovic Harbor Teacher Preparation Academy,1111 Figueroa Pl.,90744-2311,33.783613,-118.281264
Dr. Sammy Lee Medical and Health Science Magnet Elementary,3600 Council St.,90004-4840,34.074011,-118.288621
Dr. Theodore T. Alexander Jr. Science Center,3737 South Figueroa St.,90007-4366,34.016902,-118.282888
Dubnoff School,18200 Rinaldi Pl.,91326-2551,34.275946,-118.529159
Dyer Street Elementary,14500 Dyer St.,91342-5114,34.300293,-118.447999
E. Manfred Evans Community Adult,717 North Figueroa St.,90012,34.06408,-118.245784
Eagle Rock Elementary,2057 Fair Park Ave.,90041-1999,34.135586,-118.212091
Eagle Rock High,1750 Yosemite Dr.,90041-2815,34.133337,-118.206033
Eagle Tree Continuation,22628 South Main St.,90745-4514,33.820934,-118.275473
Early College Academy-LA Trade Tech College,400 West Washington Blvd.,90015-4108,34.033179,-118.27006
East Los Angeles Occupational,2100 Marengo St.,90033-1321,34.055868,-118.205901
East Los Angeles Renaissance Academy at Esteban E. Torres High No. 2,4211 Dozier St.,90063-3422,34.041554,-118.175474
East Los Angeles Skills Center,3921 Selig Pl.,90031-3901,34.068821,-118.197585
East Valley Senior High,5525 Vineland Ave.,91601-2730,34.17056,-118.370364
Eastman Avenue Elementary,4112 East Olympic Blvd.,90023-3313,34.018823,-118.185833
Eden Creative Arts,1661 W 36Th Pl.,90018-4507,34.022042,-118.307832
Ednovate - Brio College Prep,350 South Figueroa St. Ste. 100,90071-1115,34.053718,-118.255002
Ednovate - East College Prep,3825 North Mission Rd.,90031-3137,34.07012,-118.199685
Ednovate - Encore Arts and Media College Prep,4545 Dozier St.,90022-1118,34.041727,-118.167867
Ednovate - Esperanza College Prep,414 South Atlantic Blvd.,90022-2618,34.028338,-118.154746
Ednovate - South LA College Prep,9301 South Hoover St.,90044-4722,33.951805,-118.287971
Ednovate - USC Hybrid High College Prep,3939 South Vermont Ave.,90071-1936,34.01384,-118.291739
EduCare Development Club,6259 Van Nuys,91405-2711,34.183979,-118.448748
edUcate Higher Academy,6121 Sunset Blvd,90028-6442,34.098472,-118.323301
Edward R. Roybal Learning Center,1200 West Colton St.,90026-5816,34.061984,-118.254566
Edwin Markham Middle,1650 East 104th St.,90002-3606,33.941417,-118.244897
"Egremont Schools, Inc.",19850 Devonshire St.,91311-3501,34.257111,-118.566167
El Camino Real Charter High,5440 Valley Cir. Blvd.,91367-5949,34.169285,-118.643353
El Camino Real Community Adult,21213 Vanowen St.,91303,34.194408,-118.594649
El Dorado Avenue Elementary,12749 El Dorado Ave.,91342-3704,34.301564,-118.465775
El Oro Way Charter for Enriched Studies,12230 El Oro Way,91344-1600,34.293282,-118.505119
El Rio Community,211 South Ave. 20,90031-2508,34.072224,-118.220398
El Sereno Elementary,3838 Rosemead Ave.,90032-1044,34.089683,-118.177385
El Sereno Middle,2839 North Eastern Ave.,90032-2701,34.079428,-118.178092
Elizabeth Learning Center,4811 Elizabeth St.,90201-5205,33.962874,-118.182499
Ellen Ochoa Learning Center,5027 Live Oak St.,90201-4428,33.966959,-118.177605
Ellington (Duke) High (Continuation),1541 West 110th St.,90047-4912,33.935568,-118.303364
Elysian Heights ES Arts Magnet,1562 Baxter St.,90026-1972,34.089081,-118.249405
Emek Early Childhood Center,12732 Chandler Blvd,91607-1929,34.16812,-118.41072
Emek Hebrew Academy,15365 Magnolia Blvd,91403-1135,34.165307,-118.468639
Emelita Street Elementary,17931 Hatteras St.,91316-1037,34.176518,-118.523109
Emerson Community Charter,1650 Selby Ave.,90024-5716,34.053268,-118.435982
Empower STEM,1650 Sawtelle Blvd,90025-6980,34.046026,-118.447727
Enadia Way Technology Charter,22944 Enadia Way,91307-2206,34.200001,-118.625725
Encino Charter Elementary,16941 Addison St.,91316-3433,34.161765,-118.50207
Engineering and Technology Academy at Esteban E. Torres High No. 3,4211 Dozier St.,90063-3422,34.041554,-118.175474
English For All Language & Homeschool Academy,2515 Nebraska Ave,90280-3942,33.947326,-118.227648
Environmental and Social Policy Magnet,3501 North Broadway,90031-2856,34.074707,-118.204037
Equitas Academy #2,2723 West 8th St.,90005-1226,34.057891,-118.28503
Equitas Academy #3 Charter,1050 Beacon Ave.,90015,34.048537,-118.27591
Equitas Academy 4,2501 West 7th St.,90057-3801,34.058883,-118.281684
Equitas Academy 5,1612 West Pico Blvd.,90015-2410,34.044517,-118.277603
Equitas Academy 6,1612 West Pico Blvd.,90015-2410,34.044517,-118.277603
Equitas Academy Charter,1700 West Pico Blvd.,90015-2412,34.045153,-118.278357
Ernest Lawrence Middle,10100 Variel Ave.,91311-3050,34.253664,-118.592854
Ernest P. Willenberg Special Education Center,308 Weymouth Ave.,90732-3426,33.741242,-118.309588
Erwin Elementary,13400 Erwin St.,91401-3014,34.182988,-118.42499
Escuela Plus Elementary,3740 Don Felipe Dr.,90008-4228,34.006966,-118.340944
Eshelman Avenue Elementary,25902 Eshelman Ave.,90717-3223,33.787537,-118.314535
Esperanza Elementary,680 Little St.,90017-1644,34.055085,-118.272498
Esteban Torres East LA Performing Arts Magnet,4211 Dozier St.,90063-3422,34.041554,-118.175474
Estrella Elementary,120 East 57th St.,90011-5306,33.990479,-118.273071
Euclid Avenue Elementary,806 Euclid Ave.,90023-1549,34.031358,-118.206831
Everest Value,240 North Madison Ave.,90004,34.07634,-118.289171
Evergreen Avenue Elementary,2730 Ganahl St.,90033-2019,34.052604,-118.197456
Evergreen Continuation,13101 Dronfield Ave.,91342-4360,34.308134,-118.437682
Everlasting Elementary School of the Los Angeles River Watershed,2232 Echo Park Ave.,90026-2042,34.092143,-118.248355
Everyday Ibaadah Academy,3003 West Olympic Blvd. Ste 205 Unit #31,90006-6500,34.052963,-118.30061
Excelencia Charter Academy,2821 East Seventh St.,90023-1501,34.029607,-118.210286
Executive Preparatory Academy of Finance,2814 Manhattan Beach Blvd.,90249-4534,33.887316,-118.325311
Extera Public,2226 East Third St.,90033-3906,34.04262,-118.213019
Extera Public School No. 2,4112 East Olympic Blvd.,90023-3313,34.018536,-118.185633
Fair Avenue Elementary,6501 Fair Ave.,91606-2603,34.188528,-118.374741
Fairburn Avenue Elementary,1403 Fairburn Ave.,90024-6014,34.05962,-118.431153
Fairfax Senior High,7850 Melrose Ave.,90046-7210,34.083741,-118.360729
Fairhaven Christian Academy,1101 S. Main St.,91506-3206,34.161841,-118.311688
FAIRVIEW CHRISTIAN ACADEMY & ENRICHMENT CENTER,3751 W. 54Th St.,90043-2356,33.993456,-118.339301
Faith Baptist,7644 Farralone Ave.,91304-5514,34.209428,-118.610223
Faith Christian Academy,26330 Hillcrest Ave..,90717-3519,33.782837,-118.310692
Faith Christian School PSP,28073 Braidwood Dr.,90275-3120,33.778819,-118.397888
Farmdale Elementary,2660 Ruth Swiggett Dr.,90032-2708,34.078044,-118.179738
Felicitas and Gonzalo Mendez High,1200 Plaza Del Sol,90033-2730,34.048813,-118.227628
Fenton Avenue Charter,11828 Gain St.,91342-7132,34.280736,-118.390926
Fenton Charter Leadership Academy,8926 Sunland Blvd.,91352-2843,34.231474,-118.366204
Fenton Primary Center,11351 Dronfield Ave.,91331-1404,34.27637,-118.403716
Fenton STEM Academy: Elementary Center for Science Technology Engineering and Mathematics,8926 Sunland Blvd.,91352-2843,34.231474,-118.366204
Fernando Pullum Performing Arts High,5100 South Broadway,90037,33.996075,-118.278316
Fernangeles Elementary,12001 Art St.,91352-2499,34.231316,-118.393883
Fifteenth Street Elementary,1527 South Mesa St.,90731-4834,33.730355,-118.285809
Fifty-Fourth Street Elementary,5501 South Eileen Ave.,90043-2255,33.992263,-118.343078
Fifty-Ninth Street Elementary,5939 Second Ave.,90043-3219,33.986572,-118.319679
Fifty-Second Street Elementary,816 West 51st St.,90037-3603,33.996377,-118.287582
Figueroa Street Elementary,510 West 111th St.,90044-4231,33.934689,-118.283413
First Street Elementary,2820 East First St.,90033-3636,34.041039,-118.203878
First United Methodist Church/Glenoaks Christian Elementary School,1525 Glenoaks Blvd.,91340-1739,34.295068,-118.432669
Fishburn Avenue Elementary,5701 Fishburn Ave.,90270-2819,33.989534,-118.189825
Fletcher Drive Elementary,3350 Fletcher Dr.,90065-2915,34.118303,-118.240783
Florence Avenue Elementary,7211 Bell Ave.,90001-2716,33.974617,-118.238137
Florence Griffith Joyner Elementary,1963 East 103rd St.,90002-3123,33.94319,-118.237435
Florence Nightingale Middle,3311 North Figueroa St.,90065-1527,34.08659,-118.218913
FLW Inc.,9854 National Blvd #1008,90034-2713,34.030476,-118.400998
Ford Boulevard Elementary,1112 South Ford Blvd.,90022-2912,34.019817,-118.172116
Forty-Ninth Street Elementary,750 East 49th St.,90011-4014,33.998605,-118.261879
Forty-Second Street Elementary,4231 Fourth Ave.,90008-3903,34.00669,-118.321466
Foshay Learning Center,3751 South Harvard Blvd.,90018-4546,34.018928,-118.306242
Fourth Street Elementary,420 South Amalia Ave.,90022-2628,34.028671,-118.153548
Fourth Street Primary Center,469 Amalia Ave.,90022-2627,34.027352,-118.154454
Fourth Street Primary Center,469 Amalia Ave.,90022,34.027265,-118.154055
Frances Blend Special Education Center,5210 Clinton St.,90004-1531,34.081606,-118.316062
Francisco Bravo Medical Magnet High,1200 North Cornwell St.,90033-1417,34.057328,-118.203845
Francisco Sepulveda Middle,15330 Plummer St.,91343-2228,34.242728,-118.465991
Frank del Olmo Elementary,100 North New Hampshire Ave.,90004-4707,34.072897,-118.292941
Frank Lanterman,2328 Saint James Pl.,90007-2577,34.03255,-118.278614
Franklin Avenue Elementary,1910 North Commonwealth Ave.,90027-2800,34.105745,-118.285168
Fred E. Lull Special Education Center,17551 Miranda St.,91316-1250,34.174587,-118.5152
Frederick Douglass Academy High,3200 West Adams Blvd.,90018-1832,34.03263,-118.319001
Frederick Douglass Academy Middle,3200 West Adams Blvd.,90018-1832,34.03263,-118.319001
Frederick K.C. Price III Christian Schools,7901 S. Vermont Ave.,90044-3531,33.968231,-118.295387
Frida Kahlo High,1924 South Los Angeles St.,90011-1031,34.029891,-118.263907
Friends Academy Inc.,7128 11Th Ave,90043-4732,33.974824,-118.328897
Fries Avenue Elementary,1301 Fries Ave.,90744-2510,33.788719,-118.265608
Fullbright Avenue Elementary,6940 Fullbright Ave.,91306-3516,34.196385,-118.577157
Fusion Academy Miracle Mile,"5757 Wilshire Blvd., Promenade 1",90036,34.062707,-118.353911
Fusion Academy South Bay,1601 Pacific Coast Hwy. Ste. 260,90254-3267,33.866865,-118.394269
Fusion Academy West Los Angeles,"1640 S Sepulveda Blvd, Ste. 100",90025-7534,34.04904,-118.445053
"Fusion Academy, Warner Center","21650 Oxnard St., Ste. 100",91367-4987,34.178776,-118.600997
Futuro College Preparatory Elementary,1314 Dacatah St.,90023,34.022041,-118.211467
Gabriella Charter,1435 Logan St.,90026-3307,34.079349,-118.25708
Gabriella Charter 2,3736 Trinity St.,90011-2635,34.0121,-118.269364
Galaxy Kids Academy,6543 Lankershim Blvd,91606-2408,34.189873,-118.387967
Gan Israel Hebrew,18181 Burbank Blvd,91356-2501,34.17259,-118.528803
GANAS Academy,23536 Catskill Ave.,90745-5412,33.8116,-118.270797
Garden Grove Elementary,18141 Valerio St.,91335-3144,34.204839,-118.528628
Gardena Christian Academy,16311 South Western Ave.,90247-4633,33.882503,-118.309341
Gardena Elementary,647 West Gardena Blvd.,90247-5021,33.881782,-118.286099
Gardena Senior High,1301 West 182nd St.,90248-3322,33.866372,-118.296334
Gardner Street Elementary,7450 Hawthorn Ave.,90046-2802,34.099778,-118.352099
Garvanza Elementary School Technology and Leadership Magnet,317 North Avenue 62,90042-2808,34.11728,-118.182608
Garza (Carmen Lomas) Primary Center,2750 East Hostetter St.,90023-4332,34.024965,-118.218512
Gaspar De Portola Charter Middle,18720 Linnet St.,91356-3313,34.167295,-118.541555
Gates Street Elementary,3333 Manitou Ave.,90031-2813,34.072036,-118.206028
Gateway Online High School,"439 S Western Ave, 204",90020,34.066017,-118.309499
Gault Street Elementary,17000 Gault St.,91406-3607,34.198543,-118.504447
Geffen Academy at UCLA,11000 Kinross Ave.,90095-2000,34.059335,-118.44679
George De La Torre Jr. Elementary,500 North Island Ave.,90744-5524,33.77543,-118.265935
George Ellery Hale Charter Academy,23830 Califa St.,91367-2922,34.177799,-118.645306
George K. Porter Middle,15960 Kingsbury St.,91344-7144,34.263504,-118.479812
George Kiriyama Community Adult,18120 South Normandie Ave.,90248-3316,33.866944,-118.29892
George S. Patton Continuation,24514 South Western Ave.,90710-1759,33.802463,-118.307323
George Washington Carver Middle,4410 McKinley Ave.,90011-3614,34.003092,-118.260855
George Washington Preparatory High,10860 South Denker Ave.,90047-4622,33.937748,-118.304611
"Gerald A. Lawson Academy of the Arts, Mathematics and Science",929 West 69th St.,90044-5200,33.977529,-118.290264
Germain Academy For Academic Achievement,20730 Germain St.,91311-2418,34.262641,-118.584896
Gifted Academy of Mathematics and Entrepreneurial Studies,2506 West Imperial Hwy.,90250-1953,33.930496,-118.321167
Gil Garcetti Learning Academy,612 West 68th St.,90044-6204,33.978296,-118.284337
Gindi Maimonides Academy,8511 Beverly Pl.,90048-1937,34.076766,-118.376988
"Girls Academic Leadership Academy, Dr. Michelle King School for Sci, Tech, Eng and Math",2328 Saint James Pl.,90007-2577,34.031239,-118.279268
Girls Athletic Leadership School Los Angeles,14200 Runnymede St.,91405-1435,34.205474,-118.442444
"Glassell Park ES Science, Technology, Engineering, Arts and Math Magnet",2211 West Avenue 30,90065-1204,34.104291,-118.236866
Gledhill Street Elementary,16030 Gledhill St.,91343-2917,34.241875,-118.481127
Glen Alta Elementary,3410 Sierra St.,90031-2137,34.084661,-118.200077
Glenfeliz Boulevard Elementary,3955 Glenfeliz Blvd.,90039-1441,34.122537,-118.267885
Glenn Hammond Curtiss Middle,1254 East Helmick St.,90746-3164,33.851607,-118.249577
Glenwood Elementary,8001 Ledge Ave.,91352-4143,34.216383,-118.357614
Global Education Academy,4141 South Figueroa St.,90037-2038,34.008437,-118.282797
Global Education Academy 2,2009 West Martin Luther King Jr Blvd.,90062-1434,34.011254,-118.315466
Global Education Academy Middle,1512 Arlington Ave.,90019-4552,34.045097,-118.3172
Global Leadership School,3700 Wilshire Blvd Ste 130,90010-2928,34.060546,-118.307227
Godly Generations Christian Academy,7720 Lankershim Blvd.,91605-2815,34.210851,-118.387312
Goethe International Charter,12500 Braddock Dr.,90066-6808,33.987312,-118.422252
Good Shepherd Elementary School,2561 Venice Blvd,90019-6233,34.043935,-118.31666
Good Shepherd Lutheran School,6338 N. Figueroa St.,90042-2733,34.116582,-118.182717
Grace Academy PSP,13248 Roscoe Blvd,91352-3739,34.221046,-118.422084
Grace Global Vision,213 South Hobart Blvd,90004-5207,34.070631,-118.305874
Graham Elementary,8407 South Fir Ave.,90001-4123,33.961549,-118.237464
Granada Elementary,17170 Tribune St.,91344-4899,34.267184,-118.507736
Granada Hills Charter,10535 Zelzah Ave.,91344-5902,34.261787,-118.523431
Granada Preparatory School,10400 Zelzah Ave,91326-3510,34.25885,-118.522727
Grand View Boulevard Elementary,3951 Grand View Blvd.,90066-4551,34.00075,-118.428116
Grant Elementary,1530 North Wilton Pl.,90028-6716,34.09957,-118.313554
Grape Street Elementary,1940 East 111th St.,90059-2002,33.934247,-118.237919
Gratts Learning Academy for Young Scholars (GLAYS),309 Lucas Ave.,90017-2062,34.058223,-118.261761
Gridley-Montañez Dual Language Academy,1907 Eighth St.,91340-1009,34.301869,-118.42988
Griffin Avenue Elementary,2025 Griffin Ave.,90031-3003,34.06831,-118.211676
Griffith Middle,4765 East Fourth St.,90022-1846,34.031176,-118.162608
Grover Cleveland Charter High,8140 Vanalden Ave.,91335-1136,34.218186,-118.549109
Groza Academy,"881 Alma Real Dr., Ste. 112",90272-3731,34.044877,-118.525543
Guardian Angel Catholic School,"10919 Norris Ave, 10919 Norris Ave",91331,34.268483,-118.414462
Gulf Avenue Elementary,828 West L St.,90744-3310,33.786512,-118.272078
Haddon Avenue Elementary,10115 Haddon Ave.,91331-3208,34.253965,-118.421304
Halldale Elementary,21514 Halldale Ave.,90501-3016,33.833383,-118.301557
Hamlin Charter Academy,22627 Hamlin St.,91307-3603,34.189061,-118.619795
Hancock Park Elementary,408 South Fairfax Ave.,90036-3135,34.069612,-118.361348
Harbor City Elementary,1508 West 254th St.,90710-2717,33.793783,-118.303626
Harbor Community Adult,950 West Santa Cruz St.,90731-3925,33.744672,-118.298133
Harbor Occupational Center,740 North Pacific Ave.,90731-1696,33.74984,-118.286715
Harding Street Elementary,13060 Harding St.,91342-4814,34.305634,-118.417411
Harmony Elementary,899 East 42nd St.,90011,34.007579,-118.259859
Harold McAlister High (Opportunity),1321 Cortez St.,90026-5622,34.066254,-118.255808
Harris Newmark Continuation,1575 West Second St.,90026-5701,34.061133,-118.264883
Harrison Street Elementary,3529 City Terrace Dr.,90063-3741,34.053924,-118.18818
Harry Bridges Span,1235 Broad Ave.,90744-2619,33.787786,-118.261408
Hart Street Elementary,21040 Hart St.,91303-2222,34.197352,-118.591505
Harvard Elementary,330 North Harvard Blvd.,90004-4412,34.076708,-118.304381
Harvard-Westlake,700 North Faring Rd.,90077-3525,34.088326,-118.43383
Haskell Elementary Science Technology Engineering Arts And Mathematics (STEAM) Magnet,15850 Tulsa St.,91344-5525,34.268188,-118.477448
Hawaiian Avenue Elementary,540 Hawaiian Ave.,90744-4922,33.775438,-118.27639
Hawthorne Academy,2506 West Imperial Hwy.,90250-1953,33.930463,-118.320853
Haykazunyadz Armenian Center Inc.,7745 W. Apperson St.,91042-2110,34.256018,-118.301845
Haynes Charter for Enriched Studies,6624 Lockhurst Dr.,91307-3135,34.190529,-118.648944
Hazeltine Avenue Elementary,7150 Hazeltine Ave.,91405-3244,34.200177,-118.439903
Helen Bernstein High,1309 North Wilton Pl.,90028-8526,34.095068,-118.313579
Heliotrope Avenue Elementary,5911 Woodlawn Ave.,90270-3525,33.985841,-118.176663
HELP Group - Young Learners Preschool,13164 Burbank Blvd.,91401-6037,34.171325,-118.42022
Henry Clay Middle,12226 South Western Ave.,90047-5240,33.922681,-118.308939
Henry David Thoreau Continuation,5429 Quakertown Ave.,91364-2528,34.168839,-118.569704
Henry T. Gage Middle,2880 East Gage Ave.,90255-4346,33.981215,-118.217358
Heritage Christian School,9825 Woodley Ave.,91343-1905,34.249193,-118.486447
Heritage Christian School,17531 Rinaldi St.,91344-3399,34.279995,-118.516258
Herrick Avenue Elementary,13350 Herrick Ave.,91342-7601,34.313921,-118.46422
Hesby Oaks Leadership Charter,15530 Hesby St.,91436-1519,34.162078,-118.473053
High Tech LA,17111 Victory Blvd.,91406-5455,34.187307,-118.505888
High Tech LA Middle,5041 Sunnyslope Ave.,91423-1445,34.163519,-118.428487
Highland Hall Waldorf School,17100 Superior St.,91325-1911,34.245522,-118.505681
Highland Park Continuation,928 North Ave. 53,90042-2418,34.117293,-118.201259
"Hilda L. Solis Learning Academy School of Technology, Business and Education",319 North Humphreys Ave.,90022-1422,34.039104,-118.171388
Hill Point Montessori Preparatory School,6601 Valley Cir. Blvd,91307-2808,34.190744,-118.657014
Hillcrest Drive Elementary,4041 Hillcrest Dr.,90008-2902,34.013001,-118.347478
Hillery T. Broadous Elementary,12561 Filmore St.,91331-1255,34.282393,-118.407086
Hillside Elementary,120 East Avenue 35,90031-1938,34.085502,-118.212717
Hobart Boulevard Elementary,980 South Hobart Blvd.,90006-1220,34.052806,-118.305157
Hollenbeck Middle,2510 East Sixth St.,90023-1420,34.036431,-118.211533
Hollywood Community Adult,1521 North Highland Ave.,90028-7001,34.099182,-118.340061
Hollywood Elementary,1115 Tamarind Ave.,90038-1905,34.091051,-118.319096
Hollywood Preschool and Kindergarten,1528 N. Wilton Pl.,90028-6716,34.099124,-118.313278
Hollywood Schoolhouse,1233 North McCadden Pl.,90038-1214,34.093873,-118.337642
Hollywood Senior High,1521 North Highland Ave.,90028-7001,34.098357,-118.338729
Holmes Avenue Elementary,5108 Holmes Ave.,90058-1911,33.995174,-118.241053
Holy Martyrs Armenian High School–Ferrahian,5300 White Oak Ave.,91316-2459,34.167789,-118.518527
Holy Martyrs Cabayan Armenian Elementary School,16617 Parthenia St,91343-4606,34.228787,-118.494492
Holy Name of Jesus Catholic Elementary,1955 W. Jefferson Blvd.,90018-3413,34.025926,-118.313912
Holy Spirit School,1418 South Burnside Ave.,90019-4014,34.047922,-118.354558
Holy Trinity,1226 W. Santa Cruz St.,90732-2916,33.744366,-118.302815
Holy Trinity Elementary School,3716 Boyce Ave.,90039-1810,34.120914,-118.261135
Hooper Avenue Elementary,1225 East 52nd St.,90011-4703,33.996004,-118.253752
Hooper Avenue Primary Center,1280 East 52nd St.,90011-4704,33.995892,-118.252525
Hoover Street Elementary,2726 Francis Ave.,90005-1252,34.056775,-118.284904
Hope Street Elementary,7560 State St.,90255-6133,33.969578,-118.209905
Horace Mann Junior High,7001 South Saint Andrews Pl.,90047-1833,33.976166,-118.311237
Horace Mann UCLA Community,7001 South Saint Andrews Pl.,90047-1833,33.976593,-118.312259
Hubbard Street Elementary,13325 Hubbard St.,91342-3224,34.313728,-118.423323
Hubert Howe Bancroft Middle,929 North Las Palmas Ave.,90038-2421,34.088066,-118.336331
Humanitas Academy of Art and Technology at Esteban E. Torres High No. 4,4211 Dozier St.,90063-3422,34.041554,-118.175474
Humanitas Art School at Roosevelt High,456 South Mathews St.,90033-4326,34.039171,-118.211197
Humanities and Arts (HARTS) Academy of Los Angeles,24300 South Western Ave.,90710-1742,33.804102,-118.307377
Humphreys Avenue Elementary,500 South Humphreys Ave.,90022-2416,34.029025,-118.171029
Huntington Drive Elementary,4435 North Huntington Dr.,90032-2641,34.082564,-118.191384
Huntington Park Elementary,6055 Corona Ave.,90255-3332,33.985283,-118.194931
Huntington Park Senior High,6020 Miles Ave.,90255-3109,33.986707,-118.21921
Huntington Park/Bell Community Adult,2945 Belgrave Ave.,90255,33.987327,-118.216043
ICEF Innovation Los Angeles Charter,5029 South Vermont Ave.,90043-2907,33.997092,-118.291882
ICEF Lou Dantzler Preparatory Academy,5940 South Budlong Ave.,90044-2815,33.986184,-118.293935
ICEF View Park Preparatory Elementary,5311 South Crenshaw Blvd.,90043-1809,33.994362,-118.331353
ICEF View Park Preparatory High,5701 South Crenshaw Blvd.,90043-2409,33.98972,-118.331079
ICEF View Park Preparatory Middle,5311 Crenshaw Blvd.,90043-1809,33.994362,-118.331353
ICEF Vista Elementary Academy,4471 Inglewood Blvd.,90066-6209,33.99511,-118.418188
ICEF Vista Middle Academy,4471 Inglewood Blvd.,90066-6209,33.99511,-118.418188
ICL Academy,3705 W Pico Blvd #564,90019-3451,34.047545,-118.321527
IDEAL academy for Exceptional Learners,5567 Reseda Blvd Suiit108,91356,34.171592,-118.536405
Immaculate Conception,830 Green Ave.,90017-4313,34.051275,-118.271258
Immaculate Heart Middle and High School,5515 Franklin Ave,90028-5901,34.106195,-118.310671
Immaculate Heart of Mary Elementary,1055 North Alexandria Ave.,90029-2517,34.090197,-118.298017
Independence Continuation,6501 Balboa Blvd.,91406-5526,34.189853,-118.502235
Independence Elementary,8435 Victoria Ave.,90280-2353,33.959726,-118.209213
Ingenium Charter,22250 Elkwood St.,91304-5501,34.211776,-118.611056
Ingenium Charter Middle,7330 Winnetka Ave.,91306-2905,34.202184,-118.568852
Interamerican Adult School,852 W Florence Ave.,90044-5105,33.974407,-118.288955
International School of Los Angeles-LF,4155 Russell Ave.,90027-4509,34.104534,-118.279716
International School of Los Angeles–WV,5933 Lindley Ave.,91356-1723,34.178322,-118.528812
International Studies Learning Center at Legacy High School Complex,5225 Tweedy Blvd.,90280-5332,33.941328,-118.178946
Intiwasi Elementary,9017 W Pico Blvd,90035-1309,34.05546,-118.388126
Invictus Leadership Academy,4928 South Western Ave.,90047-2326,33.998394,-118.308676
Iovine and Young Center,4120 11th Ave.,90008-3712,34.009305,-118.329211
ISANA Cardinal Academy,7330 Bakman Ave.,91352-4914,34.203587,-118.377862
ISANA Himalia Academy,4607 South Central Ave.,90011-5456,34.001863,-118.253001
ISANA Nascent Academy,3417 West Jefferson Blvd.,90018-3235,34.025868,-118.333343
ISANA Octavia Academy,3010 Estara Ave.,90065-2205,34.115657,-118.240787
ISANA Palmati Academy,6501 Laurel Canyon Blvd.,91606-1520,34.189605,-118.397577
Islah Academy,2900 Slauson Ave.,90043-2505,33.984915,-118.153788
Ivanhoe Elementary,2828 Herkimer St.,90039-2010,34.109025,-118.267303
Ivy Academia,5975 Shoup Ave.,91367-3329,34.178371,-118.615539
"Ivy Bound Academy Math, Science, and Technology Charter Middle 2",20040 Parthenia St.,91324-3222,34.228191,-118.569851
"Ivy Bound Academy of Math, Science, and Technology Charter Middle",15355 Morrison St.,91403-1514,34.160903,-118.468071
Ivy League Royal Academy,3315 Barham Blvd.,90068-1450,34.13134,-118.345068
Ivy League Royal Academy,17329 Burbank Blvd.,91316-1733,34.172551,-118.510893
Ivy Road School,2823 W 8Th St,90005-1236,34.05796,-118.287362
J J Academy,4750 Kester Ave Apt 19,91403-2007,34.157054,-118.457152
Jack London Community Day,12924-A Oxnard St.,91401,34.17864,-118.41526
Jack London Continuation,12924 Oxnard St.,91401-4104,34.179367,-118.414415
Jaime Escalante Elementary,4443 Live Oak St.,90201-4207,33.968053,-118.188575
James A. Garfield Community,4343 New York St.,90022-3209,34.039905,-118.172158
James A. Garfield Senior High,5101 East Sixth St.,90022-3209,34.025353,-118.157872
James J. McBride Special Education Center,3960 Centinela Ave.,90066-4905,34.000603,-118.43114
James Jordan Middle,18600 Lanark St.,91335-1233,34.216962,-118.538575
James Madison Middle,13000 Hart St.,91605-4801,34.197534,-118.416004
James Monroe High,9229 Haskell Ave.,91343-3114,34.237885,-118.476373
Jane Addams Continuation,16341 Donmetz St.,91344-3773,34.273788,-118.48815
Jefferson Community Adult,1319 East 41st St.,90011-3301,34.009568,-118.25122
Jennifer Kelley,17800 S. Main St. Ste. 100,90248-3510,33.869319,-118.27468
Jessie Owens Community Day,2400 West 54th St.,90043,33.993217,-118.319514
JETS Yeshivah,16601 Rinaldi St.,91344-3632,34.279905,-118.494116
Joaquin Miller Career and Transition Center,8218 Vanalden Ave.,91335-1138,34.219497,-118.54911
John A. Sutter Middle,7330 Winnetka Ave.,91306-2905,34.203871,-118.570938
John Adams Middle,151 West 30th St.,90007-3316,34.022622,-118.272436
John B. Monlux Elementary,6051 Bellaire Ave.,91606-4461,34.180678,-118.409472
John Burroughs Middle,600 South McCadden Pl.,90005-3829,34.063517,-118.337081
John C. Fremont Community Adult,7676 South San Pedro St.,90003-2348,33.969845,-118.269149
John C. Fremont Senior High,7676 South San Pedro St.,90003-2348,33.970022,-118.269449
John F. Kennedy High,11254 Gothic Ave.,91344-3709,34.274661,-118.488455
John H. Francis Polytechnic,12431 Roscoe Blvd.,91352-3723,34.221721,-118.404088
John H. Liechty Middle,650 South Union Ave.,90017-1633,34.055316,-118.270111
John Hope Continuation,7840 Towne Ave.,90003-2632,33.968185,-118.267261
John Marshall Senior High,3939 Tracy St.,90027-3207,34.107762,-118.277569
John Muir Middle,5929 South Vermont Ave.,90044-3713,33.986655,-118.291548
John R. Wooden High,18741 Elkwood St.,91335-1802,34.212967,-118.541646
John Tracy Center,2160 West Adams Blvd.,90018-2039,34.032292,-118.313912
John W. Mack Elementary,3020 South Catalina St.,90007-2921,34.026505,-118.293727
"Johnnie Cochran, Jr., Middle",4066 West Johnnie Cochran Vista,90019-6025,34.042965,-118.327345
Jordan High,2265 East 103rd St.,90002-3132,33.943161,-118.231291
Jordan New Technology High,2265 East 103rd St.,90002,33.943161,-118.231291
Joseph Le Conte Middle,1316 North Bronson Ave.,90028-8415,34.094665,-118.317894
Joseph Pomeroy Widney Career Preparatory and Transition Center,2302 South Gramercy Pl.,90018-1323,34.035908,-118.313268
Judith F. Baca Arts Academy,1536 East 89th St.,90002-1316,33.956325,-118.246015
Julie Korenstein Elementary,7650 Ben Ave.,91605-2728,34.209394,-118.394275
Junipero Serra High School,14830 S. Van Ness Ave.,90249-3718,33.916502,-118.317788
Justice Street Academy Charter,23350 Justice St.,91304-4402,34.216099,-118.635473
Kadima Day School,7011 Shoup Ave.,91307-2335,34.197688,-118.615979
Katherine Johnson STEM Academy,8701 Parkhill Dr.,90045-3437,33.957938,-118.426753
Kennedy-San Fernando Community,11254 Gothic Ave.,91344-3709,34.275211,-118.488068
Kenter Canyon Elementary Charter,645 North Kenter Ave.,90049-1946,34.070178,-118.488522
Kentwood Elementary,8401 Emerson Ave.,90045-2890,33.964052,-118.404367
Kester Avenue Elementary,5353 Kester Ave.,91411-4022,34.167628,-118.457506
Kids'  World School,4018 W Ave. 41,90065-3704,34.12445,-118.22922
Kidsville USA,8464 Corbin Ave.,91324-4128,34.22405,-118.56196
Kidz Kingdom Academy,13024 Sherman Way,91605,34.200935,-118.416924
Kindergarten Learning Academy,6555 Sylmar Ave.,91401,34.190002,-118.446593
King/Drew Medical Magnet High,1601 East 120th St.,90059-3025,33.923831,-118.246208
Kingsley Elementary,5200 West Virginia Ave.,90029-1212,34.091894,-118.302527
KIPP Academy of Innovation,4240 East Olympic Blvd.,90023-3337,34.018588,-118.182176
KIPP Academy of Opportunity,8500 South Figueroa St.,90003-2752,33.961163,-118.28239
KIPP Comienza Community Prep,6410 Rita Ave.,90255-4126,33.981232,-118.223639
KIPP Corazon Academy,8616 Long Beach Blvd.,90280-4142,33.958247,-118.22155
KIPP Empower Academy,8466 South Figueroa St.,90003-2729,33.961931,-118.28268
KIPP Endeavor College Preparatory Charter,1263 South Soto St.,90023-2615,34.027019,-118.219579
KIPP Generations Academy,1415 West Gardena Blvd.,90247-4712,33.882118,-118.300491
KIPP Ignite Academy,9110 South Central Ave.,90002-1743,33.953599,-118.256092
KIPP Iluminar Academy,4800 East Cesar Chavez Ave.,90022-1307,34.040184,-118.16131
KIPP Los Angeles College Preparatory,2810 Whittier Blvd.,90023-1527,34.031652,-118.209616
KIPP Philosophers Academy,1999 East 102nd St.,90002,33.944269,-118.236772
KIPP Promesa Prep,1241 South Soto St.,90023-2652,34.027525,-118.219859
KIPP Pueblo Unido,3759 East 57th St.,90270-2614,33.990858,-118.196418
KIPP Raices Academy,668 Atlantic Blvd.,90022-1118,34.022971,-118.156139
KIPP Scholar Academy,6100 S. Hoover St,90044-5418,33.983921,-118.286882
KIPP Sol Academy,4800 East Cesar Chavez Ave.,90022-1307,34.040184,-118.16131
KIPP Vida Preparatory Academy,4410 South Budlong Ave.,90037-2306,34.003387,-118.295684
Kirk O' The Valley School,19620 Vanowen St.,91335-4945,34.193346,-118.560696
Kittridge Street Elementary,13619 Kittridge St.,91401-1113,34.190359,-118.42975
Knollwood Preparatory Academy,11822 Gerald Ave.,91344-2849,34.284892,-118.493801
LA ROAD Christian School,2241 N Eastern Ave,90032-3221,34.071209,-118.18148
La Salle Avenue Elementary,8715 La Salle Ave.,90047-3320,33.957466,-118.305802
Lafayette Park Primary Center,310 South La Fayette Park Pl.,90057-1604,34.066597,-118.280908
Lake Balboa College Preparatory Magnet K-12,6701 Balboa Blvd.,91406-5531,34.192148,-118.50139
Lake Street Primary,135 North Lake St.,90026-5320,34.067645,-118.271064
Lanai Road Elementary,4241 Lanai Rd.,91436-3614,34.148872,-118.492021
Langdon Avenue Elementary,8817 Langdon Ave.,91343-5004,34.230399,-118.469877
Lankershim Elementary,5250 Bakman Ave.,91601-3101,34.165464,-118.377334
Larchmont Charter,1265 North Fairfax Ave.,90046-5205,34.09357,-118.361887
Larchmont Charter-West Hollywood,1265 North Fairfax Ave.,90046-5205,34.093555,-118.361544
Lassen Elementary,15017 Superior St.,91343-2440,34.246442,-118.459143
Latona Avenue Elementary,4312 Berenice Ave.,90031-1408,34.091592,-118.203081
Laurel Elementary,925 North Hayworth Ave.,90046-7154,34.089028,-118.362776
Laurel Hall,11919 Oxnard St.,91606-3320,34.180381,-118.392857
Laurence School,13639 Victory Blvd.,91401-1735,34.187079,-118.430431
Le Lycee Francais de Los Angeles-Century City,10361 West Pico Blvd.,90064-2608,34.047267,-118.416082
Le Lycee Francais de Los Angeles-Elementary and Middle,3261 Overland Ave.,90034-3589,34.027642,-118.414035
Le Lycee Francais de Los Angeles-High,10309 National Blvd.,90034-3703,34.02947,-118.409188
Le Lycee Francais de Los Angeles-Pac Pali,16720 Marquez Ave.,90272-3238,34.047367,-118.545294
Leadership & Public Service Virtual Academy,474 Hartford Ave.,90017-1306,34.055791,-118.263466
Leadership in Entertainment and Media Arts (LEMA),3501 North Broadway,90031-2856,34.073986,-118.202955
Leapwood Avenue Elementary,19302 Leapwood Ave.,90746-1954,33.856074,-118.261721
Learn Academy Mar Vista,12312 Venice Blvd,90066,34.003858,-118.432532
Learning by Design Charter,7019 South Van Ness Ave.,90047-1659,33.975705,-118.318022
Learning Trajectory North,"15515 San Fernando Mission Blvd, Ste A-2",91345-1358,34.27214,-118.46971
Legacy Academy of Jewish Education Inc,14520 Hesby St,91403-1711,34.161759,-118.449577
Leland Street Elementary,2120 South Leland St.,90731-5224,33.724999,-118.301155
Lemay Street Elementary,17520 Vanowen St.,91406-4314,34.192639,-118.515067
Lenicia B. Weemes Elementary,1260 West 36th Pl.,90007-3947,34.021855,-118.296437
Leo Politi Elementary,2481 West 11th St.,90006-2961,34.050845,-118.286952
Lexington Avenue Primary Center,4564 West Lexington Ave.,90029-1915,34.092867,-118.288036
Libertas College Preparatory Charter,5101 South Western Ave.,90062-2333,33.996507,-118.309447
Liberty Boulevard Elementary,2728 Liberty Blvd.,90280-2055,33.96177,-118.221725
Liggett Street Elementary,9373 Moonbeam Ave.,91402-1302,34.240658,-118.445678
Lillian Street Elementary,5909 Lillian St.,90001-1433,33.986694,-118.239956
Limerick Avenue Elementary,8530 Limerick Ave.,91306-1299,34.225589,-118.583052
Linda Esperanza Marquez High A Huntington Park Institute of Applied Medicine,6361 Cottage St.,90255-3521,33.981804,-118.233724
Linda Esperanza Marquez High B LIBRA Academy,6361 Cottage St.,90255-3521,33.981804,-118.233724
Linda Esperanza Marquez High C School of Social Justice,6361 Cottage St.,90255-3521,33.981804,-118.233724
Little Acorns Grow,19000 Saticoy St.,91335-2519,34.207947,-118.547319
Little Citizens / Westside Academy #3,3672 7th Ave.,90018,34.020838,-118.324432
Little Citizens Westside Academy #1,4256 South Western Ave.,90062-1645,34.005762,-118.308817
Little Citizens Westside Academy #3,3666 7th Ave.,90018-4106,34.021022,-118.324431
Little Scholars Academy,4168 W Slauson Ave,90043-2806,33.98862,-118.347757
Little Sprouts Language Immersion Preschool,8577 Venice Blvd,90034-2548,34.034877,-118.379322
Little Treehouse Academy,18510 Plummer St,91324-2222,34.242041,-118.537066
LN Media Academy,"5435 Balboa Blvd, Suit 100",91316-1567,34.169728,-118.501977
Lockhurst Drive Charter Elementary,6170 Lockhurst Dr.,91367-1204,34.182935,-118.647743
Lockwood Avenue Elementary,4345 Lockwood Ave.,90029-2809,34.088773,-118.287965
Logan Academy of Global Ecology,1711 West Montana St.,90026-3311,34.078483,-118.257779
Loma Vista Elementary,3629 East 58th St.,90270-2616,33.989693,-118.200105
Lomita Math/Science/Technology Magnet,2211 247th St.,90717-1503,33.800993,-118.32043
Loren Miller Elementary,830 West 77th St.,90044-5146,33.969363,-118.259675
Lorena Street Elementary,1015 South Lorena St.,90023-2222,34.025494,-118.202419
Loreto Street Elementary,3408 Arroyo Seco Ave.,90065-2454,34.087015,-118.216446
Lorne Street Elementary,17440 Lorne St.,91325-4459,34.217154,-118.51307
Los Angeles Academy Middle,644 East 56th St.,90011-4660,33.991524,-118.263242
Los Angeles Academy of Arts and Enterprise,1575 West 2nd St.,90026-5816,34.061766,-118.264482
Los Angeles Big Picture High,"700 Wilshire Blvd., Ste. 400",90017-3837,34.048788,-118.257402
Los Angeles Center for Enriched Studies,5931 West 18th St.,90035-4656,34.04355,-118.37129
Los Angeles Christian Academy,4622 Wadsworth Ave,90011-9001,34.001013,-118.258784
Los Angeles Christian School,1620 West 20th St.,90007-1101,34.037811,-118.292356
Los Angeles Community Adult,4650 West Olympic Blvd.,90019-1831,34.055405,-118.332985
Los Angeles Elementary,1211 South Hobart Blvd.,90006-3113,34.048621,-118.305229
Los Angeles High School of the Arts,701 South Catalina St.,90005-1943,34.059692,-118.295474
Los Angeles Leadership Academy,234 East Avenue 33,90031-1937,34.083354,-118.210813
Los Angeles Leadership Primary Academy,2670 Griffin Ave.,90031-2311,34.077544,-118.211823
Los Angeles Senior High,4650 West Olympic Blvd.,90019-1831,34.056695,-118.333166
Los Angeles Teacher Preparatory Academy,1575 West Second St.,90026-5701,34.061222,-118.263016
Los Angeles Technology Center,3721 West Washington Blvd.,90018,34.040134,-118.325485
Los Angeles Unified Alternative Education,"333 South Beaudry Ave., Fl. 18",90017-5108,34.056109,-118.256986
Los Encinos School,17100 Ventura Blvd.,91316-4003,34.159601,-118.50555
Los Feliz Science/Tech/Engineer/Math/Medicine Magnet,1740 North New Hampshire Ave.,90027-4208,34.102551,-118.293254
Lou Dantzler Preparatory Charter High,"5120 West Goldleaf Circle, Ste. 350",90056,33.988543,-118.368563
Lou Dantzler Preparatory Charter Middle,5029 South Vermont Ave.,90037-2907,33.997337,-118.291523
Louis Armstrong Middle,5041 Sunnyslope Ave.,91423-1445,34.162385,-118.426932
Louisville High School,22300 Mulholland Dr.,91364-4933,34.148822,-118.609893
Lovelia P. Flournoy Elementary,1630 East 111th St.,90059-1908,33.93475,-118.245216
Loyola High School of Los Angeles,1901 Venice Blvd.,90006-4401,34.044272,-118.296651
Loyola Village Fine And Performing Arts Magnet,8821 Villanova Ave.,90045-3496,33.958081,-118.420598
Lucille Roybal-Allard Elementary,3232 Saturn Ave.,90255-5440,33.976136,-118.209497
"Luther Burbank Middle School Science, Technology, Engineering, Arts and Math Magnet",6460 North Figueroa St.,90042-2803,34.119309,-118.18357
M R M Academy,10746 Blix St. #103,91602-1371,34.156388,-118.365416
MacArthur Park Elementary School for the Visual and Performing Arts,2300 West Seventh St.,90057-3903,34.057584,-118.279297
Machon,5870 W. Olympic Blvd.,90036-4657,34.056956,-118.358933
Madison Elementary,9820 Madison Ave.,90280-4319,33.946356,-118.214626
Magnolia Avenue Elementary,1626 South Orchard Ave.,90006-5316,34.043972,-118.288457
Magnolia Science Academy 4,"11330 West Graham Pl., B-9",90064,34.029816,-118.435583
Magnolia Science Academy 5,18230 Kittridge St.,91335-6121,34.188617,-118.529359
Magnolia Science Academy 6,745 South Wilton Pl.,90005-3552,34.058304,-118.315898
Magnolia Science Academy 7,18355 Roscoe Blvd.,91325-4104,34.221858,-118.533643
Magnolia Science Academy Bell,6411 Orchard Ave.,90201-1023,33.978914,-118.19941
Main Street Elementary,129 East 53rd St.,90011-4517,33.994276,-118.273291
Malabar Street Elementary,3200 East Malabar St.,90063-4021,34.0448,-118.194262
Manchester Avenue Elementary,661 West 87th St.,90044-5703,33.958768,-118.286073
Manhattan Place Elementary,1850 West 96th St.,90047-3725,33.949026,-118.310947
Manual Arts Community Adult,4131 South Vermont Ave.,90037-1918,34.00877,-118.292848
Manual Arts Senior High,4131 South Vermont Ave.,90037-1918,34.008208,-118.291608
Manzanita School and Institute,1717 Old Topanga Canyon Rd.,90290-3934,34.111964,-118.63437
Maor Academy,5464 Washington Blvd,90016-1135,34.037644,-118.362581
Maple Primary Center,3601 South Maple Ave.,90011-2619,34.015363,-118.270586
Mar Vista Elementary,3330 Granville Ave.,90066-2052,34.016202,-118.435204
Marcus Garvey School,5760 6th Ave.,90043-2642,33.989225,-118.32334
Marguerite Poindexter LaMotte Elementary,4410 Orchard Ave.,90037-3018,34.002205,-118.288906
Maria Regina,13510  Van Ness Ave.,90249-2418,33.90887,-118.316834
Marianna Avenue Elementary,4215 East Gleason St.,90063-1423,34.035202,-118.17542
Marina del Rey Middle,12500 Braddock Dr.,90066-6808,33.987312,-118.422252
Mariposa-Nabi Primary Center,987 South Mariposa Ave.,90006-1413,34.053015,-118.299007
Mark Twain Middle,2224 Walgrove Ave.,90066-3502,33.999751,-118.448205
Marlborough School,250 South Rossmore Ave.,90004-3739,34.069794,-118.327146
Marlton,4000 Santo Tomas Dr.,90008-3304,34.009739,-118.34437
Marquez Charter,16821 Marquez Ave.,90272-3243,34.045794,-118.547349
Martha Escutia Primary Center,6401 Bear Ave.,90201-2301,33.979133,-118.197837
Martin Luther King Jr. Elementary,3989 South Hobart Blvd.,90062-1124,34.011151,-118.307862
Marvin Elementary,2411 Marvin Ave.,90016-1910,34.033692,-118.364518
Mary Immaculate Elementary School,10390 Remick Ave.,91331-3658,34.2582,-118.433905
Mary McLeod Bethune Middle,155 West 69th St.,90003-1823,33.976973,-118.272011
Mary Star of the Sea Elementary,717 South Cabrillo Ave.,90731-3024,33.737451,-118.295426
Mary Star of the Sea High School,2500 North Taper Ave.,90731-1148,33.767235,-118.301411
Marymount High School,10643 Sunset Blvd.,90077-3623,34.076715,-118.444268
Math and Science College Preparatory,3202 West Adams Blvd.,90018-1832,34.032239,-118.319008
"Math, Science, & Technology Magnet Academy at Roosevelt High",2530 East 4th St.,90033,34.03947,-118.20986
Matrix for Success Academy,1010 East 34th St.,90011-2527,34.012475,-118.25769
Maurice Sendak Elementary,11414 West Tiara St.,91601-1123,34.178458,-118.379757
Maxine Waters Employment Prep Center,10925 Central Ave.,90059,33.93734,-118.254627
Mayall Street Elementary,16701 Mayall St.,91343-1136,34.253898,-118.495841
Mayberry Street Elementary,2414 Mayberry St.,90026-2318,34.084559,-118.265084
Maynard Academy,3680 Wilshire Blvd P04-1025,90010,34.060737,-118.306287
Maywood Academy High,6125 Pine Ave.,90270-3110,33.983116,-118.18846
Maywood Center for Enriched Studies,5800 King Ave.,90270-2928,33.987863,-118.183262
Maywood Elementary,5200 Cudahy Ave.,90270-2405,33.993773,-118.184489
McKinley Avenue Elementary,7812 McKinley Ave.,90001-2829,33.968144,-118.26071
Melrose Avenue Elementary,731 North Detroit St.,90046-7605,34.084337,-118.345217
Melvin Avenue Elementary,7700 Melvin Ave.,91335-2327,34.210307,-118.560267
Menlo Avenue Elementary,4156 Menlo Ave.,90037-1933,34.008136,-118.289923
Mervyn M. Dymally High,8800 South San Pedro St.,90003-3541,33.95715,-118.268756
MESIVTA BIRKAS YITZCHOK,6022 West Pico Blvd.,90035-2677,34.052118,-118.371962
Metro Charter,2635 Pasadena Ave.,90031-2323,34.078001,-118.215701
Metropolitan Continuation,727 South Wilson St.,90021-1625,34.034378,-118.233968
Metropolitan Skill Center,2801 West Sixth St.,90057-3113,34.063599,-118.283437
Meyler Street Elementary,1123 West 223rd St.,90502-2250,33.824543,-118.295399
Michelle Obama Elementary,8150 North Cedros Ave.,91402-4704,34.219456,-118.45353
Micheltorena Street Elementary,1511 Micheltorena St.,90026-1621,34.088618,-118.275206
Mid-City's Prescott School of Enriched Sciences,3150 West Adams Blvd.,90018-1828,34.032578,-118.318771
Middle College High,"1600 Imperial Hwy, Bldg. 16",90047-4810,33.929468,-118.246237
Middleton Primary Center,2410 Zoe Ave.,90255-3812,33.979237,-118.229928
Middleton Street Elementary,6537 Malabar St.,90255-4025,33.979049,-118.227858
Miguel Leonis Continuation,5445 Manton Ave.,91367-5930,34.16938,-118.640789
Miles Avenue Elementary,6720 Miles Ave.,90255-5012,33.977814,-118.219044
Milken Community School,15800 Zeldins' Way,90049-6861,34.126185,-118.478098
Miramonte Elementary,1400 East 68th St.,90001-1916,33.978358,-118.249836
Mission Continuation,11015 O'Melveny Ave.,91340-4424,34.270238,-118.439805
Moneta Continuation,17951 South Budlong Ave.,90248-3442,33.867399,-118.294505
Monsenor Oscar Romero Charter Middle,2670 West 11th St.,90035,34.050819,-118.294337
Montague Charter Academy,13000 Montague St.,91331-4146,34.244465,-118.415015
Montara Avenue Elementary,10018 Montara Ave.,90280-5605,33.944535,-118.218734
Monte Vista Street Elementary,5423 Monte Vista St.,90042-3322,34.110018,-118.198139
Monterey Continuation,466 South Fraser St.,90022-1929,34.02803,-118.15859
Montessori Academy of Culver City,5881 Green Valley Cir.,90230-6901,33.983583,-118.389693
Montessori Academy of West Adams,4449 W Adams Blvd,90016-3058,34.032818,-118.33675
Moore's Daycare Preparatory,1700 West 120th St.,90047-5203,33.923782,-118.306899
Morningside Elementary,576 North Maclay Ave.,91340-2497,34.288452,-118.434157
Morris K. Hamasaki Elementary,4865 East First St.,90022-1305,34.037077,-118.159304
Mother of Sorrows,100 W. 87Th Pl.,90003-3316,33.957749,-118.274086
Mountain View Elementary,6410 Olcott St.,91042-2830,34.249129,-118.272311
Mt. Gleason Middle,10965 Mt. Gleason Ave.,91040-2229,34.268383,-118.302799
Mt. Lukens Continuation,7705 Summitrose St.,91042-1727,34.259674,-118.300355
Mt. Washington Elementary,3981 San Rafael Ave.,90065-4013,34.104731,-118.21538
Muhammad University of Islam - Los Angeles,10344 S. Western Ave,90047-4260,33.941983,-118.308776
Multicultural Learning Center,7510 DeSoto Ave.,91303-1430,34.206694,-118.588413
Multnomah Street Elementary,2101 North Indiana Ave.,90032-3618,34.069118,-118.19276
Murchison Street Elementary,1501 Murchison St.,90033-1526,34.059368,-118.195897
N.E.W. Academy Canoga Park,21425 Cohasset St.,91303-1450,34.206552,-118.597899
N.E.W. Academy of Science and Arts,379 South Loma Dr.,90017-1142,34.059302,-118.26696
Napa Street Elementary,19010 Napa St.,91324-4416,34.226368,-118.547275
Nathaniel Narbonne Senior High,24300 Western Ave.,90710-1742,33.804075,-118.307314
Nativity Elementary,944 West 56th St.,90037-3626,33.991144,-118.290829
Nava College Preparatory Academy,1319 East 41st St.,90011-3301,34.009547,-118.251162
Nestle Avenue Charter,5060 Nestle Ave.,91356-4350,34.162196,-118.530795
Nevada Avenue Elementary,22120 Chase St.,91304-2307,34.223934,-118.609043
Nevin Avenue Elementary,1569 East 32nd St.,90011-2213,34.012158,-118.245941
New Covenant Academy,3119 West 6th St.,90020-1701,34.064174,-118.28944
New Designs Charter,2303 South Figueroa Way,90007-2504,34.030857,-118.274947
New Designs Charter School-Watts,12714 South Avalon Blvd.,90061-2730,33.917147,-118.265169
New Heights Charter,2202 West Martin Luther King Jr Blvd.,90008-2723,34.010639,-118.317679
New Horizon School Los Angeles,434 South Vermont Ave.,90020-1910,34.066414,-118.291309
New Horizon School Westside,1819 Sawtelle Blvd.,90025-5532,34.043242,-118.44603
New Horizons Charter Academy,6501 Fair Ave.,91601-2603,34.189398,-118.375779
New Life Christian Academy,12541 Van Nuys Blvd,91331-1384,34.277878,-118.406476
New Los Angeles Charter,1919 South Burnside Ave.,90016-1114,34.041298,-118.357584
New Los Angeles Charter Elementary,5753 Obama Blvd.,90016-5013,34.022007,-118.371134
New Millennium Secondary,1301 West 182nd St.,90248-3322,33.867246,-118.294731
New Open World Academy K-12,3201 West Eighth St.,90010-2171,34.057779,-118.297662
New Village Girls Academy,147 North Occidental Blvd.,90026-4601,34.071327,-118.279102
Newcastle Elementary,6520 Newcastle Ave.,91335-6230,34.189151,-118.525227
Nia M. Williams,6250 Canoga Ave,91367-2413,34.184536,-118.595937
Ninety-Fifth Street Elementary,1109 West 96th St.,90044-3205,33.948742,-118.296157
Ninety-Ninth Street Elementary,9900 South Wadsworth Ave.,90002-2746,33.946541,-118.258558
Ninety-Second Street Elementary,9211 Grape St.,90002-2528,33.953014,-118.23634
Ninety-Sixth Street Elementary,1471 East 96th St.,90002-2210,33.949117,-118.248476
Ninety-Third Street Elementary,330 East 93rd St.,90003-3827,33.95194,-118.268686
Ninth Street Elementary,835 St.anford Ave.,90021-1847,34.035991,-118.247149
Nishiyamato Academy,2458 Lomita Blvd.,90717-1414,33.805482,-118.32702
Noble Avenue Elementary,8329 Noble Ave.,91343-6617,34.221776,-118.461197
Nora Sterry Elementary,1730 Corinth Ave.,90025-4211,34.044358,-118.447946
Normandie Avenue Elementary,4505 South Raymond Ave.,90037-2817,34.00262,-118.298092
Normandie Christian School of Los Angeles,6306 South Normandie Ave.,90044-2628,33.981735,-118.299813
Normont Elementary,1001 West 253rd St.,90710-3003,33.794771,-118.292789
North Hollywood Christian Academy,11330 Mccormick St,91601-3115,34.165721,-118.378768
North Hollywood Poly Community Adult,12431 Roscoe Blvd.,91352-3723,34.222799,-118.404166
North Hollywood Senior High,5231 Colfax Ave.,91601-3002,34.165883,-118.387821
North Valley Christian School,8854 Haskell Ave.,91343-4910,34.231413,-118.475363
North Valley Occupational Center,11450 Sharp Ave.,91345-1232,34.277994,-118.45656
Northpoint School and Intensive Outpatient,9650 Zelzah Ave.,91325-2003,34.246264,-118.522535
Northridge Academy High,9601 Zelzah Ave.,91325-2010,34.24499,-118.523339
Northridge Middle,17960 Chase St.,91325-3811,34.224558,-118.524852
Norwood Street Elementary,2020 Oak St.,90007-1307,34.03531,-118.278695
Notre Dame Academy,2851 Overland Ave.,90064-4217,34.034333,-118.419237
Notre Dame Academy Elementary,2911 Overland Ave.,90064-4219,34.033453,-118.418386
Notre Dame High School,13645 Riverside Dr.,91423-2407,34.157824,-118.430849
Nueva Vista Elementary,4412 Randolph St.,90201-1224,33.981472,-118.188253
Nuevo Sol Charter,1218 Fourth St.,91340,34.287789,-118.438271
O'Melveny Elementary,728 Woodworth St.,91340-4219,34.275569,-118.444296
Oak Crest Academy Los Angeles,225 S Olive St #611,90012-4900,34.05318,-118.249784
Oakwood Elementary,11230 Moorpark St.,91602-2602,34.149551,-118.375664
Oakwood Secondary,11600 Magnolia Blvd.,91601-3015,34.164593,-118.384715
Ocean Charter,12870 Panama St.,90066-6506,33.984197,-118.427265
Odyssey Continuation,8693 Dearborn Ave.,90280-2904,33.954944,-118.211068
Ohr Eliyahu Academy also known as Yeshiva Aharon Yaakov Ohr Eliyahu,241 South Detroit St.,90036-3033,34.069125,-118.345249
Olive Tree Christian Academy,3470 Wilshire Blvd. #300,90010-2207,34.060764,-118.300211
Olive Vista Middle,14600 Tyler St.,91342-2826,34.312133,-118.451059
Oliver Wendell Holmes Middle,9351 Paso Robles Ave.,91325-2528,34.240333,-118.504397
Olympic Primary Center,950 South Albany St.,90015-1212,34.048726,-118.270416
One Hundred Eighteenth Street Elementary,144 East 118th St.,90061-2422,33.926417,-118.27261
One Hundred Eighty-Sixth Street Elementary,1581 West 186th St.,90248-3951,33.862036,-118.305052
One Hundred Fifty-Sixth Street Elementary,2100 West 156th St.,90249-4703,33.889203,-118.31603
One Hundred Fifty-Third Street Elementary,1605 West 153rd St.,90247-3135,33.892902,-118.304931
One Hundred Ninth Street Elementary,10915 South McKinley Ave.,90059-1523,33.936944,-118.260881
One Hundred Seventh Street Elementary,147 East 107th St.,90003-4732,33.939372,-118.272665
One Hundred Sixteenth Street Elementary,11610 Stanford Ave.,90059-2313,33.928201,-118.262085
One Hundred Thirty-Fifth Street Elementary,801 West 135th St.,90247-2154,33.909205,-118.289405
One Hundred Twelfth Street Elementary,1265 East 112th St.,90059-1137,33.93319,-118.252703
One Hundred Twenty-Second Street Elementary,405 East 122nd St.,90061-2807,33.921344,-118.266634
OneSchool Global - Los Angeles,5200 W. 83rd St.,90045-3248,33.963331,-118.371722
Open Charter Magnet,5540 West 77th St.,90045-3214,33.968507,-118.377804
Or hachaim Academy,6021 Laurel Canyon Blvd,91606-4615,34.180065,-118.396823
Orange School,3705 W Pico Blvd #677,90019-3451,34.047545,-118.321527
Orchard Academies 2B,6411 Orchard Ave.,90201-2222,33.978914,-118.19941
Orchard Academies 2C,6411 Orchard Ave.,90201-2222,33.978914,-118.19941
Orthopaedic Hospital,300 West 23rd St.,90007-2612,34.029031,-118.270627
Orville Wright Engineering and Design Magnet,6550 West 80th St.,90045-1127,33.969238,-118.404619
Oscar De La Hoya Animo Charter High,1114 South Lorena St.,90023-2915,34.023419,-118.203705
Osceola Street Elementary,14940 Osceola St.,91342-5280,34.29053,-118.456709
Our Community Charter,10045 Jumilla Ave.,91311-3507,34.252614,-118.563415
Our Lady of Grace,17720 Ventura Blvd.,91316-3716,34.161611,-118.519534
Our Lady of Guadalupe Elementary,436 North Hazard Ave.,90063-3447,34.041907,-118.17894
Our Lady of Guadalupe School - Rose Hill,4522 Browne Ave.,90032-1819,34.086523,-118.18828
Our Lady of Loretto Elementary School,258 N. Union Ave,90026-5435,34.066994,-118.264037
Our Lady of Lourdes,7324 Apperson St.,91042-1806,34.256479,-118.292493
Our Lady of Lourdes,18437 Superior St.,91325-1745,34.247174,-118.534697
Our Lady of Lourdes School,315 South Eastman Ave.,90063-3921,34.032929,-118.185999
Our Lady of Peace Elementary,9022 Langdon Ave.,91343-3919,34.234094,-118.469259
Our Lady of the Holy Rosary School,7802 Vineland Ave.,91352-4552,34.212779,-118.369889
Our Lady of the Rosary of Talpa,411 South EvergreenAve,90033-4410,34.036866,-118.205009
Our Lady of the Valley School,22041 Gault St,91303-1804,34.199393,-118.607653
Our Mother of Good Counsel,4622 Ambrose Ave.,90027-1903,34.109842,-118.290893
Overland Avenue Elementary,10650 Ashby Ave.,90064-3209,34.038538,-118.420977
Owensmouth Continuation,6921 Jordan Ave.,91303-1997,34.196338,-118.602907
Oxnard Street Elementary,10912 Oxnard St.,91606-4910,34.179366,-118.368537
Pacific Boulevard,2660 East 57th St.,90255-2545,33.99105,-118.223548
Pacific Lutheran Jr./Sr. High School,1473 West 182nd St.,90248-3948,33.865979,-118.301857
Pacoima Charter Elementary,11016 Norris Ave.,91331-2569,34.270632,-118.416385
Pacoima Middle,9919 Laurel Canyon Blvd.,91331-3940,34.250282,-118.423227
Pacoima Skills Center,13545 Van Nuys Blvd.,91331-3000,34.261924,-118.428522
Page Private-Hancock Park,565 North Larchmont Blvd.,90004-1305,34.080939,-118.32383
Palisades Charter Elementary,800 Via de La Paz,90272-3617,34.044808,-118.527622
Palisades Charter High,15777 Bowdoin St.,90272-3523,34.044632,-118.533304
Palisades Montessori Center,16706 Marquez Ave.,90272-3238,34.047633,-118.545052
Palms Elementary,3520 Motor Ave.,90034-4807,34.026126,-118.408211
Palms Middle,10860 Woodbine St.,90034-5416,34.023823,-118.416587
Panorama City Elementary,8600 Kester Ave.,91402-2725,34.226464,-118.457468
Panorama High,8015 Van Nuys Blvd.,91402-6009,34.216528,-118.448833
Para Los Niños - Evelyn Thurman Gratts Primary,474 South Hartford Ave.,90017-1306,34.056466,-118.263965
Para Los Niños Charter,1617 East Seventh St.,90021-1207,34.035154,-118.236953
Para Los Niños Middle,835 Stanford Ave.,90021-1847,34.035991,-118.247149
Park Avenue Elementary,8020 Park Ave.,90201-6018,33.960567,-118.174077
Park Western Place Elementary,1214 Park Western Pl.,90732-2220,33.752957,-118.304705
Parmelee Avenue Elementary,1338 East 76th Pl.,90001-3006,33.970724,-118.251197
Parthenia Academy of Arts and Technology,16825 Napa St.,91343-5618,34.226714,-118.498885
Paseo del Rey Fundamental,7751 Paseo del Rey,90293-8372,33.956268,-118.433461
Pathways Community,8800 South San Pedro St.,90003-3541,33.95715,-118.268756
Patrick Henry Middle,17340 San Jose St.,91344-6131,34.261168,-118.511911
Paul Revere Charter Middle,1450 Allenford Ave.,90049-3614,34.054782,-118.495858
Performing Arts Community at Diego Rivera Learning Complex,6100 South Central Ave.,90001-1133,33.984122,-118.256116
Personal Coaching Systems,17800 S. Main St. Ste. 100,90248-3510,33.869511,-118.27516
Phineas Banning Senior High,1527 Lakme Ave.,90744-1526,33.794038,-118.260804
Phoenix Continuation,12971 Zanja St.,90066-4175,33.996807,-118.441182
Pico Mesivta,1540 S Robertson Blvd,90035-4232,34.051068,-118.384039
Pilgrim School,540 South Commonwealth Ave.,90020-1204,34.064317,-118.285185
Pinewood Avenue Elementary,10111 Silverton Ave.,91042-2410,34.252365,-118.284302
Pio Pico Middle,1512 South Arlington Ave.,90019-4552,34.044388,-118.317645
Plainview Academic Charter Academy,10819 Plainview Ave.,91042-1633,34.265498,-118.297982
Play Mountain Place,6063 Hargis St.,90034-2613,34.032378,-118.375986
Playa del Rey Elementary,12221 Juniette St.,90230-6235,33.982584,-118.408808
Playa Vista Elementary,13150 West Bluff Creek Dr.,90094-2520,33.97181,-118.422356
Plummer Elementary,9340 Noble Ave.,91343-3406,34.24003,-118.460927
Point Fermin Elementary,3333 Kerckhoff Ave.,90731-6712,33.713979,-118.28983
Pomelo Community Charter,7633 March Ave.,91304-5233,34.209319,-118.642143
Port of Los Angeles High,250 West Fifth St.,90731-3304,33.740128,-118.281877
Porter Ranch Community,12450 Mason Ave.,91326-4619,34.2937,-118.581106
Precious Blood,307 South Occidental Blvd.,90057-1503,34.067759,-118.282507
PREPA TEC - Los Angeles,8001 Santa Fe Ave.,90255-4138,33.966392,-118.230596
President Avenue Elementary,1465 West 243rd St.,90710-1706,33.804074,-118.30238
Primary Academy for Success,9075 Willis Ave.,91402-1512,34.234892,-118.455355
Public Policy Charter,1701 Browning Blvd.,90062-1302,34.012037,-118.309435
Public Service Community at Diego Rivera Learning Complex,6100 South Central Ave.,90001-1133,33.984122,-118.256116
PUC CA Academy for Liberal Studies Early College High,7350 North Figueroa St.,90041-2547,34.137422,-118.187645
PUC CALS Charter Middle,7350 North Figueroa St.,90041-2547,34.137323,-118.187843
PUC CALS Middle School and Early College High,7350 North Figueroa St.,90041-2547,34.137233,-118.187369
PUC Community Charter Elementary,14019 Sayre St.,91342-4265,34.306469,-118.438653
PUC Community Charter Middle and PUC Community Charter Early College High,11500 Eldridge Ave.,91342-6522,34.280097,-118.38238
PUC Early College Academy for Leaders and Scholars (ECALS),2050 San Fernando Rd.,90065-1267,34.290459,-118.449491
PUC Excel Charter Academy,1855 North Main St.,90031-3227,34.066457,-118.220254
PUC Inspire Charter Academy,12550 Van Nuys Blvd.,91331-1354,34.276957,-118.405902
PUC International Preparatory Academy,1800 Colorado Blvd.,90041-1340,34.139013,-118.206573
PUC Lakeview Charter Academy,11465 Kagel Canyon St.,91342-6505,34.280132,-118.381544
PUC Lakeview Charter High,13361 Glenoaks Blvd.,91342-2110,34.31419,-118.459761
PUC Milagro Charter,1855 North Main St.,90031-3227,34.066457,-118.220254
PUC Nueva Esperanza Charter Academy,1218 North Fourth St.,91340-2314,34.287618,-118.438542
PUC Nueva Esperanza Charter Academy,1218 North Fourth St.,91340-2314,34.287618,-118.438542
PUC Santa Rosa Charter Academy,3838 Eagle Rock Blvd.,90065-3638,34.118988,-118.230908
PUC Triumph Charter Academy,13361 Glenoaks Blvd.,91342-2110,34.31419,-118.459761
PUC Triumph Charter Academy and PUC Triumph Charter High,13361 Glenoaks Blvd.,91342-4265,34.31419,-118.459761
PUC Triumph Charter High,9171 Telfair Ave.,91352-1844,34.234825,-118.398019
Pueblo de Los Angeles Continuation,3921 Selig Pl.,90031-2457,34.068919,-118.197518
Puente Charter,501 South Boyle Ave.,90033-3816,34.041422,-118.219575
Purche Avenue Elementary,13210 Purche Ave.,90249-1653,33.912503,-118.320363
Queen Anne Place Elementary,1212 Queen Anne Pl.,90019-6819,34.05121,-118.331482
Quincy Jones Elementary,900 East 33rd St.,90011-2524,34.014575,-118.260815
Rabbi Jacob Pressman Academy,1055 South La Cienega Blvd.,90035-2507,34.058398,-118.376329
Ramon C. Cortines School of Visual and Performing Arts,450 North Grand Ave.,90012-2123,34.059537,-118.244923
Ramona Elementary,1133 North Mariposa Ave.,90029-1413,34.091562,-118.299477
Ramona Opportunity High,231 South Alma Ave.,90063-2412,34.038969,-118.191377
Ranchito Avenue Elementary,7940 Ranchito Ave.,91402-6131,34.215219,-118.434547
Rancho Dominguez Preparatory,4110 Santa Fe Ave.,90810-1439,33.833794,-118.215942
Raymond Avenue Elementary,7511 Raymond Ave.,90044-2430,33.971751,-118.298177
Redeemer Baptist Elementary,10792 National,90064-4234,34.030824,-118.419248
ReJOYce In Jesus Christian School,1304 South Cochran Ave.,90019-2847,34.050595,-118.351398
Renaissance Arts Academy,2558 North San Fernando Rd.,90065-1324,34.108011,-118.241723
Renaissance Arts Academy K-12,1816 Colorado Blvd.,90041,34.13924,-118.206737
Renuevo Elementary School,2665 Clarendon Ave.,90255-5346,33.983729,-118.2234
Renuevo Leadership Academy,2665 Clarendon Ave.,90255-5346,33.983729,-118.2234
Reseda Charter High,18230 Kittridge St.,91335-6121,34.190181,-118.530523
Reseda Community Adult,18230 Kittridge St.,91335-6121,34.188617,-118.529359
Reseda Elementary,7265 Amigo Ave.,91335-3035,34.202381,-118.538657
Resolute Academy Charter,1265 East 112th St.,90059-1137,33.933775,-118.252936
Resurrection,3360 E. Opal St.,90023-2917,34.022326,-118.204787
Ribet Academy,2911 North San Fernando Rd.,90065-1323,34.113484,-118.242064
Ricardo Lizarraga Elementary,401 East 40th Pl.,90011-5640,34.010257,-118.268469
Richard A. Alonzo Community Day,5755 Fountain Ave.,90028-8531,34.094796,-118.31506
Richard E. Byrd Middle,8501 Arleta Ave.,91352-2958,34.222523,-118.405531
Richard Henry Dana Middle,1501 South Cabrillo Ave.,90731-4617,33.730602,-118.294645
Richard N. Slawson Southeast OC,5500 Rickenbacker Rd.,90201,33.990636,-118.168433
Richard Riordan Primary Center,5531 Monte Vista St.,90042-3324,34.110779,-118.196451
Richland Avenue Elementary,11562 Richland Ave.,90064-3733,34.028719,-118.44003
Rio Vista Elementary,4243 Satsuma Ave.,91602-3226,34.147262,-118.367368
Rise Kohyang Elementary,600 South La Fayette Park Pl.,90057-3243,34.062428,-118.282171
Rise Kohyang High,111 South Madison Ave.,90004-6053,34.073367,-118.289143
Rise Kohyang Middle,600 South Lafayette Park Pl.,90057,34.062428,-118.282172
Rise Montessori School,7120 Remmet Ave.,91303-2015,34.19987,-118.600048
Rising Stars Academy,1851 W Imperial Hwy. Los Ageles,90047-5021,33.931207,-118.310807
Rising Stars Academy Elementary,1909 W. Imperial Hwy,90047-5023,33.931323,-118.311629
Ritter Elementary,11108 Watts Ave.,90059-1444,33.934351,-118.227859
Riverside Drive Charter,13061 Riverside Dr.,91423-2128,34.15768,-118.41753
Robert E. Peary Middle,1415 West Gardena Blvd.,90247-4712,33.882014,-118.30023
Robert F. Kennedy Elementary,4010 East Ramboz Dr.,90063-1218,34.05399,-118.178334
Robert Frost Middle,12314 Bradford Pl.,91344-1918,34.293743,-118.511042
Robert Fulton College Preparatory,7477 Kester Ave.,91405-1722,34.206434,-118.457528
Robert H. Lewis Continuation,12508 Wicks St.,91352-2953,34.225407,-118.405431
Robert Hill Lane Elementary,1500 Avenida Cesar Chavez,91754-6020,34.039747,-118.152239
Robert Louis Stevenson College and Career Preparatory,725 South Indiana St.,90023-1840,34.026048,-118.192374
Rockdale Visual & Performing Arts Magnet,1303 Yosemite Dr.,90041-2434,34.133303,-118.193612
Rolling Hills Preparatory School,1 Rolling Hills Prep Way,90732-5200,33.779178,-118.301505
Roosevelt Community Adult,456 South Matthews St.,90033-4326,34.037504,-118.211964
ROP Center,"333 South Beaudry Ave., 18th Fl.",90017-5108,34.056109,-118.256986
Rosa Parks Learning Center,8855 Noble Ave.,91343-5518,34.231619,-118.461075
Roscoe Elementary,10765 Strathern St.,91352-4644,34.215749,-118.365401
Roscomare Road Elementary,2425 Roscomare Rd.,90077-1812,34.119631,-118.463715
Rose and Alex Pilibos Armenian School,1615 North Alexandria Ave.,90027-5207,34.10017,-118.298443
Rosemont Avenue Elementary,421 North Rosemont Ave.,90026-4994,34.072083,-118.269691
Rosewood Avenue Elementary School Urban Planning and Urban Design Magnet,503 North Croft Ave.,90048-2510,34.08205,-118.374287
Rowan Avenue Elementary,600 South Rowan Ave.,90023-1826,34.028268,-118.187379
Roy Romer Middle,6501 Laurel Canyon Blvd.,91606-1520,34.188654,-118.396578
Rudecinda Sepulveda Dodson Middle,28014 Montereina Dr.,90275-1288,33.764873,-118.316576
Russell Elementary,1263 East Firestone Blvd.,90001-3738,33.960215,-118.252236
Sacred Heart Elementary School,2109 Sichel St.,90031-3027,34.069877,-118.213171
Sacred Heart High,2111 Griffin Ave.,90031-3005,34.069884,-118.211962
Saint Aloysius,2023 East Nadeau St.,90001-3503,33.967764,-118.236221
Saint Mary Coptic Orthodox School,17431 Roscoe Blvd,91325-3903,34.221938,-118.512899
Saint Paul the Apostle School,1536 Selby Ave.,90024-5714,34.054777,-118.436954
Saint Sebastian School,1430 Federal Ave.,90025-2302,34.046814,-118.455651
Saint Thomas the Apostle,2632 West 15th St.,90006-4329,34.045286,-118.299068
Sal Castro Middle,1575 West 2nd St.,90026-5701,34.061222,-118.263016
Sally Ride Elementary: A SMArT Academy,1041 East 46th St.,90011-3627,34.001838,-118.257436
Samuel A. Fryer Yavneh Hebrew,5353 West Third St.,90020-4801,34.070492,-118.336288
Samuel Gompers Middle,234 East 112th St.,90061-2542,33.932962,-118.277393
San Antonio Continuation,2911 Belgrave Ave.,90255-5268,33.987203,-118.217186
San Antonio Elementary,6222 State St.,90255-4403,33.983636,-118.212544
San Fernando Elementary,1130 Mott St.,91340-4126,34.279548,-118.447349
San Fernando Institute of Applied Media,130 North Brand Blvd.,91340-2901,34.283041,-118.43655
San Fernando Middle,130 North Brand Blvd.,91340-2996,34.282849,-118.438098
San Fernando Senior High,11133 O'Melveny Ave.,91340-4426,34.272472,-118.442105
San Fernando Valley Academy,17601 Lassen St,91325-1408,34.251414,-118.518248
San Gabriel Avenue Elementary,8628 San Gabriel Ave.,90280-3112,33.954957,-118.202342
San Jose Street Elementary,14928 Clymer St.,91345-2111,34.262593,-118.457383
San Miguel Catholic School,2270 East 108th St.,90059-1346,33.93728,-118.231497
San Miguel Elementary,9801 San Miguel Ave.,90280-4823,33.944793,-118.200767
San Pascual Elementary Science Technology Engineering Arts And Mathematics (STEAM) Magnet,815 San Pascual Ave.,90042-3030,34.118586,-118.17204
San Pedro Senior High,1610 South Leland St.,90731-3932,33.729644,-118.300675
San Pedro Street Elementary,1635 South San Pedro St.,90015-3706,34.02924,-118.25645
Santa Monica Academy,11835 West Olympic Blvd. Ste 745,90064-5001,34.033076,-118.451931
Santa Monica Boulevard Community Charter,1022 North Van Ness Ave.,90038-3252,34.089366,-118.315663
Santa Rosa de Lima,1316 Griffith St.,91340-3958,34.282349,-118.449099
Santa Teresita Elementary,2646 Zonal Ave.,90033-1436,34.057135,-118.197334
Santee Education Complex,1921 South Maple Ave.,90011-1036,34.028729,-118.262116
Sara Coughlin Elementary,11035 Borden St.,91331-1533,34.270065,-118.402109
Saticoy Elementary,7850 Ethel Ave.,91605-1940,34.212841,-118.416715
Saturn Street Elementary,5360 Saturn St.,90019-3960,34.046648,-118.355685
Scholarship Prep - South Bay,24910 S. Avalon Blvd.,90744-1029,33.799742,-118.263608
School for the Visual Arts and Humanities,701 South Catalina St.,90005-1943,34.059692,-118.295474
School of Business and Tourism at Contreras Learning Complex,322 Lucas Ave.,90017-1406,34.058064,-118.261708
School of Engineering and Technology,1200 Playa Del Sol,90033,34.0487,-118.2274
School of History and Dramatic Arts at Sonia Sotomayor Learning Academies,2050 San Fernando Rd.,90065-1267,34.290459,-118.449491
School of Law & Government at Roosevelt High,456 South Mathews St.,90033-4326,34.039171,-118.211197
School of Santa Isabel,2424 Whittier Blvd.,90023-1302,34.033929,-118.215133
"School of Science, Technology, Engineering & Math (STEM) at Roosevelt High",456 South Mathews St.,90033-4326,34.039171,-118.211197
Science Academy STEM Magnet,5525 Vineland Ave.,91601-2730,34.170593,-118.371533
"Science, Technology, Engineering, Arts and Mathematics at Legacy High School Complex",5225 Tweedy Blvd.,90280-5332,33.941328,-118.178946
Second Street Elementary,1942 East Second St.,90033-3417,34.045312,-118.217371
Selma Avenue Elementary,6611 Selma Ave.,90028-7113,34.099802,-118.334088
Serenity Kids Academy,8414 Tampa Ave,91326-4256,34.223162,-118.553254
Serenity Kids Academy,11439 Encino Ave,91344-3418,34.278588,-118.516279
Serrania Avenue Charter for Enriched Studies,5014 Serrania Ave.,91364-3303,34.161207,-118.588318
Seven Arrows Elementary,15240 La Cruz Dr,90272-3401,34.04509,-118.525885
Seventh Street Elementary Arts Integration Magnet,1570 West Seventh St.,90732-3420,33.737964,-118.311515
Seventy-Fifth Street Elementary,142 West 75th St.,90003-2014,33.972137,-118.272394
Seventy-Fourth Street Elementary,2112 West 74th St.,90047-2118,33.972721,-118.315858
Shalhevet,910 South Fairfax Ave.,90036-4419,34.059087,-118.363244
Sharp Avenue Elementary,13800 Pierce St.,91331-4530,34.252754,-118.433047
Sheenway School and Culture Center,321West 102Nd St.,90003,33.944132,-118.279111
Shenandoah Street Elementary,2450 Shenandoah St.,90034-2026,34.038888,-118.385138
Sheridan Street Elementary,416 North Cornwell St.,90033-1833,34.04992,-118.208198
Sherman Oaks Center for Enriched Studies,18605 Erwin St.,91335-6824,34.183932,-118.537922
Sherman Oaks Elementary Charter,14755 Greenleaf St.,91403-4127,34.149449,-118.455273
Shirley Avenue Elementary,19452 Hart St.,91335-3735,34.197396,-118.557142
Short Avenue Elementary,12814 Maxella Ave.,90066-6107,33.991138,-118.432395
Sierra Canyon School,20801 Rinaldi St.,91311-1573,34.270534,-118.586019
Sierra Park Elementary,3170 Budau Ave.,90032-2856,34.082039,-118.169487
Sierra Vista Elementary,4342 Alpha St.,90032-1396,34.095361,-118.15931
Simon Rodia Continuation,2701 Sequoia Dr.,90280-5555,33.942247,-118.223166
Sinai Akiba Academy,10400 Wilshire Blvd.,90024-4602,34.065635,-118.429131
Sixth Avenue Elementary,3109 Sixth Ave.,90018-2920,34.026121,-118.323665
Sixty-First Street Elementary,6020 South Figueroa St.,90003-1020,33.9849,-118.282593
Sixty-Sixth Street Elementary,6600 South San Pedro St.,90003-1938,33.979687,-118.269478
"Slauson Learning Center, No. 1",5816 West Blvd.,90043,33.988365,-118.334643
Smart Generation,18631 Sherman Way Ste. A,91335-4194,34.201483,-118.539923
Social Justice Leadership Academy Magnet at Esteban E. Torres High No 5,4211 Dozier St.,90063-3422,34.041554,-118.175474
Social Justice Schools: Global Issues Academy at Dr. Maya Angelou Community High,300 East 53rd St.,90011-4522,33.99422,-118.270103
Solano Avenue Elementary,615 Solano Ave.,90012-1036,34.075902,-118.23231
Sophia T. Salvin Special Education Center,1925 Budlong Ave.,90007-1109,34.039008,-118.296295
Soto Street Elementary,1020 South Soto St.,90023-1324,34.031739,-118.217249
Sotomayor Arts and Sciences Magnet,2050 San Fernando Rd.,90065-1267,34.290459,-118.449491
South East High,2720 Tweedy Blvd.,90280-5539,33.946064,-118.223306
South Gate Community Adult,2525 Firestone Blvd.,90280-2937,33.957674,-118.226891
South Gate Middle,4100 Firestone Blvd.,90280-3218,33.953333,-118.197954
South Gate Senior High,3351 Firestone Blvd.,90280-2937,33.954632,-118.209756
South Park Elementary,8510 Towne Ave.,90003-3119,33.960894,-118.26724
"South Region High #12A Technology, Arts and Design High",8800 South San Pedro St.,90003,33.95715,-118.268756
South Shores/CSUDH Visual and Performing Arts,2060 West 35th St.,90732-4704,33.722101,-118.322075
Southeast Middle,2560 Tweedy Blvd.,90280-5557,33.94638,-118.225695
Special Education-Infant/Preschool Program,"333 South Beaudry Ave., Fl. 17",90017-5105,34.052234,-118.243685
Spectrum Center- Long Beach Middle Market Street,1022 E Market St,90805-6034,33.853755,-118.182045
Spivak Hebrew Academy,9717 W. Pico Blvd.,90035-4710,34.054994,-118.400056
St Margaret Mary School,25515 Eshelman Ave,90717-2621,33.791606,-118.314871
St. Agnes Parish School,1428 West Adams Blvd.,90007-1640,34.032673,-118.292764
St. Alphonsus School,552 Amalia Ave,90022-2630,34.025435,-118.154392
St. Anastasia Elementary,8631 South Stanmoor Dr.,90045-2331,33.959131,-118.425089
St. Anthony of Padua,1003 W 163Rd St.,90247-4427,33.883519,-118.292813
St. Augustine School (SAS),3819 Clarington Ave.,90232-2733,34.021658,-118.400257
St. Bernard Elementary,3254 Verdugo Rd,90065-2036,34.111058,-118.236106
St. Bernard High School,9100 Falmouth Ave.,90293-8205,33.955114,-118.432126
St. Bernardine of Siena School,6061 Valley Cir. Blvd.,91367-1144,34.181827,-118.657049
St. Brendan,"238 S. Manhattan Pl., St. Brendan School",90004,34.069906,-118.310104
St. Bridget of Sweden Elementary,7120 Whitaker Ave,94106-3719,34.200034,-118.497586
St. Cecilia Elementary,4224 South Normadie Ave.,90037-2325,34.00692,-118.300042
St. Charles Borromeo,10850 Moorpark St.,91602-2206,34.149966,-118.367478
St. Columbkille Elementary,145 West 64th St.,90003-1415,33.981466,-118.275547
St. Cyril of Jerusalem Elementary,4548 Haskell Ave.,91436-3113,34.154045,-118.474161
St. Didacus,14325 Astoria St.,91342-4124,34.306015,-118.445877
St. Dominic School,2005 Merton Ave,90041-1911,34.138217,-118.212766
ST. ELISABETH SCHOOL,6635 TOBIAS Ave.,91405-4614,34.191764,-118.452328
St. Eugene,9521 Haas Ave.,90047-3739,33.94928,-118.316976
St. Euphrasia School,17637 Mayerling St.,91344-2120,34.284048,-118.517052
St. Frances X. Cabrini,1428 West Imperial Hwy.,90047-4901,33.930652,-118.301123
St. Francis De Sales,13368 Valleyheart Dr.,91423-3287,34.149507,-118.424503
St. Genevieve Elementary School,14024 Community St.,91402-3707,34.222639,-118.439074
St. Genevieve High School,13967 Roscoe Blvd.,91402-4245,34.22191,-118.437955
St. Helen,9329 Madison Ave,90280-4225,33.950359,-118.214993
St. Ignatius of Loyola Elementary,6025 Monte Vista St.,90042-3435,34.113909,-118.191013
St. James' Episcopal School,625 S. St. Andrews Pl.,90005-3043,34.062643,-118.311903
St. Jane Frances de Chantal School,12950 Hamlin St.,91606-1101,34.188431,-118.415268
St. Jerome Elementary,5580 Thornburn St.,90045-2141,33.973479,-118.378096
St. John Eudes,9925 Mason Ave.,91311-4525,34.250319,-118.579828
St. Joseph the Worker Elementary,19812 Cantlay St.,91306-3005,34.202092,-118.566216
St. Lawrence of Brindisi Elementary,10044 Compton Ave.,90002-2851,33.945267,-118.245536
St. Malachy Catholic Elementary,1200 East 81st St.,90001-3308,33.965625,-118.254205
St. Mark School,912 Coeur D Alene Ave,90291-4929,33.991369,-118.452177
St. Martin of Tours,11955 Sunset Blvd.,90049-4220,34.062316,-118.473639
St. Matthew's Parish School,1031 Bienveneda Ave.,90272-0037,34.053951,-118.542232
St. Matthias Elementary School,7130 Cedar St.,90255-5248,33.973268,-118.213241
St. Mel Elementary,20874 Ventura Blvd.,91364-2318,34.166308,-118.587572
St. Michael Elementary,1027 West 87th St.,90044-2107,33.959255,-118.292849
St. Nicholas School,"9501 Balboa Blvd. Northridge, Ca 91325",91325,34.243937,-118.502864
St. Odilia Elementary,5300 Hooper Ave.,90011-4809,33.994821,-118.252093
St. Patrick Elementary,10626 Erwin St.,91606-5042,34.182546,-118.362553
St. Paul Elementary,1908 South Bronson Ave.,90018-1039,34.039576,-118.329428
St. Philomena Elementary,21832 South Main St.,90745-2934,33.829858,-118.277442
St. Raphael Elementary,924 West 70th St.,90044-5221,33.97629,-118.290385
St. Rose of Lima Catholic,4422 East 60th St.,90270-3103,33.985419,-118.187288
St. Teresa of Avila School,2215 Fargo St.,90039-3107,34.092353,-118.258856
St. Timothy School,10479 West Pico Blvd.,90064-2307,34.04543,-118.418854
St. Turibius Elementary,1524 Essex St.,90021-2615,34.027394,-118.248886
St. Vincent Elementary School,2333 S Figueroa,90007-2501,34.030501,-118.275479
Stagg Street Elementary,7839 Amestoy Ave.,91406-1602,34.212765,-118.505565
Stanford Avenue Elementary,2833 Illinois Ave.,90280-4005,33.950876,-118.220774
Stanford Primary Center,3020 Kansas Ave.,90280-4108,33.948735,-118.218309
Stanley Mosk Elementary,7335 Lubao Ave.,91306-3670,34.203527,-118.56806
Star Christian,2120 Estrella Ave.,90007-2042,34.032668,-118.276193
STARS Academy,7353 Valley Cir. Blvd,91304-6706,34.206132,-118.654393
State Street Elementary,3211 Santa Ana St.,90280-2305,33.96365,-118.211613
Stella Elementary Charter Academy,2636 S. Mansfield Ave.,90016-3512,34.03156,-118.352359
Stella High Charter Academy,1600 W. Imperial Hwy.,90047-4810,33.928811,-118.306082
Stella Middle Charter Academy,4301 West Martin Luther King Jr. Blvd.,90008-1719,34.017109,-118.344232
STEM Academy at Bernstein High,1309 North Wilton Pl.,90028-8526,34.095061,-118.313922
STEM Preparatory Elementary,1374 West 35th St.,90007-3410,34.024325,-118.299663
STEM3 Academy West,12095 W. Washington Blvd.,90066,33.99775,-118.423866
Stephen M. White Middle,22102 South Figueroa St.,90745-4404,33.826794,-118.285898
"Stonehurst Avenue Elementary School Science, Technology, Engineering, Arts and Math Magnet",9851 Stonehurst Ave.,91352-1222,34.249369,-118.369524
Stoner Avenue Elementary,11735 Braddock Dr.,90230-5141,33.995538,-118.412416
Stoney Point Continuation,10010 de Soto Ave.,91311-3127,34.252078,-118.58849
Strathern Street Elementary,7939 St. Clair Ave.,91605-2316,34.214731,-118.399886
Sts. Peter and Paul School,706 Bay View Ave.,90744-5308,33.778563,-118.26991
Student Empowerment Academy,1319 East 41st St.,90011-3301,34.009239,-118.251546
Studio,2050 North San Fernando Rd.,90065-1267,34.10226,-118.237398
Succeeders Seminary of the Southwest,"2390 Crenshaw Blvd,  Ste E503",90501-3300,33.822278,-118.32808
Summit Preparatory Charter,644 56th St.,90011-4660,33.990892,-118.264366
Summit View,6455 Coldwater Canyon,91606-1112,34.188287,-118.414051
Sun Valley High,9171 Telfair Ave.,91352-1844,34.236128,-118.396597
Sun Valley Magnet,7330 Bakman Ave.,91352-4914,34.203585,-118.377843
Sunland Christian School,13216 Leach St.,91342-4420,34.309727,-118.421768
Sunland Elementary,8350 Hillrose St.,91040-2406,34.263288,-118.314666
Sunny Brae Avenue Elementary,20620 Arminta St.,91306-2109,34.213546,-118.582512
Sunrise Elementary,2821 East Seventh St.,90023-1501,34.029688,-118.211009
Sunrise School,13130 Burbank Blvd.,91401-6037,34.171154,-118.419256
Sunrise West School,4160 Grand View Blvd.,90066-5214,33.997947,-118.425347
Superior Street Elementary,9756 Oso Ave.,91311-5359,34.24772,-118.575332
Susan Miller Dorsey Senior High,3537 Farmdale Ave.,90016-4707,34.022994,-118.346103
Sven Lokrantz Special Education Center,19451 Wyandotte St.,91335-3518,34.202975,-118.556812
Sylmar Biotech Health and Engineering Magnet,13050 Borden Ave.,91342-4251,34.307364,-118.442883
Sylmar Charter High,13050 Borden Ave.,91342-4251,34.307294,-118.442804
Sylmar Elementary,13291 Phillippi Ave.,91342-2810,34.31275,-118.446839
Sylmar Leadership Academy,14550 Bledsoe St.,91342-1414,34.318622,-118.449471
Sylvan Park Elementary,6238 Noble Ave.,91411-2026,34.184062,-118.461735
Synergy Charter Academy,900 East 33rd St.,90011-2527,34.014575,-118.260815
Synergy Kinetic Academy,1420 East Adams Blvd.,90011-1820,34.015715,-118.248773
Synergy Quantum Academy,300 East 53rd St.,90011-4522,33.99422,-118.270103
Taft Charter High,5461 Winnetka Ave.,91364-2548,34.16939,-118.57103
Taper Avenue Elementary,1824 Taper Ave.,90731-1175,33.761789,-118.298927
Tarbiyatul ILM Academy Global,12100 Wilshire Blvd Fl. 8,90025-7120,34.043516,-118.467575
Tarzana Elementary,5726 Topeka Dr.,91356-1316,34.175091,-118.546072
Tashbar Sephardic Yeshiva Ketana,1210 South La Cienega Blvd.,90035-2521,34.055333,-118.375967
TEACH Academy of Technologies,10045 South Western Ave.,90047,33.944028,-118.309365
TEACH Preparatory Mildred S. Cunningham & Edith H. Morris Elementary,8505 South Western Ave.,90047-3053,33.960687,-118.309395
TEACH Tech Charter High,10616 South Western Ave.,90047-4254,33.9394,-118.308797
Team Hardison,19360 Rinaldi St. Pmb 696,91326-1607,34.27358,-118.554945
Telfair Avenue Elementary,10975 Telfair Ave.,91331-2821,34.269183,-118.431576
Tenth Street Elementary,1000 Grattan St.,90015-2046,34.04837,-118.273484
Teresa Hughes Elementary,4242 Clara St.,90201-5010,33.966238,-118.192981
The Archer School for Girls,11725 Sunset Blvd.,90049-2918,34.064959,-118.471182
The Canterbury Tale School (DBA) run by Routenstein Foundation,17331 Burbank Blvd.,91316,34.172457,-118.51089
The Center for Early Education,563 North Alfred St.,90048-2512,34.08159,-118.375382
The City,5753 Obama Blvd.,90016-5013,34.022002,-118.371138
The City,11625 West Pico Blvd.,90064-2908,34.032519,-118.444577
The City School,6835 Aldea Ave.,91406-4424,34.195013,-118.508718
The Help Group's North Hills Prep,15339 Saticoy St.,91406-3345,34.209374,-118.467839
The Incubator,"7400 West Manchester, Bldg. K",90045-2322,33.95932,-118.428626
The John Thomas Dye School,11414 Chalon Rd.,90049-1700,34.087412,-118.463364
The Mirman School for Gifted Children,16180 Mulholland Dr.,90049-1125,34.129714,-118.484466
The Northridge Community School,11263 Balboa Blvd.,91344-4206,34.275136,-118.502493
The Oaks School,6817 Franklin Ave.,90028-4401,34.10418,-118.338764
The Pines Christian School,25200 S. Western Ave.,90710-2611,33.795479,-118.307274
The School of Los Angeles,6361 Santa Monica Blvd.,90038,34.090998,-118.328139
THE WESLEY SCHOOL,4832 Tujunga Ave.,91601-4520,34.158991,-118.378176
Theodore Roosevelt Senior High,2530 East 4th St.,90033,34.03947,-118.20986
Third Street Elementary,201 South June St.,90004-1055,34.071002,-118.334858
Thirty-Second Street USC Performing Arts,822 West 32nd St.,90007-3601,34.025192,-118.282921
Thomas A. Edison Middle,6500 Hooper Ave.,90001-1264,33.981577,-118.251984
Thomas Jefferson Senior High,1319 East 41st St.,90011-3301,34.009239,-118.251546
Thomas Riley High,1524 East 103rd St.,90002-3307,33.943214,-118.247711
Thomas Starr King Middle School Film and Media Magnet,4201 Fountain Ave.,90029-2223,34.095839,-118.280673
Thurgood Marshall Charter Middle,3500 South Normandie Ave.,90007,34.024304,-118.300271
Toland Way Elementary,4545 Toland Way,90041-3427,34.120919,-118.218045
Toluca Lake Elementary,4840 Cahuenga Blvd.,91601-4799,34.158628,-118.361468
Tom Bradley Global Awareness Magnet,3875 Dublin Ave.,90008-1945,34.015235,-118.322317
Topanga Elementary Charter,22075 Topanga School Rd.,90290-3835,34.091819,-118.603718
Topanga Mountain School,5920 Shoup Ave,91367-3327,34.178642,-118.613921
Topeka Charter School for Advanced Studies,9815 Topeka Dr.,91324-1849,34.248427,-118.545761
Torah Academy of Los Angeles,5562 Reseda Blvd,91356-2608,34.171733,-118.535699
Towne Avenue Elementary,18924 Towne Ave.,90746-2165,33.858447,-118.267948
Transfiguration,4020 Roxton Ave.,90008-2719,34.011789,-118.321162
TREE Academy,8628 Holloway Dr,90069-2304,34.090309,-118.380237
Tri-C Community Day,"716 East 14th St., Second Fl.",90021-2114,34.031856,-118.253871
Trinity Street Elementary,3736 Trinity St.,90011-2635,34.011894,-118.269671
True Education Learning Academy,1215 W Manchester Ave,90044-2237,33.960267,-118.29647
Tulsa Street Elementary,10900 Hayvenhurst Ave.,91344-5121,34.268397,-118.493422
Tweedy Elementary,9724 Pinehurst Ave.,90280-5222,33.943483,-118.182663
Twenty-Eighth Street Elementary,2807 Stanford Ave.,90011-2017,34.018883,-118.260765
Twenty-Fourth Street Elementary,2055 West 24th St.,90018-1925,34.034767,-118.310696
Two Hundred Thirty-Second Place Elementary,23240 Archibald Ave.,90745-5117,33.814552,-118.282651
UCLA Community K-12,700 South Mariposa Ave.,90005-2001,34.059688,-118.298646
Ulysses S. Grant Senior High,13000 Oxnard St.,91401-4114,34.179356,-118.415805
Underrated Talent Union California Academy,20795 S. Main St.,90745-1118,33.842593,-118.280456
Union Avenue Elementary,150 South Burlington Ave.,90057-2506,34.063929,-118.267189
University High School Charter,11800 Texas Ave.,90025-1402,34.045716,-118.461331
University of Silvaner,3460 Wilshire Blvd,90010-2206,34.061306,-118.300039
University Pathways Medical Magnet Academy,11227 South San Pedro St.,90061-2566,33.932721,-118.269921
University Pathways Public Service Academy,1415 Firestone Blvd.,90001-3854,33.961125,-118.24902
University Preparatory Value High,1929 West Pico Blvd.,90006-5008,34.046778,-118.280941
Urban Village Middle,5753 Rodeo Rd.,90016,34.02233,-118.371288
Utah Street Elementary,255 Gabriel Garcia Marquez St.,90033-2746,34.049296,-118.223996
Valerio Street Elementary,15035 Valerio St.,91405-1742,34.204889,-118.460606
Valley Academy of Arts and Sciences,10445 Balboa Blvd.,91344-7323,34.260352,-118.503534
Valley Beth Shalom Day School,15739 Ventura Blvd.,91436-2903,34.15608,-118.476412
Valley Charter Elementary,16514 Nordhoff St.,91343-3724,34.234961,-118.492039
Valley Charter Middle,14646 Sherman Way,91405-5860,34.200628,-118.452402
Valley International Preparatory High,18827 Roscoe Blvd.,91324-4545,34.221079,-118.543593
Valley Oaks Center for Enriched Studies,9171 Telfair Ave.,91352-1844,34.23604,-118.397027
Valley School,15700 Sherman Way,91406-4025,34.200887,-118.475343
Valley Torah High School,12517 Chandler Blvd,91607-1925,34.168928,-118.405996
Valley View Elementary,6921 Woodrow Wilson Dr.,90068-1847,34.124679,-118.344349
Valor Academy Elementary,8755 Woodman Ave.,91331-6506,34.229022,-118.436095
Valor Academy High,9356 Lemona Ave.,91343-3416,34.240804,-118.458511
Valor Academy Middle,9034 Burnet Ave.,91343-2319,34.234685,-118.462643
Valor Montessori Preparatory,7136 Winnetka Ave,91306-3647,34.199932,-118.570656
Van Deene Avenue Elementary,826 West Javelin St.,90502-1719,33.838803,-118.288984
Van Gogh Charter,17160 Van Gogh St.,91344-1217,34.3057,-118.505349
Van Ness Avenue Elementary,501 North Van Ness Ave.,90004-1527,34.080338,-118.315778
Van Nuys Community Adult,6535 Cedros Ave.,91411-1506,34.189234,-118.455163
Van Nuys Elementary,6464 Sylmar Ave.,91401-1433,34.188064,-118.446457
Van Nuys Middle,5435 Vesper Ave.,91411-3738,34.169131,-118.450957
Van Nuys Senior High,6535 Cedros Ave.,91411-1506,34.189555,-118.453144
Vanalden Avenue Elementary,19019 Delano St.,91335-6727,34.18255,-118.54741
Vaughn Next Century Learning Center,13330 Vaughn St.,91340-2216,34.279674,-118.420948
Vena Avenue Elementary,9377 Vena Ave.,91331-4733,34.240667,-118.420212
Venice Community Adult,13000 Venice Blvd.,90066-3512,33.997058,-118.445751
Venice Senior High,13000 Venice Blvd.,90066-3512,33.998856,-118.442838
Venice Skills Center,611 Fifth Ave.,90291-2674,33.995911,-118.472747
Verbum Dei Jesuit High School,11100 South Central Ave.,90059-1120,33.934628,-118.252544
Verdugo Hills Senior High,10625 Plainview Ave.,91042-1723,34.261842,-118.297989
Vermont Avenue Elementary,1435 West 27th St.,90007-2137,34.030536,-118.293521
Vermont Christian School,25500 Vermont Ave.,90710-3125,33.794197,-118.290438
Vernon City Elementary,2360 East Vernon Ave.,90058-1609,34.003891,-118.230967
Victoria Avenue Elementary,3320 Missouri Ave.,90280-4308,33.946937,-118.211026
Victory Boulevard Elementary,6315 Radford Ave.,91606-3316,34.18515,-118.392209
View Park Continuation,4701 Rodeo Rd.,90016-4713,34.02155,-118.347832
Village Charter Academy,7357 Jordan Ave.,91303-1238,34.204058,-118.603059
Village Christian Schools,8930 Village Ave.,91352-2129,34.230734,-118.355921
Village Glen School,13130 Burbank Blvd.,91401-1401,34.171154,-118.419256
"Village School, Inc.",780 Swarthmore Ave.,90272-4355,34.044622,-118.526149
Vine Street Elementary,955 North Vine St.,90038-2701,34.088294,-118.326689
Vinedale College Preparatory Academy,10150 La Tuna Canyon Rd.,91352-2101,34.234149,-118.352251
Vintage Math/Science/Technology Magnet,15848 Stare St.,91343-1423,34.252692,-118.477247
Virgil Middle,152 North Vermont Ave.,90004-4897,34.073849,-118.291613
Virginia Road Elementary,2925 Virginia Rd.,90016-3628,34.028967,-118.339527
Virtual Academy of Business & Entrepreneurship,18720 Linnet St.,91356-3313,34.167242,-118.542044
Virtual Academy of International Studies/Humanities (World Languages and Cultures),19452 Hart St.,91335-3735,34.19626,-118.557613
Virtual Academy of the Arts & Entertainment,1254 East Helmick St.,90746-3164,33.851383,-118.250803
Virtual Academy STEAM,4010 East Ramboz Dr.,90063-1218,34.053944,-118.177811
Visitation Elementary,8740 South Emerson Ave.,90045-3723,33.958279,-118.404159
Vista,3200 Motor Ave.,90034-3710,34.031265,-118.410941
Vista Charter Middle,2900 West Temple St.,90026-4516,34.074112,-118.278547
Vista del Valle Dual Language Academy,12441 Bromont Ave.,91340-1306,34.295989,-118.420841
Vista Horizon Global Academy,980 South Hobart Blvd.,90006-1220,34.053174,-118.305998
Vista Middle,15040 Roscoe Blvd.,91402-4513,34.221409,-118.46051
Visual and Performing Arts at Legacy High School Complex,5225 Tweedy Blvd.,90280-5332,33.941328,-118.178946
Vox Collegiate of Los Angeles,1100 West Manchester Ave.,90044-3430,33.959629,-118.294183
Wadsworth Avenue Elementary,981 East 41st St.,90011-2753,34.00928,-118.258549
Walgrove Avenue Elementary,1630 Walgrove Ave.,90066-2299,34.005671,-118.452713
Wallis Annenberg High,4000 South Main St.,90037-1022,34.010434,-118.273931
Walnut Park Elementary,2642 Olive St.,90255-6324,33.968183,-118.223984
Walnut Park Middle A School of Social Justice and Service Learning,7500 Marbrisa Ave.,90255-5612,33.971966,-118.231397
"Walnut Park Middle B Science, Technology, Engineering and Mathematics Academy",7500 Marbrisa Ave.,90255-5612,33.971966,-118.231397
Walter Reed Middle,4525 Irvine Ave.,91602-1915,34.15263,-118.385567
Warner Avenue Elementary,615 Holmby Ave.,90024-2535,34.070171,-118.433916
Warrior poets academy llc,18054 Ventura Blvd,91316-3500,34.164894,-118.526327
"Washington Irving Middle School Math, Music and Engineering Magnet",3010 Estara Ave.,90065-2205,34.11755,-118.240816
Washington Primary Center,860 West 112th St.,90044-4210,33.933369,-118.290734
Watts Learning Center,310 West 95th St.,90003-4012,33.950044,-118.278496
Watts Learning Center Charter Middle,8800 South San Pedro St.,90003-3541,33.95715,-118.268756
Wayfinder Family Services,5300 Angeles Vista Blvd,90043-1648,33.994033,-118.343684
Wee lil people,752 East Lincoln St.,90745-6010,33.807408,-118.261273
Weigand Avenue Elementary,10401 Weigand Ave.,90002-3865,33.941731,-118.2297
Welby Way Charter Elementary School And Gifted-High Ability Magnet,23456 Welby Way,91307-3328,34.192177,-118.637958
WESM Health/Sports Medicine,7400 West Manchester Ave.,90045-2322,33.95967,-118.426446
West Adams Preparatory High,1500 West Washington Blvd.,90007-1257,34.04001,-118.289684
West Athens Elementary,1110 West 119th St.,90044-6504,33.925036,-118.294906
West Hollywood College Preparatory School,1317 North Crescent Heights Blvd.,90046-4506,34.094513,-118.366294
West Hollywood Elementary,970 North Hammond St.,90069-4407,34.089046,-118.387578
West Hollywood Opportunity,1049 North Fairfax Ave.,90046-6151,34.090001,-118.361832
West Valley Christian School,22450 Sherman Way,91307-2326,34.200016,-118.616219
West Valley Occupational Center,6200 Winnetka Ave.,91367,34.182891,-118.570408
West Valley Special Education Center,6649 Balboa Blvd.,91406-5529,34.191504,-118.501189
West Vernon Avenue Elementary,4312 South Grand Ave.,90037-2603,34.004831,-118.280509
Westchester Lutheran School,7831 South Sepulveda Blvd.,90045-2916,33.970573,-118.395431
Westchester-Emerson Community Adult,8810 Emerson Ave.,90045-2322,33.956471,-118.404073
Western Avenue Technology Magnet,1724 West 53rd St.,90062-2718,33.994107,-118.307648
"Westland School,, The",16200 Mulholland Dr,90049-1127,34.129374,-118.485751
Westmark School,5461 Louise Ave.,91316-2540,34.170351,-118.510983
Westminster Avenue Elementary,1010 Abbott Kinney Blvd.,90291-3312,33.992074,-118.472064
Westport Heights Elementary,6011 West 79th St.,90045-2946,33.966388,-118.388812
Westside Community Adult,7850 Melrose Ave.,90046-7210,34.083401,-118.359734
Westside Global Awareness Magnet,104 Anchorage St.,90292-5102,33.979192,-118.465128
Westside Innovative School House,6550 West 80th St.,90045-1127,33.967745,-118.403875
Westside Innovative School House Charter Middle,7615 Cowan Ave.,90045-1206,33.972654,-118.405429
Westside Neighborhood School,5401 Beethoven St.,90066-7016,33.977509,-118.422608
Westside Waldorf School,17310 West Sunset Blvd.,90272-4102,34.04257,-118.552499
Westwood Charter Elementary,2050 Selby Ave.,90025-6311,34.047586,-118.430786
White Point Elementary,1410 Silvius Ave.,90731-6099,33.716229,-118.308433
Whitman Continuation,7795 Rosewood Ave.,90036-1764,34.080254,-118.3593
Whitney Young Continuation,3051 West 52nd St.,90043-4838,33.995062,-118.326383
Wilbur Charter for Enriched Academics,5213 Crebs Ave.,91356-4010,34.165336,-118.544233
"Wildwood School, Inc.",11811 W Olympic Blvd,90064-1114,34.033512,-118.451266
Will Rogers Continuation,14711 Gilmore St.,91411-1595,34.187703,-118.453348
William J. Johnston Community Day,2210 Taper Ave.,90731-1162,33.765139,-118.299432
William Jefferson Clinton Middle,3500 South Hill St.,90007-4333,34.018395,-118.275616
William Mulholland Middle,17120 Vanowen St.,91406-4449,34.19026,-118.504354
William R. Anton Elementary,831 North Bonnie Beach Pl.,90063-3404,34.045828,-118.18117
William Tell Aggeler Opportunity High,21050 Plummer St.,91311-4903,34.242728,-118.592704
Willow Elementary,2777 Willow Pl.,90280-2816,33.955053,-118.221806
Willowcrest School,10512 Magnolia Blvd.,91601-4112,34.164672,-118.359887
"Wilmington Middle Science, Technology, Engineering, Arts, Mathematics (STEAM) Magnet",1700 Gulf Ave.,90744-1311,33.79696,-118.274204
Wilmington Park Elementary,1140 Mahar Ave.,90744-3815,33.785951,-118.246434
Wilshire Crest Elementary,5241 West Olympic Blvd.,90036-4902,34.057191,-118.34428
Wilshire Park Elementary,4063 Ingraham St.,90005-3217,34.060979,-118.316541
Wilson-Lincoln Community Adult,4500 Multnomah St.,90032-3703,34.069677,-118.18634
Wilton Place Elementary,745 South Wilton Pl.,90005-3552,34.058698,-118.314325
Windsor Hills Math Science,5215 Overdale Dr.,90043-2020,33.995741,-118.355389
Windsor Math and Science Academy,4221 Wilshire Blvd Ste. 136,90010-3626,34.062243,-118.320862
Windward School,11350 Palms Blvd.,90066-2104,34.017437,-118.426202
Winnetka Avenue Elementary,8240 Winnetka Ave.,91306-1899,34.218937,-118.57097
Wisdom Elementary,1125 East 74th St.,90001-2405,33.973342,-118.255505
Wise School,15500 Stephen S Wise Dr,90077-1520,34.128629,-118.469973
WISH Academy High,7400 West Manchester Ave.,90045-2322,33.957763,-118.428888
WISH Community,6550 West 80th St.,90045-1127,33.96779,-118.403877
Wonderland Avenue Elementary,8510 Wonderland Ave.,90046-1451,34.114326,-118.379412
Woodcrest Elementary,1151 West 109th St.,90044-3011,33.937361,-118.296996
Woodcrest School,6043 Tampa Ave.,91356-1159,34.180398,-118.554122
Woodlake Elementary Community Charter,23231 Hatteras St.,91367-3119,34.175591,-118.632765
Woodland Hills Academy,20800 Burbank Blvd.,91367-6811,34.171912,-118.585468
Woodland Hills Elementary Charter for Enriched Studies,22201 San Miguel St.,91364-3039,34.158723,-118.609925
Woodland Hills Private School,22555 Oxnard St.,91367-3320,34.179985,-118.618286
Woodlawn Avenue Elementary,6314 Woodlawn Ave.,90201-1417,33.978356,-118.17766
Woodrow Wilson Senior High,4500 Multnomah St.,90032-3703,34.070754,-118.186163
WorldSpeak Language Immersion Private School,1639 Westwood Blvd,90024-5603,34.052152,-118.439379
Xinaxcalmecac Academia Semillas del Pueblo,4736 Huntington Dr.,90032-1942,34.085252,-118.181239
YES Academy,3140 Hyde Park Blvd.,90043-4117,33.980596,-118.327094
Yeshiva Gedolah of Los Angeles,5444 West Olympic Blvd.,90036-4802,34.057077,-118.348794
Yeshiva Ketana of Los Angeles,12041 Burbank Blvd.,91607-1853,34.172347,-118.395726
Yeshiva Ner Aryeh,12500 Burbank Blvd.,91607-1504,34.17193,-118.405498
Yeshiva Ohr Elchonon Chabad,7215 Waring Ave.,90046-7615,34.085298,-118.346705
Yeshiva Rav Isacsohn/Torath Emeth Academy,540 N. La Brea Ave.,90036-2016,34.081548,-118.343775
Yorkdale Elementary,5657 Meridian St.,90042-1850,34.120717,-118.194547
Young Oak Kim Academy,615 South Shatto Pl.,90005-1302,34.063087,-118.289972
Youth Opportunities Unlimited,915 West Manchester Ave.,90044-4915,33.960085,-118.289608
YULA High School - YULA Girls,1619 South Robertson Blvd.,90035-4245,34.05021,-118.385147
YULA High School- Boys School,9760 West Pico Blvd.,90035-4720,34.053649,-118.401181
Zane Grey Continuation,18230 Kittridge St.,91335-6115,34.190181,-118.530523
Los Angeles Unified School District ROCP,333 South Beaudry Ave.,90017-1466,34.056109,-118.256986
Cesar Chavez Middle,3898 Abbott Rd.,90262-2106,33.935881,-118.203595
Helen Keller Elementary,3521 Palm Ave.,90262-5127,33.913429,-118.207014
Hosler Middle,11300 Spruce St.,90262-3629,33.926913,-118.205374
Janie P. Abbott Elementary,5260 East Clark St.,90262-5443,33.910429,-118.187854
Kaplan Academy of Southern California,"840 Apollo St., Ste. 222",90245,33.903324,-118.386462
Lincoln Elementary,11031 State St.,90262-2454,33.933033,-118.216201
Lindbergh Elementary,3300 Cedar Ave.,90262-4850,33.919026,-118.213004
Lugo Elementary,4345 Pendleton Ave.,90262-2326,33.932526,-118.184597
Lynwood Academic Academy,3919 Carlin Ave.,90262-5203,33.913429,-118.201337
Lynwood Adult,11277 Atlantic Ave.,90262-5106,33.923679,-118.186707
Lynwood Alternative,11387 Bullis Rd.,90262-3660,33.925264,-118.200309
Lynwood High,12124 Bullis Rd.,90262-5106,33.916375,-118.204149
Lynwood Middle,12124 Bullis Rd.,90262-5106,33.916535,-118.204252
Marco Antonio Firebaugh High,5246 Martin Luther King Blvd.,90262-3903,33.919941,-118.183203
Mark Twain Elementary,12315 Thorson Ave.,90262-5243,33.91258,-118.197669
Pathway Independent Study,11387 Bullis Rd.,90262-3660,33.925436,-118.200599
Roosevelt Elementary,10835 Mallison Ave.,90262-2113,33.934328,-118.199923
Rosa Parks Elementary,3900 Agnes St.,90262-4415,33.91716,-118.201567
St. Emydius School,10990 California Ave.,90262-2006,33.933318,-118.207539
St. Philip Neri,12522 Stoneacre Ave.,90262-5314,33.909012,-118.194099
Thurgood Marshall Elementary,3593 Martin Luther King Blvd.,90262-2048,33.93312,-118.204315
Vista High,11300 Wright Rd.,90262-3126,33.921461,-118.18054
Washington Elementary,4225 Sanborn Ave.,90262-2998,33.924291,-118.189561
Will Rogers Elementary,11220 Duncan Ave.,90262-3041,33.924238,-118.182982
Wilson Elementary,11700 School St.,90262-4348,33.921715,-118.206734
Meadows Avenue Elementary,1200 Meadows Ave.,90266,33.888306,-118.391649
Opal Robinson Elementary,80 Morningside Dr.,90266,33.878219,-118.404975
Pennekamp (Aurelia) Elementary,110 S. Rowell,90266,33.879235,-118.389459
American Martyrs School,1701 Laurel Ave.,90266-4904,33.890815,-118.404363
Aurelia Pennekamp Elementary,110 South Rowell,90266-6962,33.879214,-118.389518
"Beach Cities Learning, Manhattan Beach",1501 N Peck Ave,90266-4215,33.888905,-118.387533
Creative Kids,1203 North Sepulveda Blvd.,90266-5103,33.888124,-118.396321
Grand View Elementary,455 24th St.,90266-4348,33.893671,-118.412422
Magic Rainbow Pre School,1159 N Aviation Blvd,90266-6225,33.887982,-118.379293
Manhattan Academy,1740 Manhattan Beach Blvd.,90266-6220,33.887277,-118.38158
Manhattan Beach Middle,1501 North Redondo Ave.,90266-4214,33.889108,-118.38387
Manhattan Beach Preschool,1431 15th St.,90266-4077,33.889184,-118.388999
Meadows Avenue Elementary,1200 Meadows Ave.,90266-4059,33.888229,-118.391701
Mira Costa High,1401 Artesia Blvd.,90266-6968,33.872932,-118.389482
Montessori School of Manhattan Beach,315 South Peck Ave.,90266-6934,33.877189,-118.387569
Opal Robinson Elementary,80 Morningside Dr.,90266-6562,33.878097,-118.404976
Pacific Elementary,1200 Pacific Ave.,90266-4969,33.887635,-118.403291
Bandini Elementary,2318 Couts Ave.,90040-1102,34.006131,-118.168221
Bell Gardens Adult,6119 Agra St.,90201-1705,33.975878,-118.153847
Bell Gardens Elementary,5620 Quinn St.,90201-5421,33.959519,-118.167924
Bell Gardens High,6119 Agra St.,90201-1705,33.975649,-118.154277
Bell Gardens Intermediate,5841 Live Oak St.,90201-4616,33.965577,-118.162536
Cesar E. Chavez Elementary,6139 Loveland St.,90201-1738,33.973386,-118.154763
Garfield Elementary,7425 South Garfield Ave.,90201-4815,33.964115,-118.152462
Rosewood Park,2353 Commerce Way,90040-1407,34.003497,-118.154304
St. Gertrude School,6824 Toler Ave.,90201-3210,33.967771,-118.152292
Winter Gardens Elementary,1277 South Clela Ave.,90022-4903,34.015179,-118.162265
Chadwick,26800 South Academy Dr.,90274-3980,33.776939,-118.360927
Cornerstone at Pedregal Elementary,6069 Groveoak Pl.,90275-2261,33.786828,-118.384388
Dapplegray Elementary,3011 Palos Verdes Dr. North,90274-7303,33.802593,-118.379478
Discovery World Education Center,550 Deep Valley Dr. #235,90274-3664,33.771724,-118.373542
"Fusion Academy, Palos Verdes","550 Deep Valley Dr., Ste. 250",90274-3721,33.772589,-118.373131
Lunada Bay Elementary,520 Paseo Lunado,90274-4377,33.768709,-118.418275
Mira Catalina Elementary,30511 Lucania Dr.,90275-6272,33.74087,-118.334069
Miraleste Elementary,6245 Via Canada,90275-6540,33.751354,-118.324057
Miraleste Intermediate,29323 Palos Verdes Dr. East,90275-6470,33.751405,-118.326699
Montemalaga Elementary,1121 Via Nogales,90274-1671,33.791327,-118.393965
Palos Verdes Adult,38 Crest Rd. West,90274-5058,33.759011,-118.360113
Palos Verdes Distance Learning Academy,38 Crest Rd. West,90274-5058,33.759011,-118.360113
Palos Verdes High,600 Cloyden Rd.,90274-1869,33.781629,-118.419461
Palos Verdes Intermediate,2161 Via Olivera,90274-1983,33.776304,-118.411837
Palos Verdes Peninsula High,27118 Silver Spur Rd.,90274-2300,33.780654,-118.373756
Peninsula Heritage School,26944 and 26825 Rolling Hills Rd.,90274,33.778706,-118.342975
Point Vicente Elementary,30540 Rue de La Pierre,90275-5364,33.756215,-118.409167
PV Peninsula Montessori School,31100 Hawthorne Blvd.,90275-5354,33.748904,-118.405807
Rancho del Mar High (Continuation),38 Crest Road West,90274-5058,33.759971,-118.361268
Rancho Vista Elementary,4323 Palos Verdes Dr. North,90274-1576,33.786666,-118.357489
Ridgecrest Intermediate,28915 Northbay Rd.,90275-4902,33.767424,-118.377916
Rolling Hill International School,500 Silver Spur Rd.,90275-3637,33.773654,-118.3735
Rolling Hills Country Day School,26444 Crenshaw Blvd.,90274-2517,33.783094,-118.351846
Silver Spur Elementary,5500 Ironwood St.,90275-1739,33.787996,-118.375463
Soleado Elementary,27800 Longhill Dr.,90275-3909,33.773306,-118.36694
St. John Fisher School,5446 Crest Rd.,90275-5027,33.762802,-118.369753
Sunrise Pre-School,3801 Via La Selva,90274-1119,33.801327,-118.365321
Valmonte Elementary,3801 Via La Selva,90274-1119,33.801339,-118.365274
Vista Grande Elementary,7032 Purpleridge Dr.,90275-3059,33.771675,-118.402131
Abraham Lincoln,15324 California Ave.,90723-4378,33.893657,-118.158693
Alondra Middle,16200 Downey Ave.,90723-5528,33.887295,-118.151294
BOOM SQUAD ACADEMY,13223 Paramount Blvd Ste. A,90280-7912,33.915137,-118.158873
Calvary Christian Academy of Compton,15347 Hunsaker Ave. Unit C,90723-3775,33.893023,-118.179062
Frank J. Zamboni,15733 South Orange Ave.,90723-4378,33.890645,-118.177595
Harry Wirtz Elementary,8535 Contreras St.,90723-4378,33.901103,-118.150484
Hollydale,5511 Century Blvd.,90280-8114,33.917664,-118.175446
Howard Tanner,7210 Rosecrans Ave.,90723-2502,33.90357,-118.172842
INTER-TRIBAL Family Of Nations Day School Program,7200 Somerset  Blvd. (Ste.982),90723-8748,33.895768,-118.172699
Leona Jackson,7220 Jackson St.,90723-4378,33.885413,-118.172614
Los Cerritos,14626 Gundry Ave.,90723-4378,33.900974,-118.175479
Mark Keppel,6630 East Mark Keppel St.,90723-4378,33.894212,-118.181042
Our Lady of the Rosary School,14813 South Paramount Blvd.,90723-3406,33.898871,-118.16056
Paramount Adult,14507 Paramount Blvd.,90723-4378,33.901307,-118.16055
Paramount High,14429 South Downey Ave.,90723-4378,33.901996,-118.151598
Paramount Park Middle,14608 Paramount Blvd.,90723-3465,33.900869,-118.160003
Paramount Unified Community Day,14507 Paramount Blvd.,90723-3419,33.90179,-118.160295
Paramount Virtual Academy,15110 California Ave,90723-4320,33.896129,-118.15805
Theodore Roosevelt,13451 Merkel Ave.,90723-4378,33.911463,-118.155497
Wesley Gaines,7340 East Jackson St.,90723-4809,33.885422,-118.169644
Aveson School of Leaders,524 Palisade St.,91103-2056,34.170365,-118.161222
Celerity Exa Charter,136 West Peoria St.,91103,34.154997,-118.152951
Chandler School,1005 Armada Dr.,91103-2802,34.159279,-118.163099
Cleveland Elementary,524 Palisade St.,91103-2056,34.170993,-118.161676
Franklin Elementary,527 West Ventura St.,91001-4936,34.191333,-118.159402
harriet tubman,36 West Montana St.,91103-1725,34.180616,-118.151613
John Muir High,1905 North Lincoln Ave.,91103-1315,34.178298,-118.159628
MARANATHA CHRISTIAN ACADEMY & TECHNOLOGY INSTITUTE,359 W Del Mar Blvd,91105-1857,34.141179,-118.157593
Maranatha High School,169 South Saint John Ave,91105-1853,34.1428,-118.157037
Mary W. Jackson STEAM Multilingual Magnet Elementary,593 West Woodbury Rd.,91001-5464,34.183195,-118.163747
Mayfield Senior School,500 Bellefontaine St.,91105-2439,34.130423,-118.162243
New Horizon School Pasadena,651 North Orange Grove Blvd.,91103-3384,34.155134,-118.15613
Roosevelt Elementary,315 North Pasadena Ave.,91103-3567,34.151758,-118.157388
San Rafael Elementary,1090 Nithsdale Rd.,91105-1499,34.137292,-118.172622
Sequoyah School,535 South Pasadena Ave.,91105-3001,34.136675,-118.154113
St. Monica Academy,2361 Del Mar Rd.,91020-1403,34.211612,-118.230716
The Waverly School,67 W. Bellevue Dr.,91105-2501,34.138583,-118.15188
Westmoreland Academy,5 Westmoreland Pl.,91103-3565,34.15264,-118.160496
Westridge School for Girls,324 Madeline Dr.,91105-3333,34.127048,-118.155475
Adams Middle,2600 Ripley Ave.,90278,33.866497,-118.364225
Alta Vista Elementary,815 Knob Hill Ave.,90277,33.828264,-118.378104
Beryl Heights Elementary,920 Beryl St.,90277,33.852141,-118.384557
Birney Elementary,1600 Green Ln.,90278,33.869038,-118.376879
Jefferson Elementary,600 Harkness Ln.,90278,33.859635,-118.381067
Lincoln Elementary,2223 Plant Ave.,90278,33.880985,-118.372082
Madison Elementary,2200 Mackay Ln.,90278,33.875244,-118.36851
Parras (Nick G.) Middle,200 N. Lucia,90277,33.8405,-118.3772
Tulita Elementary,1520 Prospect Ave.,90277,33.82066,-118.376831
Washington Elementary,1100 Lilienthal Ln.,90278,33.863856,-118.365531
Tuvia School of Temple Menorah,1101 Camino Real,90277-4531,33.827514,-118.373496
Academy of the Arts,2108 Vail Ave,90278-2518,33.874432,-118.369707
Adams Middle,2600 Ripley Ave.,90278-4555,33.867094,-118.363322
Aegean Academy,2229 Voorhees Ave.,90278-2423,33.87677,-118.370182
Alta Vista Elementary,815 Knob Hill Ave.,90277-4300,33.828546,-118.378077
Beryl Heights Elementary,920 Beryl St.,90277-2236,33.852188,-118.384585
Birney Elementary,1600 Green Ln.,90278-3656,33.868948,-118.376472
Jefferson Elementary,600 Harkness Ln.,90278-4806,33.860053,-118.381102
Lincoln Elementary,2223 Plant Ave.,90278-2013,33.880962,-118.371313
Madison Elementary,2200 MacKay Ln.,90278-2509,33.87521,-118.367454
Parras (Nick G.) Middle,200 North Lucia,90277-3220,33.844419,-118.378586
Patricia Dreizler Continuation High,1000 Del Amo St.,90277-3034,33.84872,-118.382477
Redondo Beach Learning Academy,1000 Del Amo St.,90277-3934,33.84872,-118.382477
Redondo Beach Virtual Learning,1401 Inglewood Ave.,90278-3912,33.867514,-118.361626
Redondo Union High,One Sea Hawk Way,90277-3125,33.844753,-118.386499
South Bay Adult,3401 Inglewood Ave.,90278,33.886545,-118.362037
South Bay Faith Academy,101 S Pacific Coast Hwy,90277-3351,33.841791,-118.386141
St. Lawrence Martyr Elementary,1950 So. Prospect Ave.,90277-6003,33.816897,-118.37648
Tulita Elementary,1520 Prospect Ave.,90277-5113,33.821368,-118.376873
Valor Christian Academy,525 Earle Ln.,90278-5004,33.859167,-118.371834
Washington Elementary,1100 Lilienthal Ln.,90278-4557,33.863828,-118.365528
Carlthorp,438 San Vicente Blvd.,90402-1703,34.029793,-118.509509
Crossroads School for Arts & Sciences,1714 21St St,90404-3917,34.0245,-118.473724
Edison Elementary,2402 Virginia Ave.,90404-5204,34.024168,-118.465916
Franklin Elementary,2400 Montana Ave.,90403-2124,34.040057,-118.485407
Grant Elementary,2368 Pearl St.,90405-2853,34.019278,-118.462693
John Adams Middle,2425 16th St.,90405-2621,34.012983,-118.470086
John Muir Elementary,2526 Sixth St.,90405-3811,34.005709,-118.48043
Lighthouse Christian Academy,1424 Yale St.,90404-3108,34.034725,-118.47139
Lighthouse Church School,"1220 20Th St., Lighthouse Church",90404,34.030654,-118.483122
Lincoln Middle,1501 California Ave.,90403-4305,34.028977,-118.489547
McKinley Elementary,2401 Santa Monica Blvd.,90404-2044,34.031663,-118.476484
New Roads School,3131 Olympic Blvd.,90404-5002,34.031309,-118.461304
Olympic High (Continuation),721 Ocean Park Blvd.,90405-3811,34.006199,-118.477771
Pacifica Christian High School,1730 Wilshire Blvd.,90403-5510,34.02943,-118.485213
PBL High,601 Pico Blvd.,90405-1224,34.011345,-118.48519
PS1 Pluralistic School,1225 BRd.way,90404,34.021977,-118.48538
Roosevelt Elementary,801 Montana Ave.,90403-1502,34.027653,-118.500883
Saint Monica Catholic High School,1030 Lincoln Blvd.,90403-4010,34.024061,-118.496995
Santa Monica Alternative (K-8),2525 Fifth St.,90405-3703,34.005227,-118.481244
Santa Monica High,601 Pico Blvd.,90405-1224,34.011253,-118.485135
Santa Monica Montessori School,1909 Colorado Avenue,90404-3413,34.025817,-118.477855
Santa Monica-Malibu Adult,2510 Lincoln Blvd.,90405,34.007439,-118.477294
Santa Monica-Malibu Preschool,1651 16th St.,90404-3801,34.022237,-118.479026
SmartStart Academy,2505 Lincoln Blvd,90405-3817,34.008251,-118.477518
SmartStart Developmental Learning Center,2505 Lincoln Blvd,90405-3817,34.008251,-118.477518
St Monica Catholic Elementary School,1039 7th St.,90403-4003,34.023565,-118.497728
St. Anne Elementary,2015 Colorado Ave.,90404-3415,34.026657,-118.476254
Sycamore Community School,1229 4Th St.,90401-1303,34.018565,-118.497164
Sycamore School,3504 Las Flores Canyon Rd.,90265-3434,34.045629,-118.638816
The Gray Academy,12318 Venice Blvd,90066-3802,34.003665,-118.432703
Will Rogers Elementary,2401 14th St.,90405-2615,34.011924,-118.471669
Academia Avance Charter,115 North Avenue 53,90042-4005,34.107288,-118.198423
Anahuacalmecac International University Preparatory of North America,4736 Huntington Dr. South,90032-1942,34.085085,-118.181545
Celerity Rolas Charter,1495 Colorado Blvd.,90041-2340,34.139635,-118.197388
Doris Topsy-Elvord Academy,5951 Downey Ave.,90805-4518,33.863666,-118.151295
Los Angeles College Prep Academy,625 Coleman Ave.,90042-4903,34.102359,-118.183367
New West Charter,1905 Armacost Ave.,90025-5210,34.035653,-118.455358
Prepa Tec Los Angeles High,4210 East Gage St.,90201-1213,33.978427,-118.192214
Today's Fresh Start Charter,4514 Crenshaw Blvd.,90043-1221,34.002174,-118.330959
Mira Costa High,701 S. Peck Ave.,90266,33.873818,-118.387438
Redondo High,631 Vincent Park,90277,33.844585,-118.384442
Arroyo Vista Elementary,335 El Centro St.,91030-3006,34.114015,-118.16717
Fusion Academy Pasadena,"825 Colorado Blvd., 118",90041,34.140801,-118.184764
Holy Family Catholic School,1301 Rollin St.,91030-3736,34.108636,-118.154279
"Institute for the Redesign of Learning, Almansor Academy",1955 Fremont Ave.,91030-4507,34.101788,-118.152289
Monterey Hills Elementary,1624 Via del Rey,91030-4126,34.104466,-118.164563
South Pasadena Senior High,1401 Fremont Ave.,91030-3809,34.109915,-118.153207
Southern California ROC,2300 Crenshaw Blvd.,90501-3324,33.824924,-118.328465
Ambassador High School,"2300 Crenshaw Blvd, Bldg. B",90501-3324,33.82426,-118.327246
Anza Elementary,21400 Ellinwood Dr.,90503-5410,33.834486,-118.3657
Arlington Elementary,17800 Van Ness Ave.,90504-4330,33.869201,-118.31775
Bert M. Lynn Middle,5038 Halison St.,90503-1920,33.851238,-118.363283
Bishop Montgomery High,5430 Torrance Blvd.,90503-4006,33.837794,-118.371322
Branch of Hope School,2370 W Carson St #100,90501-3100,33.830564,-118.325282
Bread of Life Church School,"2780 Lomita Blvd. Torrance, Ca 90505",90505,33.809088,-118.336789
Calle Mayor Middle,4800 Calle Mayor,90505-4401,33.81558,-118.364564
Casimir Middle,17220 Casimir Ave.,90504-2936,33.873247,-118.322076
Center For Learning Unlimited,"2785 Pacific Coast Hwy., G",90505,33.794211,-118.334201
Edison Elementary,3800 182nd St.,90504-4837,33.865043,-118.33938
Edward J. Richardson Middle,23751 Nancy Lee Ln.,90505-5416,33.810319,-118.367037
Evelyn Carr Elementary,3404 West 168th St.,90504-1752,33.878019,-118.332193
Fern Elementary,1314 Fern Ave.,90503-6125,33.835195,-118.33218
First Lutheran,2900 West Carson St.,90503-6005,33.830901,-118.338512
Fresh Roots Forest School,5211 Scott St.,90503-5355,33.836909,-118.368223
Gene Drevno Community Day,2291 West Washington Ave.,90501-3450,33.825638,-118.321589
Hamilton Adult Education Center,2606 182nd St.,90504-5227,33.86478,-118.321481
Hickory Elementary,2800 West 227th St.,90505-2912,33.820017,-118.334876
Hickory Tree School,21720 Madrona Ave,90503-7111,33.830427,-118.344323
Howard Wood Elementary,2250 West 235th St.,90501-5705,33.812697,-118.321336
J. H. Hull Middle,2080 West 231st St.,90501-5448,33.815597,-118.317136
Jefferson Middle,21717 Talisman St.,90503-6441,33.83206,-118.357248
John Adams Elementary,2121 238Th St.,90501-6116,33.808805,-118.321171
Joseph Arnold Elementary,4100 227th St.,90505-2246,33.822341,-118.356497
LAUNCH Preschool,4000 West 227th St.,90505-2208,33.822294,-118.355434
Lighthouse Academy,"3621 Garnet St, Unit 6",90503-3370,33.843448,-118.349872
Lincoln Elementary,2418 West 166th St.,90504-1813,33.880079,-118.320776
LINK School,1304 El Prado Ave,90501-2735,33.834705,-118.316071
Madrona Middle,21364 Madrona Ave.,90503-5948,33.83502,-118.344817
Mr. J's Academy,"22760 Hawthorne Blvd., Ste. 106",90505-3675,33.820479,-118.35008
Nativity Catholic Elementary,2371 W. Carson St.,90501-3141,33.831636,-118.325967
North High,3620 West 182nd St.,90504-3935,33.865535,-118.335701
Owen H. Griffith Adult,2291 West Washington Ave.,90501,33.825876,-118.320994
Philip Magruder Middle,4100 West 185th St.,90504-4706,33.86269,-118.345834
Playhouse School,18213 Prairie Ave.,90504-4830,33.864862,-118.344179
Riviera Elementary,365 Paseo de Arena,90505-6226,33.80783,-118.37427
Riviera Hall Lutheran School,330 Palos Verdes Blvd,90277-6304,33.814293,-118.386141
Seaside Elementary,4651 Sharynne Ln.,90505-3355,33.820452,-118.363323
Shery (Kurt T.) High (Continuation),2600 Vine St.,90501-4330,33.822861,-118.323882
South Bay Christian School,4400 Del Amo Blvd.,90503-2121,33.847636,-118.359785
South Bay High School,4025 W. 226th St.,90505-2340,33.824223,-118.356011
South High,4801 Pacific Coast Hwy.,90505-5544,33.810786,-118.365248
St. Catherine Laboure Elementary,3846 Redondo Beach Blvd.,90504-1114,33.878273,-118.340793
St. James Elementary,4625 Garnet St.,90503-2218,33.843181,-118.362625
Switzer Learning Center,2201 Amapola Ct.,90501-1431,33.844752,-118.322524
Torrance Elementary,2125 Lincoln Ave.,90501-4437,33.82358,-118.31998
Torrance High,2200 Carson St.,90501-3135,33.831308,-118.321143
Towers Elementary,5600 Towers St.,90503-1161,33.853977,-118.376044
Victor Elementary,4820 Spencer St.,90503-2254,33.844923,-118.365018
Walteria Elementary,24456 Madison St.,90505-6653,33.800161,-118.347726
West High,20401 Victor St.,90503-2255,33.846515,-118.366706
Yukon Elementary,17815 Yukon Ave.,90504-3927,33.866944,-118.335031
Aviation Elementary,5403 West 138th St.,90250-6431,33.906602,-118.374371
Beach Cities Montessori School,2233 E. El Segundo Blvd.,90245-4608,33.916825,-118.385549
Da Vinci Communications,201 N. Douglas,90245-4637,33.917773,-118.383986
Da Vinci Connect,12501 Isis Ave.,90250-6462,33.919526,-118.375048
Da Vinci Design,201 North Douglas,90245-4637,33.918105,-118.383224
Da Vinci Science,201 N. Douglas St.,90245-4637,33.917908,-118.384081
Del Aire Elementary,12110 Hindry Ave.,90250-3403,33.922918,-118.372077
Hollyglen Elementary,5309 West 135th St.,90250-4948,33.90952,-118.372738
Malaga Cove School - Success Learning Center,300 Paseo Del Mar,90274-1272,33.801682,-118.396452
RISE High,13500 Aviation Blvd.,90250-6462,33.908904,-118.377651
Success Learning Center,13530 Aviation Blvd.,90250-6462,33.920452,-118.378446
Wiseburn Middle,5504 West 135th St.,90250-6462,33.909404,-118.376654
Los Angeles Education Corps Charter,2824 South Main St.,90007-3334,34.022942,-118.269808
